num,id,store,business,address,x,y,url
1,8259571,용수교회,교회,제주특별자치도 제주시 한경면 용수길 71,126.1684023,33.32498885,http://place.map.kakao.com/8259571
2,8535240,장로교회,교회,제주특별자치도 제주시 한경면 용수길 71,126.1685919,33.3249252,http://place.map.kakao.com/8535240
3,23966183,용수예루살렘교회,교회,제주특별자치도 제주시 한경면 용수길 40-19,126.1711743,33.32372711,http://place.map.kakao.com/23966183
4,27457097,고산교회,교회,제주특별자치도 제주시 한경면 고산로 12-1,126.1806613,33.30217702,http://place.map.kakao.com/27457097
5,14723339,순례자의교회,교회,제주특별자치도 제주시 한경면 용수리 2410,126.1805308,33.31980414,http://place.map.kakao.com/14723339
6,9779256,한경교회,교회,제주특별자치도 제주시 한경면 두신로 92-6,126.1840192,33.3506363,http://place.map.kakao.com/9779256
7,1952690488,신도교회,교회,제주특별자치도 서귀포시 대정읍 도원남로 171-6,126.1919494,33.27825758,http://place.map.kakao.com/1952690488
8,23972062,무릉교회,교회,제주특별자치도 서귀포시 대정읍 서삼중로 113-5,126.2005359,33.27126257,http://place.map.kakao.com/23972062
9,8904657,판포교회,교회,제주특별자치도 제주시 한경면 판포4길 21,126.201547,33.36335448,http://place.map.kakao.com/8904657
10,7830445,대정영락교회,교회,제주특별자치도 서귀포시 대정읍 영락하동로25번길 14,126.2103528,33.25523708,http://place.map.kakao.com/7830445
11,23971635,영락그리스도의교회,교회,제주특별자치도 서귀포시 대정읍 영락중동로16번길 3,126.211505,33.25837838,http://place.map.kakao.com/23971635
12,1656324447,행복한교회,교회,제주특별자치도 제주시 한경면 고조로 389-7,126.21394,33.32482013,http://place.map.kakao.com/1656324447
13,1344264935,제주황금종교회,교회,제주특별자치도 제주시 한경면 금등대안3길 18,126.2114752,33.34377586,http://place.map.kakao.com/1344264935
14,23966181,월령교회,교회,제주특별자치도 제주시 한림읍 월령3길 10-4,126.2174988,33.37696186,http://place.map.kakao.com/23966181
15,1687874264,라온교회,교회,제주특별자치도 제주시 한림읍 월령3길 29,126.2162571,33.37810265,http://place.map.kakao.com/1687874264
16,1614719336,경배와 찬양교회,교회,제주특별자치도 제주시 한림읍 월령3길 29,126.2161944,33.37814373,http://place.map.kakao.com/1614719336
17,11215583,서림교회,교회,제주특별자치도 서귀포시 대정읍 서림중앙로 45,126.2254549,33.24633763,http://place.map.kakao.com/11215583
18,11912720,평지교회,교회,제주특별자치도 서귀포시 대정읍 무영로228번길 8-8,126.2224276,33.28053467,http://place.map.kakao.com/11912720
19,24040371,삼성교회,교회,제주특별자치도 제주시 한경면 낙수로 128,126.2271701,33.32543328,http://place.map.kakao.com/24040371
20,23966573,가나안교회,교회,제주특별자치도 제주시 한경면 낙수로 64,126.2248725,33.33069511,http://place.map.kakao.com/23966573
21,8711646,금능교회,교회,제주특별자치도 제주시 한림읍 한림로 177,126.2266794,33.38628773,http://place.map.kakao.com/8711646
22,23966965,경산교회,교회,제주특별자치도 제주시 한경면 불그못로 193,126.2301278,33.29733978,http://place.map.kakao.com/23966965
23,9454991,조수교회,교회,제주특별자치도 제주시 한경면 조수3길 7,126.2307226,33.33670005,http://place.map.kakao.com/9454991
24,483254494,비양도교회,교회,제주특별자치도 제주시 한림읍 비양도길 279,126.2308405,33.40632342,http://place.map.kakao.com/483254494
25,10330914,모슬포교회,교회,제주특별자치도 서귀포시 대정읍 하모이삼로15번길 25,126.2486436,33.224394,http://place.map.kakao.com/10330914
26,2108063728,모슬포교회,교회,제주특별자치도 서귀포시 대정읍 신영로 65-12,126.2499065,33.22121352,http://place.map.kakao.com/2108063728
27,23972770,청수교회,교회,제주특별자치도 제주시 한경면 대한로 1067,126.2480194,33.32078277,http://place.map.kakao.com/23972770
28,8903244,협재교회,교회,제주특별자치도 제주시 한림읍 협재8길 8,126.2430281,33.39472282,http://place.map.kakao.com/8903244
29,8158565,남제주 강병대교회,교회,제주특별자치도 서귀포시 대정읍 상모대서로 43-3,126.25738,33.22667886,http://place.map.kakao.com/8158565
30,8898436,모슬포중앙교회,교회,제주특별자치도 서귀포시 대정읍 상모대서로 56,126.2594844,33.22722516,http://place.map.kakao.com/8898436
31,24992961,제주대정교회,교회,제주특별자치도 서귀포시 대정읍 하모중앙로 79,126.2521299,33.22112592,http://place.map.kakao.com/24992961
32,9776792,모슬포순복음교회,교회,제주특별자치도 서귀포시 대정읍 동일하모로 212,126.2537523,33.22561849,http://place.map.kakao.com/9776792
33,947321001,드림교회,교회,제주특별자치도 서귀포시 대정읍 하모중앙로68번길 5,126.2512959,33.2220676,http://place.map.kakao.com/947321001
34,9379074,제칠일 안식일예수재림교 모슬포교회,교회,제주특별자치도 서귀포시 대정읍 하모이삼로52번길 11-3,126.2541479,33.22298815,http://place.map.kakao.com/9379074
35,10090661,저청중앙교회,교회,제주특별자치도 제주시 한경면 중산간서로 3604,126.253469,33.32651735,http://place.map.kakao.com/10090661
36,9789615,옹포교회,교회,제주특별자치도 제주시 한림읍 옹포8길 1-7,126.2553767,33.40468615,http://place.map.kakao.com/9789615
37,10352497,마라도교회,교회,제주특별자치도 서귀포시 대정읍 가파리 산 15,126.2681358,33.11814233,http://place.map.kakao.com/10352497
38,10330915,모슬포성결교회,교회,제주특별자치도 서귀포시 대정읍 비행장로 74,126.2601455,33.2175169,http://place.map.kakao.com/10330915
39,10039866,포도원교회,교회,제주특별자치도 서귀포시 대정읍 송악관광로143번길 15,126.2683451,33.22160823,http://place.map.kakao.com/10039866
40,1292342143,샬롬교회,교회,제주특별자치도 제주시 한림읍 명월로6길 30,126.265579,33.3822081,http://place.map.kakao.com/1292342143
41,23967141,한림중앙교회,교회,제주특별자치도 제주시 한림읍 한림상로 101-2,126.2641434,33.40985587,http://place.map.kakao.com/23967141
42,1392741974,쉴만한교회,교회,제주특별자치도 제주시 한림읍 한림중앙로 71-6,126.2670374,33.40857111,http://place.map.kakao.com/1392741974
43,11217572,한림교회,교회,제주특별자치도 제주시 한림읍 한림로14길 13,126.2670979,33.41596449,http://place.map.kakao.com/11217572
44,23967164,한림가정교회,교회,제주특별자치도 제주시 한림읍 한림중앙로 33-3,126.2658028,33.41195018,http://place.map.kakao.com/23967164
45,23970135,제주한림예수중심교회,교회,제주특별자치도 제주시 한림읍 수원5길 1,126.2691508,33.4260347,http://place.map.kakao.com/23970135
46,23970645,가파성결교회,교회,제주특별자치도 서귀포시 대정읍 가파로67번길 23-9,126.2711511,33.16674493,http://place.map.kakao.com/23970645
47,7830272,대정교회,교회,제주특별자치도 서귀포시 대정읍 추사로36번길 11,126.2794452,33.25094301,http://place.map.kakao.com/7830272
48,1406665313,대정한사랑교회,교회,제주특별자치도 서귀포시 대정읍 추사로38번길 134,126.2794829,33.261786,http://place.map.kakao.com/1406665313
49,1330321415,대정임마누엘교회,교회,제주특별자치도 서귀포시 대정읍 중산간서로 2385,126.2791702,33.2721491,http://place.map.kakao.com/1330321415
50,1081822929,제주국제교회,교회,제주특별자치도 서귀포시 대정읍 글로벌에듀로362번길 17,126.2781225,33.28207874,http://place.map.kakao.com/1081822929
51,26040940,제주비전교회,교회,제주특별자치도 제주시 한림읍 중산간서로 4135,126.2794251,33.35732139,http://place.map.kakao.com/26040940
52,10326530,명월교회,교회,제주특별자치도 제주시 한림읍 명월로 190-7,126.2719833,33.37778746,http://place.map.kakao.com/10326530
53,1986112773,한림순복음교회,교회,제주특별자치도 제주시 한림읍 한상로 13,126.2766982,33.41210073,http://place.map.kakao.com/1986112773
54,15200014,한사랑교회,교회,제주특별자치도 제주시 한림읍 명랑남동길 25,126.2739727,33.41665766,http://place.map.kakao.com/15200014
55,2037941930,천국문예수중심교회,교회,제주특별자치도 제주시 한림읍 대림8길 34,126.2713433,33.42331039,http://place.map.kakao.com/2037941930
56,8067667,제주귀덕교회,교회,제주특별자치도 제주시 한림읍 귀덕1길 11,126.2768579,33.43588913,http://place.map.kakao.com/8067667
57,1207827008,영어마을교회,교회,제주특별자치도 서귀포시 대정읍 에듀시티로 44,126.2839409,33.29123666,http://place.map.kakao.com/1207827008
58,1840616623,서길교회,교회,제주특별자치도 제주시 한림읍 금악서길 27-23,126.2844736,33.34588947,http://place.map.kakao.com/1840616623
59,1565676260,금악교회,교회,제주특별자치도 제주시 한림읍 금악리 2988-8,126.2895992,33.35720421,http://place.map.kakao.com/1565676260
60,10010648,한수풀감리교회,교회,제주특별자치도 제주시 한림읍 대림로 101,126.2838319,33.41737854,http://place.map.kakao.com/10010648
61,933037258,제주예원교회,교회,제주특별자치도 제주시 한림읍 귀덕4길 127,126.2887928,33.42934231,http://place.map.kakao.com/933037258
62,1718199449,예인교회,교회,제주특별자치도 제주시 한림읍 귀덕4길 1,126.2803005,33.43779888,http://place.map.kakao.com/1718199449
63,8344582,사계교회,교회,제주특별자치도 서귀포시 안덕면 사계중앙로 7,126.2979949,33.23073392,http://place.map.kakao.com/8344582
64,119520256,제주조이풀교회,교회,제주특별자치도 서귀포시 안덕면 녹차분재로 216,126.2943519,33.30223269,http://place.map.kakao.com/119520256
65,8237836,금악성산순복음교회,교회,제주특별자치도 제주시 한림읍 금악로2길 39,126.298623,33.35986924,http://place.map.kakao.com/8237836
66,17711258,덕수교회,교회,제주특별자치도 서귀포시 안덕면 덕수서로68번길 3-19,126.3052686,33.25786648,http://place.map.kakao.com/17711258
67,23969426,남제주교회,교회,제주특별자치도 서귀포시 안덕면 덕수회관로87번길 25-6,126.3056399,33.25270772,http://place.map.kakao.com/23969426
68,216590914,대화교회,교회,제주특별자치도 서귀포시 안덕면 덕수서로 239,126.3045166,33.27150907,http://place.map.kakao.com/216590914
69,23994887,서광서리교회,교회,제주특별자치도 서귀포시 안덕면 녹차분재로 40,126.3024353,33.28919781,http://place.map.kakao.com/23994887
70,1857781435,내이션침례교회,교회,제주특별자치도 서귀포시 안덕면 녹차분재로 44-5,126.3024367,33.29010664,http://place.map.kakao.com/1857781435
71,8238816,금성교회,교회,제주특별자치도 제주시 애월읍 금성하안길 3,126.3027857,33.44621111,http://place.map.kakao.com/8238816
72,24925530,곽지교회,교회,제주특별자치도 제주시 애월읍 곽지3길 14,126.3058847,33.44870966,http://place.map.kakao.com/24925530
73,7399722,브엘세바교회,교회,제주특별자치도 서귀포시 안덕면 평화로 360-26,126.3103187,33.27345281,http://place.map.kakao.com/7399722
74,13034972,봉성교회,교회,제주특별자치도 제주시 애월읍 봉성로 83-9,126.3116792,33.42096223,http://place.map.kakao.com/13034972
75,58441020,이레교회,교회,제주특별자치도 제주시 애월읍 곽지남4길 5-3,126.3102221,33.44355695,http://place.map.kakao.com/58441020
76,10186322,납읍교회,교회,제주특별자치도 제주시 애월읍 납읍로 20,126.3296476,33.43825937,http://place.map.kakao.com/10186322
77,1178520850,하람교회,교회,제주특별자치도 제주시 애월읍 애납로 155,126.327971,33.44036362,http://place.map.kakao.com/1178520850
78,12605876,제주혜린교회,교회,제주특별자치도 제주시 애월읍 애원로 99-17,126.3254207,33.45696422,http://place.map.kakao.com/12605876
79,9233553,애월교회,교회,제주특별자치도 제주시 애월읍 애월로18길 5,126.3260759,33.46291464,http://place.map.kakao.com/9233553
80,10322679,안덕교회,교회,제주특별자치도 서귀포시 안덕면 화순재남로 31-18,126.3339172,33.24942543,http://place.map.kakao.com/10322679
81,10506565,서광교회,교회,제주특별자치도 서귀포시 안덕면 화순서동로 397,126.33133,33.28605402,http://place.map.kakao.com/10506565
82,128928352,영어촌교회,교회,제주특별자치도 서귀포시 안덕면 동광본동로 2-11,126.3388328,33.30739289,http://place.map.kakao.com/128928352
83,25590184,제주영어교회,교회,제주특별자치도 서귀포시 안덕면 동광본동로 2-11,126.3387554,33.30739969,http://place.map.kakao.com/25590184
84,1557894954,제주하영교회,교회,제주특별자치도 서귀포시 안덕면 신화역사로 473-7,126.3378611,33.31107078,http://place.map.kakao.com/1557894954
85,1629752598,꿈틀교회,교회,제주특별자치도 제주시 애월읍 고내봉서2길 43,126.3353712,33.45031736,http://place.map.kakao.com/1629752598
86,859411724,고내소망교회,교회,제주특별자치도 제주시 애월읍 고내북동길 8,126.3398354,33.46697008,http://place.map.kakao.com/859411724
87,19679174,제주성서교회,교회,제주특별자치도 제주시 애월읍 일주서로 6374,126.3350756,33.46199313,http://place.map.kakao.com/19679174
88,758199258,산방산이보이는교회,교회,제주특별자치도 서귀포시 안덕면 동광로 229,126.3434363,33.31580045,http://place.map.kakao.com/758199258
89,12757079,양촌교회,교회,제주특별자치도 제주시 애월읍 상가북4길 7,126.3441088,33.45146383,http://place.map.kakao.com/12757079
90,13127781,감산교회,교회,제주특별자치도 서귀포시 안덕면 감산중로 16-11,126.3526498,33.25856216,http://place.map.kakao.com/13127781
91,23942389,드림교회,교회,제주특별자치도 서귀포시 안덕면 신화역사로 601,126.3515883,33.31083934,http://place.map.kakao.com/23942389
92,23973136,대평교회(대한예수교장로회),교회,제주특별자치도 서귀포시 안덕면 대평감산로 14-4,126.3670606,33.23588669,http://place.map.kakao.com/23973136
93,11641615,상창교회,교회,제주특별자치도 서귀포시 안덕면 한창로97번길 18,126.3642923,33.27031078,http://place.map.kakao.com/11641615
94,8504246,중엄교회,교회,제주특별자치도 제주시 애월읍 일주서로 6741,126.371985,33.47317776,http://place.map.kakao.com/8504246
95,1643530726,서귀포꿈꾸는교회,교회,제주특별자치도 서귀포시 일주서로 1206,126.3842821,33.26443727,http://place.map.kakao.com/1643530726
96,27004813,방주교회,교회,제주특별자치도 서귀포시 안덕면 산록남로762번길 113,126.3874393,33.30504898,http://place.map.kakao.com/27004813
97,17390195,제주창성교회,교회,제주특별자치도 제주시 애월읍 장전남4길 28-1,126.3878453,33.44767359,http://place.map.kakao.com/17390195
98,13042483,예래교회,교회,제주특별자치도 서귀포시 예래로68번길 8,126.398753,33.25545763,http://place.map.kakao.com/13042483
99,866647821,태초교회,교회,제주특별자치도 서귀포시 우남로 20,126.3913224,33.26600468,http://place.map.kakao.com/866647821
100,20898968,제일행복한교회,교회,제주특별자치도 제주시 애월읍 하소로 681-6,126.3966483,33.4226416,http://place.map.kakao.com/20898968
101,115132806,더불어행복한교회,교회,제주특별자치도 제주시 애월읍 하소로 658,126.3958539,33.42588168,http://place.map.kakao.com/115132806
102,277489309,아끈교회,교회,제주특별자치도 제주시 애월읍 장유길 44,126.395618,33.4490605,http://place.map.kakao.com/277489309
103,7970285,수산교회,교회,제주특별자치도 제주시 애월읍 수산4길 67,126.3901889,33.46871563,http://place.map.kakao.com/7970285
104,27300134,애조로교회,교회,제주특별자치도 제주시 애월읍 애조로 88,126.3926718,33.47117113,http://place.map.kakao.com/27300134
105,1423369768,제주새사람교회,교회,제주특별자치도 제주시 애월읍 하귀로 19,126.3991705,33.48007353,http://place.map.kakao.com/1423369768
106,25541295,서귀포갈보리교회,교회,제주특별자치도 서귀포시 일주서로 1017,126.4020656,33.25941548,http://place.map.kakao.com/25541295
107,26157335,순종하는교회,교회,제주특별자치도 제주시 애월읍 유수암로 207-2,126.4034182,33.42696955,http://place.map.kakao.com/26157335
108,8886213,대한성공회제주교회,교회,제주특별자치도 제주시 애월읍 유수암평화5길 15-18,126.4043845,33.42292242,http://place.map.kakao.com/8886213
109,12999098,제주교회,교회,제주특별자치도 제주시 애월읍 상귀장수물길 58-30,126.4011984,33.44959247,http://place.map.kakao.com/12999098
110,8132767,하귀교회,교회,제주특별자치도 제주시 애월읍 하귀로19길 41,126.4075721,33.47896805,http://place.map.kakao.com/8132767
111,8701530,주영광교회,교회,제주특별자치도 제주시 애월읍 하귀로 59-1,126.4033498,33.48094211,http://place.map.kakao.com/8701530
112,9939956,제주대광교회,교회,제주특별자치도 제주시 애월읍 하귀로15길 32,126.4092095,33.48073216,http://place.map.kakao.com/9939956
113,710916880,신제주그리스도의교회,교회,제주특별자치도 제주시 애월읍 하귀로 43-3,126.4015961,33.4806181,http://place.map.kakao.com/710916880
114,26525125,예명순복음교회,교회,제주특별자치도 제주시 애월읍 하귀로 43-3,126.4016607,33.48061661,http://place.map.kakao.com/26525125
115,25413261,세계평화의섬교회,교회,제주특별자치도 제주시 애월읍 평화로 2435,126.4137928,33.42943169,http://place.map.kakao.com/25413261
116,26534746,제주예평교회,교회,제주특별자치도 제주시 애월읍 하광로 208-22,126.4168362,33.46891058,http://place.map.kakao.com/26534746
117,17157351,제주한빛교회,교회,제주특별자치도 제주시 애월읍 하귀3길 19,126.4173994,33.48698107,http://place.map.kakao.com/17157351
118,11397746,은혜교회,교회,제주특별자치도 제주시 애월읍 하귀동남4길 9-2,126.4130731,33.48200553,http://place.map.kakao.com/11397746
119,9789242,제주교회,교회,제주특별자치도 제주시 애월읍 하광로 77,126.4171774,33.48092496,http://place.map.kakao.com/9789242
120,12157631,제주중문교회,교회,제주특별자치도 서귀포시 일주서로 835,126.4212141,33.25832677,http://place.map.kakao.com/12157631
121,626871700,제주예전교회,교회,제주특별자치도 서귀포시 중문상로 128,126.4296714,33.25887887,http://place.map.kakao.com/626871700
122,86918551,중문하나교회,교회,제주특별자치도 서귀포시 천제연로 185,126.4245145,33.25187565,http://place.map.kakao.com/86918551
123,23972583,중문찬양교회,교회,제주특별자치도 서귀포시 중문로105번길 14,126.4258918,33.26050152,http://place.map.kakao.com/23972583
124,23966171,영신교회,교회,제주특별자치도 제주시 계명길 6-1,126.4261026,33.4888465,http://place.map.kakao.com/23966171
125,10519902,새샘교회,교회,제주특별자치도 제주시 우정로8길 36,126.4269765,33.48946723,http://place.map.kakao.com/10519902
126,1956207736,제주은혜교회,교회,제주특별자치도 제주시 계명길 10-1,126.4254038,33.48826624,http://place.map.kakao.com/1956207736
127,11131784,성일교회,교회,제주특별자치도 제주시 우령8길 76,126.4272626,33.48458555,http://place.map.kakao.com/11131784
128,23967152,외도 순복음교회,교회,제주특별자치도 제주시 우령안1길 11,126.4297117,33.48782813,http://place.map.kakao.com/23967152
129,7940603,서부교회,교회,제주특별자치도 제주시 우령8길 2,126.4269135,33.49118356,http://place.map.kakao.com/7940603
130,23966377,외도평안교회,교회,제주특별자치도 제주시 우정로6길 27,126.4279828,33.49025085,http://place.map.kakao.com/23966377
131,7828351,대포교회(감리교회),교회,제주특별자치도 서귀포시 중문관광로 292,126.4300302,33.2459251,http://place.map.kakao.com/7828351
132,10089835,중문제일교회,교회,제주특별자치도 서귀포시 1100로49번길 11,126.4332734,33.25414829,http://place.map.kakao.com/10089835
133,8682843,중문한사랑교회,교회,제주특별자치도 서귀포시 1100로 31-7,126.432794,33.25328776,http://place.map.kakao.com/8682843
134,24941496,백주년기념교회 (기장),교회,제주특별자치도 서귀포시 1100로85번길 13,126.4363547,33.25827009,http://place.map.kakao.com/24941496
135,8513143,할렐루야회복교회,교회,제주특별자치도 제주시 애월읍 광령평화2길 116-12,126.4320965,33.43498413,http://place.map.kakao.com/8513143
136,26535272,세광교회,교회,제주특별자치도 제주시 애월읍 광령평화6길 31,126.4387428,33.44555945,http://place.map.kakao.com/26535272
137,1756352344,제주교회,교회,제주특별자치도 제주시 애월읍 광령2길 17-7,126.4323648,33.45718983,http://place.map.kakao.com/1756352344
138,11521037,제주큰빛교회,교회,제주특별자치도 제주시 우령2길 50,126.4313756,33.48480284,http://place.map.kakao.com/11521037
139,18421140,제주섬기는교회,교회,제주특별자치도 제주시 우평로 332,126.4313665,33.48421496,http://place.map.kakao.com/18421140
140,8022980,외도교회,교회,제주특별자치도 제주시 우령2길 14,126.4313841,33.4881063,http://place.map.kakao.com/8022980
141,1855479750,임마누엘제주교회,교회,제주특별자치도 제주시 우정로 72,126.4306724,33.48637198,http://place.map.kakao.com/1855479750
142,23650708,제주제일교회,교회,제주특별자치도 제주시 우평로 321-6,126.4327319,33.48338454,http://place.map.kakao.com/23650708
143,8519200,제주성지교회,교회,제주특별자치도 제주시 우정로3길 19,126.4331335,33.49177476,http://place.map.kakao.com/8519200
144,10119691,회수교회,교회,제주특별자치도 서귀포시 1100로 211,126.4450852,33.26587577,http://place.map.kakao.com/10119691
145,1269114413,제주선교100주년기념교회,교회,제주특별자치도 서귀포시 1100로 297,126.4481183,33.27303011,http://place.map.kakao.com/1269114413
146,8227171,광령교회,교회,제주특별자치도 제주시 애월읍 광성로 329-1,126.4425,33.46144446,http://place.map.kakao.com/8227171
147,34691473,제주온누리침례교회,교회,제주특별자치도 제주시 창오길 15,126.4448633,33.48082847,http://place.map.kakao.com/34691473
148,10077839,월평교회,교회,제주특별자치도 서귀포시 월평로 14,126.459753,33.24467917,http://place.map.kakao.com/10077839
149,9679041,기쁜소식 제주교회,교회,제주특별자치도 제주시 오광로6길 19,126.457546,33.4898248,http://place.map.kakao.com/9679041
150,1982062632,열방제주교회,교회,제주특별자치도 제주시 일주서로 7576,126.4565312,33.49449419,http://place.map.kakao.com/1982062632
151,690899245,이호교회,교회,제주특별자치도 제주시 서해안로 22-3,126.4572072,33.49997521,http://place.map.kakao.com/690899245
152,88493904,제주한마음교회,교회,제주특별자치도 제주시 광평동로 31-4,126.4692209,33.48241018,http://place.map.kakao.com/88493904
153,9408825,제주평화교회,교회,제주특별자치도 제주시 오광로 160,126.4627004,33.48246503,http://place.map.kakao.com/9408825
154,11163200,제주예수중심교회,교회,제주특별자치도 제주시 백포남길 9,126.4627709,33.49543742,http://place.map.kakao.com/11163200
155,11439476,도두교회,교회,제주특별자치도 제주시 도두1길 2-1,126.4694785,33.50315056,http://place.map.kakao.com/11439476
156,1705998162,강정교회,교회,제주특별자치도 서귀포시 이어도로 578,126.4781467,33.23580726,http://place.map.kakao.com/1705998162
157,1512509304,해군제주교회,교회,제주특별자치도 서귀포시 강정동 2800,126.4796965,33.23100086,http://place.map.kakao.com/1512509304
158,23972869,제주동부교회,교회,제주특별자치도 서귀포시 일주서로 303,126.4762712,33.25201062,http://place.map.kakao.com/23972869
159,2140882487,제주새소망교회,교회,제주특별자치도 서귀포시 일주서로 323,126.4741094,33.25245501,http://place.map.kakao.com/2140882487
160,1837607188,신제주광염교회,교회,제주특별자치도 제주시 한라대학로 31,126.4750237,33.47860493,http://place.map.kakao.com/1837607188
161,10066738,신일교회,교회,제주특별자치도 제주시 고사마루길 39-6,126.4728789,33.47674576,http://place.map.kakao.com/10066738
162,8067537,노형 중앙교회,교회,제주특별자치도 제주시 다랑곶1길 4,126.4790157,33.48751148,http://place.map.kakao.com/8067537
163,10407327,제주반석교회,교회,제주특별자치도 제주시 노형로 307-4,126.470396,33.48025499,http://place.map.kakao.com/10407327
164,24993033,행복한우리교회,교회,제주특별자치도 제주시 수덕5길 7,126.47701,33.48679618,http://place.map.kakao.com/24993033
165,10795464,제주새순교회,교회,제주특별자치도 제주시 수덕5길 50,126.4738342,33.48458646,http://place.map.kakao.com/10795464
166,1776578072,허브교회,교회,제주특별자치도 제주시 정존11길 31,126.4746813,33.48613358,http://place.map.kakao.com/1776578072
167,27005531,노형교회,교회,제주특별자치도 제주시 월랑로10길 4,126.4766904,33.48913536,http://place.map.kakao.com/27005531
168,11251059,대천교회,교회,제주특별자치도 서귀포시 일주서로 215-7,126.4847758,33.24957208,http://place.map.kakao.com/11251059
169,758126986,제주소랑교회,교회,제주특별자치도 서귀포시 용흥로38번길 20,126.4848576,33.25319335,http://place.map.kakao.com/758126986
170,7983547,제주신광교회,교회,제주특별자치도 제주시 수목원서길 83-9,126.4829454,33.46501695,http://place.map.kakao.com/7983547
171,17385505,제주에바다농아교회,교회,제주특별자치도 제주시 은수길 117-7,126.4883342,33.46547568,http://place.map.kakao.com/17385505
172,9398145,제주충신교회,교회,제주특별자치도 제주시 연화로2길 17-6,126.4892934,33.4780154,http://place.map.kakao.com/9398145
173,26110155,기적의교회,교회,제주특별자치도 제주시 과원북2길 1,126.4829475,33.47915756,http://place.map.kakao.com/26110155
174,10798757,제주평안교회,교회,제주특별자치도 제주시 과원로 12,126.4850194,33.47592766,http://place.map.kakao.com/10798757
175,8066633,제주복음교회,교회,제주특별자치도 제주시 진군길 48,126.4806657,33.47787497,http://place.map.kakao.com/8066633
176,9902818,우리순복음교회,교회,제주특별자치도 제주시 연동4길 14,126.4877389,33.48474569,http://place.map.kakao.com/9902818
177,17135565,사랑하는교회,교회,제주특별자치도 제주시 과원북4길 5,126.4825213,33.48135567,http://place.map.kakao.com/17135565
178,8498951,연동순복음교회,교회,제주특별자치도 제주시 신광로 58,126.4895455,33.48712614,http://place.map.kakao.com/8498951
179,10805254,제주 화평교회,교회,제주특별자치도 제주시 다랑곶길 29,126.4807965,33.48858012,http://place.map.kakao.com/10805254
180,11707535,하늘가족교회,교회,제주특별자치도 제주시 월랑로2길 18,126.4807673,33.48753325,http://place.map.kakao.com/11707535
181,8859747,늘푸른교회,교회,제주특별자치도 제주시 과원북4길 3,126.4823318,33.48138373,http://place.map.kakao.com/8859747
182,11091915,은혜동산교회,교회,제주특별자치도 제주시 원노형10길 32,126.4861292,33.4833073,http://place.map.kakao.com/11091915
183,1501692910,대한예수교장로회열린교회,교회,제주특별자치도 제주시 연동6길 13,126.4894183,33.48459755,http://place.map.kakao.com/1501692910
184,9163568,순복음제주도중앙교회,교회,제주특별자치도 제주시 일주서로 7881,126.4882815,33.49420743,http://place.map.kakao.com/9163568
185,10804420,제주소망교회,교회,제주특별자치도 제주시 성신로 18-8,126.4862258,33.49171775,http://place.map.kakao.com/10804420
186,23966122,중부교회,교회,제주특별자치도 제주시 성신북길 10,126.4827483,33.49168525,http://place.map.kakao.com/23966122
187,9974673,제주생명의교회,교회,제주특별자치도 제주시 도령로11길 26-7,126.48748,33.49289862,http://place.map.kakao.com/9974673
188,1057811922,제주신승감리교회,교회,제주특별자치도 제주시 일주서로 7880,126.488464,33.49354822,http://place.map.kakao.com/1057811922
189,9942851,제주삼다교회,교회,제주특별자치도 제주시 도령북길 8,126.4853922,33.49294406,http://place.map.kakao.com/9942851
190,1994037710,BIM까페교회,교회,제주특별자치도 제주시 삼무로 9,126.4877885,33.49022036,http://place.map.kakao.com/1994037710
191,1614513322,들빛교회,교회,제주특별자치도 서귀포시 선반로65번길 61,126.4955405,33.23768227,http://place.map.kakao.com/1614513322
192,24027013,여의도순복음서귀포교회,교회,제주특별자치도 서귀포시 일주서로 118,126.4953456,33.25068295,http://place.map.kakao.com/24027013
193,834629120,백향목교회,교회,제주특별자치도 서귀포시 중산간서로157번길 56,126.4963447,33.2568433,http://place.map.kakao.com/834629120
194,1390856897,대한성공회 서귀포교회,교회,제주특별자치도 서귀포시 염돈로 41-21,126.4921993,33.25142751,http://place.map.kakao.com/1390856897
195,8335845,동산위의교회,교회,제주특별자치도 서귀포시 엉또로 109,126.4979707,33.26676775,http://place.map.kakao.com/8335845
196,12414984,영광교회,교회,제주특별자치도 제주시 아연로 32-4,126.4980193,33.47866955,http://place.map.kakao.com/12414984
197,329498648,주함교회,교회,제주특별자치도 제주시 연동12길 29,126.4932481,33.4832176,http://place.map.kakao.com/329498648
198,11941806,제주함께하는침례교회,교회,제주특별자치도 제주시 은남1길 19,126.4937306,33.48906189,http://place.map.kakao.com/11941806
199,10328123,연동서부교회,교회,제주특별자치도 제주시 신대로21길 16,126.4980534,33.48207951,http://place.map.kakao.com/10328123
200,23967032,회복감리교회,교회,제주특별자치도 제주시 선덕로6길 11,126.4999143,33.48477739,http://place.map.kakao.com/23967032
201,704146312,제일중국인교회,교회,제주특별자치도 제주시 신대로 126,126.4961794,33.48612186,http://place.map.kakao.com/704146312
202,154860127,제주예향교회,교회,제주특별자치도 제주시 신대로12길 25,126.4939227,33.48859746,http://place.map.kakao.com/154860127
203,10787830,주님동산교회,교회,제주특별자치도 제주시 신대로 165,126.4966358,33.48237309,http://place.map.kakao.com/10787830
204,543513017,그리스도의교회 제주점,교회,제주특별자치도 제주시 신대로 110,126.4961924,33.48740488,http://place.map.kakao.com/543513017
205,258132201,열린순복음,교회,제주특별자치도 제주시 삼무로 77,126.494966,33.48995861,http://place.map.kakao.com/258132201
206,520756691,주성령순복음교회,교회,제주특별자치도 제주시 노연로 148,126.4959592,33.48550428,http://place.map.kakao.com/520756691
207,25064936,열방교회,교회,제주특별자치도 제주시 연북로 90,126.4908265,33.48150186,http://place.map.kakao.com/25064936
208,1290264935,제주평강교회,교회,제주특별자치도 제주시 연삼로 29,126.4955092,33.49389357,http://place.map.kakao.com/1290264935
209,25069694,제주성화교회,교회,제주특별자치도 제주시 연삼로 20,126.4944068,33.49342115,http://place.map.kakao.com/25069694
210,10081610,참좋은교회,교회,제주특별자치도 제주시 연문2길 3,126.4989161,33.492949,http://place.map.kakao.com/10081610
211,1969221293,잠힘교회,교회,제주특별자치도 제주시 신광로1길 10,126.4935588,33.49325359,http://place.map.kakao.com/1969221293
212,242675917,형제교회,교회,제주특별자치도 제주시 신대로10길 5,126.4957095,33.49070365,http://place.map.kakao.com/242675917
213,8331543,법환교회,교회,제주특별자치도 서귀포시 일주서로43번길 38,126.5056138,33.24746751,http://place.map.kakao.com/8331543
214,8435223,신서귀포교회,교회,제주특별자치도 서귀포시 신서로114번길 40,126.5085085,33.25787655,http://place.map.kakao.com/8435223
215,23972342,법환신성교회,교회,제주특별자치도 서귀포시 신중남로 8,126.5089091,33.25226641,http://place.map.kakao.com/23972342
216,14871709,대한예수교침례회 서귀포교회,교회,제주특별자치도 서귀포시 신서귀로51번길 15,126.5097928,33.25389643,http://place.map.kakao.com/14871709
217,11790890,새서귀포교회,교회,제주특별자치도 서귀포시 신서로48번길 20-8,126.5068909,33.25316726,http://place.map.kakao.com/11790890
218,10800071,제주국제순복음교회,교회,제주특별자치도 서귀포시 중산간서로 88-5,126.5009778,33.26226452,http://place.map.kakao.com/10800071
219,27456542,터교회,교회,제주특별자치도 제주시 종천길 39-4,126.5026675,33.47144848,http://place.map.kakao.com/27456542
220,9444234,제주베데스다 한라성결교회,교회,제주특별자치도 제주시 아연로 113-22,126.505338,33.47403412,http://place.map.kakao.com/9444234
221,9454670,제주동산교회,교회,제주특별자치도 제주시 연미2길 16-6,126.5029683,33.49186537,http://place.map.kakao.com/9454670
222,930189898,하나님의교회 세계복음선교협회,교회,제주특별자치도 제주시 오라로 23,126.5075612,33.49864926,http://place.map.kakao.com/930189898
223,9723003,제주서문교회,교회,제주특별자치도 제주시 용문로17길 23-6,126.5067395,33.50728503,http://place.map.kakao.com/9723003
224,9397308,제주동신교회,교회,제주특별자치도 제주시 용문로 120-1,126.5091623,33.50554377,http://place.map.kakao.com/9397308
225,11640244,제주명성교회,교회,제주특별자치도 제주시 한천로 36,126.5093938,33.50189144,http://place.map.kakao.com/11640244
226,24046284,성은교회,교회,제주특별자치도 제주시 용담로 14-1,126.5043373,33.51295546,http://place.map.kakao.com/24046284
227,1733880409,복된교회,교회,제주특별자치도 제주시 용담로1길 27,126.5068758,33.5155243,http://place.map.kakao.com/1733880409
228,11560812,제주희망교회,교회,제주특별자치도 서귀포시 법환로38번길 4,126.5123495,33.23796209,http://place.map.kakao.com/11560812
229,23970500,법환교회,교회,제주특별자치도 서귀포시 법환로 20,126.5131444,33.23701308,http://place.map.kakao.com/23970500
230,23970386,대륜교회,교회,제주특별자치도 서귀포시 법환상로2번길 97-22,126.5114295,33.24750853,http://place.map.kakao.com/23970386
231,23972572,신서귀포재림교회,교회,제주특별자치도 서귀포시 신동로 31,126.5125335,33.25121134,http://place.map.kakao.com/23972572
232,418201906,천천히교회,교회,제주특별자치도 서귀포시 서호중앙로 55,126.5186148,33.2525496,http://place.map.kakao.com/418201906
233,8008201,열매맺는교회,교회,제주특별자치도 제주시 거북새미길 48-20,126.5183057,33.45891673,http://place.map.kakao.com/8008201
234,10791214,제주중앙감리교회,교회,제주특별자치도 제주시 연사길 17,126.5170117,33.48781144,http://place.map.kakao.com/10791214
235,10628042,오라교회,교회,제주특별자치도 제주시 연사2길 9,126.514023,33.48774386,http://place.map.kakao.com/10628042
236,1960217135,예수생명교회,교회,제주특별자치도 제주시 서사로 179,126.5199672,33.49625282,http://place.map.kakao.com/1960217135
237,24993187,믿음교회,교회,제주특별자치도 제주시 서사로 149-1,126.5199954,33.49893607,http://place.map.kakao.com/24993187
238,19956478,광명교회,교회,제주특별자치도 제주시 남성로 104,126.5165032,33.50843608,http://place.map.kakao.com/19956478
239,11161921,제주제성교회,교회,제주특별자치도 제주시 서사로4길 15-2,126.5185089,33.50929139,http://place.map.kakao.com/11161921
240,10800077,제주기둥교회,교회,제주특별자치도 제주시 남성로3길 19,126.5122291,33.50292684,http://place.map.kakao.com/10800077
241,18328615,제주주님의교회,교회,제주특별자치도 제주시 서사로 134,126.5195345,33.50054994,http://place.map.kakao.com/18328615
242,931525031,충실교회,교회,제주특별자치도 제주시 서광로11길 37,126.5164842,33.50334382,http://place.map.kakao.com/931525031
243,968175023,제주중앙침례교회,교회,제주특별자치도 제주시 남성로 127,126.5189059,33.50913245,http://place.map.kakao.com/968175023
244,25065156,빛내리순복음교회,교회,제주특별자치도 제주시 전농로 34,126.5167488,33.50434202,http://place.map.kakao.com/25065156
245,20867157,제주예안교회,교회,제주특별자치도 제주시 서사로 48,126.5197326,33.50832603,http://place.map.kakao.com/20867157
246,1314022041,꿈을이루는교회,교회,제주특별자치도 제주시 용담로 92,126.5123466,33.51191435,http://place.map.kakao.com/1314022041
247,9106687,서호교회,교회,제주특별자치도 서귀포시 막동산로 16,126.5237734,33.25707399,http://place.map.kakao.com/9106687
248,9649122,호근교회,교회,제주특별자치도 서귀포시 호근서호로 102,126.5299957,33.2574511,http://place.map.kakao.com/9649122
249,7826955,제광교회,교회,제주특별자치도 제주시 도남로3길 17,126.5274463,33.49818934,http://place.map.kakao.com/7826955
250,7931382,새예루살렘교회,교회,제주특별자치도 제주시 도남로 13,126.5253382,33.49878715,http://place.map.kakao.com/7931382
251,23608972,구세군제주영문교회,교회,제주특별자치도 제주시 도남로16길 14,126.5265851,33.4911392,http://place.map.kakao.com/23608972
252,11440673,제주광염교회,교회,제주특별자치도 제주시 신성로10길 28,126.5296879,33.49441118,http://place.map.kakao.com/11440673
253,943777852,예수제자교회,교회,제주특별자치도 제주시 서광로 238,126.5218856,33.49961867,http://place.map.kakao.com/943777852
254,7836000,도남순복음교회,교회,제주특별자치도 제주시 도남로 32,126.5258758,33.49728175,http://place.map.kakao.com/7836000
255,2017582135,푸른초장교회,교회,제주특별자치도 제주시 독짓골2길 11,126.5296576,33.49125188,http://place.map.kakao.com/2017582135
256,1868539094,새로운교회,교회,제주특별자치도 제주시 연삼로 353,126.5300263,33.49272107,http://place.map.kakao.com/1868539094
257,8068026,제주서광교회,교회,제주특별자치도 제주시 홍랑길 10,126.5232784,33.50075554,http://place.map.kakao.com/8068026
258,8514578,제주동도교회,교회,제주특별자치도 제주시 삼성로5길 13-21,126.5279442,33.50837292,http://place.map.kakao.com/8514578
259,10807985,제주성결교회,교회,제주특별자치도 제주시 서사로19길 27,126.5227376,33.50125113,http://place.map.kakao.com/10807985
260,9740760,대광장로교회,교회,제주특별자치도 제주시 중앙로 93-1,126.5240587,33.5099728,http://place.map.kakao.com/9740760
261,8515349,제주남부교회,교회,제주특별자치도 제주시 삼성로1길 14-1,126.5270788,33.50641046,http://place.map.kakao.com/8515349
262,27252625,갈보리교회,교회,제주특별자치도 제주시 동광로1길 11,126.5289111,33.50194194,http://place.map.kakao.com/27252625
263,52222870,제주열리는교회,교회,제주특별자치도 제주시 서사로 35,126.5201837,33.50927625,http://place.map.kakao.com/52222870
264,40084444,동제주베들레헴교회,교회,제주특별자치도 제주시 전농로 115,126.5254481,33.50466956,http://place.map.kakao.com/40084444
265,9222374,에덴교회,교회,제주특별자치도 제주시 동광로1길 30,126.5280601,33.50326584,http://place.map.kakao.com/9222374
266,1987743193,순례자의교회,교회,제주특별자치도 제주시 중앙로 104,126.5234053,33.5090146,http://place.map.kakao.com/1987743193
267,893575821,생명나무교회,교회,제주특별자치도 제주시 서광로 279,126.5263064,33.50042725,http://place.map.kakao.com/893575821
268,24062269,한라교회,교회,제주특별자치도 제주시 삼성로5길 24,126.5291506,33.50858217,http://place.map.kakao.com/24062269
269,10088596,제주그리스도의교회,교회,제주특별자치도 제주시 중앙로24길 26,126.5224324,33.50587692,http://place.map.kakao.com/10088596
270,1367095692,제주필리피노교회,교회,제주특별자치도 제주시 돈내길 4,126.5297649,33.50166929,http://place.map.kakao.com/1367095692
271,10479150,제주성내교회,교회,제주특별자치도 제주시 관덕로2길 5,126.5204126,33.51227042,http://place.map.kakao.com/10479150
272,9127030,제주산성교회,교회,제주특별자치도 제주시 북성로 12,126.523402,33.51589553,http://place.map.kakao.com/9127030
273,9872211,서귀포성결교회,교회,제주특별자치도 서귀포시 중산간동로 8251,126.5356502,33.26131328,http://place.map.kakao.com/9872211
274,217099258,제주꿈이있는교회,교회,제주특별자치도 제주시 대원길 128-19,126.5341861,33.46542023,http://place.map.kakao.com/217099258
275,1197661713,제주안디옥교회,교회,제주특별자치도 제주시 한북로 139,126.5308913,33.46360011,http://place.map.kakao.com/1197661713
276,18312053,평강교회,교회,제주특별자치도 제주시 연북로 553,126.5384379,33.48683102,http://place.map.kakao.com/18312053
277,1269065503,제주선교교회,교회,제주특별자치도 제주시 구산로 37,126.5390903,33.48371122,http://place.map.kakao.com/1269065503
278,1986681858,예인교회,교회,제주특별자치도 제주시 연북로 550,126.5382218,33.48599534,http://place.map.kakao.com/1986681858
279,9334965,이도교회,교회,제주특별자치도 제주시 구남로 46,126.5349682,33.49059032,http://place.map.kakao.com/9334965
280,9451781,제주누리교회,교회,제주특별자치도 제주시 남광북3길 3,126.5349354,33.49431558,http://place.map.kakao.com/9451781
281,9406386,제주남문교회,교회,제주특별자치도 제주시 광양13길 6-3,126.5314645,33.49860491,http://place.map.kakao.com/9406386
282,8659498,광림교회,교회,제주특별자치도 제주시 고산동산6길 10,126.5320408,33.49469778,http://place.map.kakao.com/8659498
283,354124676,순복음청지기교회,교회,제주특별자치도 제주시 중앙로 254-1,126.5312095,33.49719025,http://place.map.kakao.com/354124676
284,25083054,큰평안교회,교회,제주특별자치도 제주시 오복6길 7,126.537641,33.49626593,http://place.map.kakao.com/25083054
285,9049932,복된교회,교회,제주특별자치도 제주시 동광로6길 29,126.5333176,33.49981643,http://place.map.kakao.com/9049932
286,64875408,지구촌교회,교회,제주특별자치도 제주시 오복5길 18,126.5358358,33.4981922,http://place.map.kakao.com/64875408
287,1135572143,제주도성서침례교회,교회,제주특별자치도 제주시 오복7길 14,126.5358696,33.49871165,http://place.map.kakao.com/1135572143
288,23999382,제주중앙교회,교회,제주특별자치도 제주시 가령로1길 10-1,126.5377776,33.50458995,http://place.map.kakao.com/23999382
289,1383734491,예수그리스도 후기성도교회 제주지부,교회,제주특별자치도 제주시 삼성로 45,126.5301964,33.50703901,http://place.map.kakao.com/1383734491
290,45219562,마라나타예슈아교회,교회,제주특별자치도 제주시 가령로 5,126.5368651,33.50376068,http://place.map.kakao.com/45219562
291,1833486535,제주시민교회,교회,제주특별자치도 제주시 동광로 112,126.5394229,33.5062523,http://place.map.kakao.com/1833486535
292,1366409500,순복음겨자씨교회,교회,제주특별자치도 제주시 동광로9길 16,126.5328886,33.50394501,http://place.map.kakao.com/1366409500
293,314612838,한국천부교 일도교회,교회,제주특별자치도 제주시 삼성로7길 13,126.530024,33.5080869,http://place.map.kakao.com/314612838
294,20723702,제주세광교회,교회,제주특별자치도 제주시 동광로16길 15,126.5394429,33.50471155,http://place.map.kakao.com/20723702
295,1339824365,제주예본교회,교회,제주특별자치도 제주시 동광로12길 6,126.5347063,33.50254446,http://place.map.kakao.com/1339824365
296,1185286047,영도교회,교회,제주특별자치도 제주시 신산로 109,126.5363283,33.50452773,http://place.map.kakao.com/1185286047
297,683403017,하나님의교회 세계복음선교협회,교회,제주특별자치도 제주시 동광로 14,126.5307446,33.50119877,http://place.map.kakao.com/683403017
298,1498121482,신천지예수교증거장막성전 제주교회,교회,제주특별자치도 제주시 동광로 96,126.5382607,33.50521926,http://place.map.kakao.com/1498121482
299,8063277,제주동부교회,교회,제주특별자치도 제주시 고마로7길 11,126.5398444,33.51181038,http://place.map.kakao.com/8063277
300,26247915,우리교회,교회,제주특별자치도 제주시 동문로21길 4-7,126.5376942,33.51461173,http://place.map.kakao.com/26247915
301,9403357,제자교회,교회,제주특별자치도 제주시 동문로18길 25,126.536077,33.51188648,http://place.map.kakao.com/9403357
302,19173111,열린문교회,교회,제주특별자치도 제주시 성지로 63,126.5300523,33.51140216,http://place.map.kakao.com/19173111
303,1534785635,베이스캠프교회,교회,제주특별자치도 제주시 성지로 76-1,126.5313669,33.51151533,http://place.map.kakao.com/1534785635
304,9454129,제주제일교회,교회,제주특별자치도 제주시 아란6길 22,126.5426673,33.47522332,http://place.map.kakao.com/9454129
305,10312277,제주사랑의교회,교회,제주특별자치도 제주시 아연로 602,126.5434523,33.47735038,http://place.map.kakao.com/10312277
306,1027992261,오아시스셀교회,교회,제주특별자치도 제주시 아란7길 11,126.5442626,33.47422843,http://place.map.kakao.com/1027992261
307,10597434,아라복음교회,교회,제주특별자치도 제주시 아봉로 42,126.5486703,33.47692951,http://place.map.kakao.com/10597434
308,9451553,제주성안교회,교회,제주특별자치도 제주시 중앙로 470,126.5416206,33.48113032,http://place.map.kakao.com/9451553
309,10596992,아름다운교회,교회,제주특별자치도 제주시 중앙로 457,126.5441611,33.48251733,http://place.map.kakao.com/10596992
310,26356173,제주중앙교회,교회,제주특별자치도 제주시 간월동로 77,126.5497805,33.48857856,http://place.map.kakao.com/26356173
311,8889769,대한예수교장로회은성교회,교회,제주특별자치도 제주시 월두2길 65,126.5497782,33.48570427,http://place.map.kakao.com/8889769
312,25114673,이레순복음교회,교회,제주특별자치도 제주시 태성로5길 42-1,126.5491341,33.4995396,http://place.map.kakao.com/25114673
313,17790961,제주제일교회,교회,제주특별자치도 제주시 신설로5길 11,126.5444663,33.49410214,http://place.map.kakao.com/17790961
314,1492623135,제주시온교회,교회,제주특별자치도 제주시 승천로 60,126.54173,33.49304891,http://place.map.kakao.com/1492623135
315,1599003951,이도주님의교회,교회,제주특별자치도 제주시 남광로 65,126.5417231,33.49681124,http://place.map.kakao.com/1599003951
316,1468716175,제주주품의교회,교회,제주특별자치도 제주시 신설로9길 39,126.5471868,33.49530492,http://place.map.kakao.com/1468716175
317,1928528854,제주제일침례교회,교회,제주특별자치도 제주시 신설로5길 11,126.5444892,33.4940301,http://place.map.kakao.com/1928528854
318,8563556,탐라교회,교회,제주특별자치도 제주시 정든로1길 36,126.5409691,33.49774971,http://place.map.kakao.com/8563556
319,11698748,제주순복음교회,교회,제주특별자치도 제주시 천수동로 16,126.5444037,33.50851298,http://place.map.kakao.com/11698748
320,8327272,동문성결교회,교회,제주특별자치도 제주시 연수로 15,126.5462112,33.50368347,http://place.map.kakao.com/8327272
321,1339082577,제주가령골교회,교회,제주특별자치도 제주시 가령골길 15,126.5407148,33.50494438,http://place.map.kakao.com/1339082577
322,1330438367,주승리교회,교회,제주특별자치도 제주시 천수로 52,126.5423196,33.50389275,http://place.map.kakao.com/1330438367
323,1502188205,하늘문교회,교회,제주특별자치도 제주시 천수로 92,126.5454154,33.50645115,http://place.map.kakao.com/1502188205
324,8521551,제주영락교회,교회,제주특별자치도 제주시 동광로23길 15,126.5431494,33.51106347,http://place.map.kakao.com/8521551
325,10086099,천리교대선교회,교회,제주특별자치도 제주시 사라봉길 44,126.5429628,33.51563024,http://place.map.kakao.com/10086099
326,14851107,영주교회,교회,제주특별자치도 제주시 동문로 153,126.5428404,33.51352728,http://place.map.kakao.com/14851107
327,19136260,서귀포가정교회,교회,제주특별자치도 서귀포시 서문로 62,126.5564297,33.24817125,http://place.map.kakao.com/19136260
328,10802231,제칠일안식일 예수재림교회 서귀포교회,교회,제주특별자치도 서귀포시 일주동로 8767,126.5518165,33.25196861,http://place.map.kakao.com/10802231
329,2017209343,주말씀교회,교회,제주특별자치도 서귀포시 일주동로 8737,126.5549056,33.25204642,http://place.map.kakao.com/2017209343
330,12702572,예성교회,교회,제주특별자치도 서귀포시 중앙로101번길 25,126.5582498,33.25325211,http://place.map.kakao.com/12702572
331,2021826377,서귀포예일교회,교회,제주특별자치도 서귀포시 중앙로 151-1,126.5599037,33.25811595,http://place.map.kakao.com/2021826377
332,26122759,서귀포교회,교회,제주특별자치도 서귀포시 서문서로55번길 8,126.5585145,33.25182126,http://place.map.kakao.com/26122759
333,773357623,주님안의교회,교회,제주특별자치도 서귀포시 홍중로 53-3,126.5561577,33.25696207,http://place.map.kakao.com/773357623
334,431590605,큰바위교회,교회,제주특별자치도 서귀포시 서문로 32,126.5583809,33.25022851,http://place.map.kakao.com/431590605
335,9589558,세한교회,교회,제주특별자치도 서귀포시 중산간동로 8071-5,126.5545053,33.26368682,http://place.map.kakao.com/9589558
336,1417880716,혁신교회,교회,제주특별자치도 서귀포시 중산간동로 8039,126.5577321,33.26397334,http://place.map.kakao.com/1417880716
337,25773697,열방교회,교회,제주특별자치도 서귀포시 중산간동로 8091,126.5524726,33.26324674,http://place.map.kakao.com/25773697
338,25757871,서홍교회,교회,제주특별자치도 서귀포시 홍중로 141-1,126.555979,33.26513109,http://place.map.kakao.com/25757871
339,44527271,제주곶자왈교회,교회,제주특별자치도 제주시 연신로 158,126.553117,33.48863301,http://place.map.kakao.com/44527271
340,24066483,시편교회,교회,제주특별자치도 제주시 황사평6길 65-5,126.5600137,33.49404653,http://place.map.kakao.com/24066483
341,237689323,사랑숨결교회,교회,제주특별자치도 제주시 남광로 187,126.5528478,33.50143378,http://place.map.kakao.com/237689323
342,17517827,열방 제자교회,교회,제주특별자치도 서귀포시 소암로12번길 2,126.565074,33.24474313,http://place.map.kakao.com/17517827
343,14576582,예수그리스도 후기성도교회 서귀포지부,교회,제주특별자치도 서귀포시 솔동산로11번길 20,126.5662093,33.24298891,http://place.map.kakao.com/14576582
344,9103055,서귀포강변교회,교회,제주특별자치도 서귀포시 중정로91번길 1-1,126.5657192,33.24879551,http://place.map.kakao.com/9103055
345,856730488,길벗교회,교회,제주특별자치도 서귀포시 소암로 11,126.5670228,33.24512861,http://place.map.kakao.com/856730488
346,7937813,서귀포교회,교회,제주특별자치도 서귀포시 동홍로 56,126.5680984,33.2537844,http://place.map.kakao.com/7937813
347,8945007,동홍교회,교회,제주특별자치도 서귀포시 동홍로109번길 48,126.5641592,33.25956272,http://place.map.kakao.com/8945007
348,7855671,서귀포동원교회,교회,제주특별자치도 서귀포시 동홍서로 15,126.5698888,33.25017687,http://place.map.kakao.com/7855671
349,9728816,서귀포반석교회,교회,제주특별자치도 서귀포시 장수로 66,126.5609587,33.25661215,http://place.map.kakao.com/9728816
350,9111825,서귀포감리교회,교회,제주특별자치도 서귀포시 중동로 40,126.5664268,33.25066616,http://place.map.kakao.com/9111825
351,11089350,대한예수교장로회 예수소망교회,교회,제주특별자치도 서귀포시 중앙로72번길 49-1,126.5661725,33.2526164,http://place.map.kakao.com/11089350
352,1598095419,성화감리교회,교회,제주특별자치도 서귀포시 중앙로 156,126.5601512,33.25842338,http://place.map.kakao.com/1598095419
353,20279276,남제주교회,교회,제주특별자치도 서귀포시 동문동로 49-4,126.563158,33.25199995,http://place.map.kakao.com/20279276
354,24042279,시온감리교회,교회,제주특별자치도 서귀포시 중앙로72번길 8-5,126.5621293,33.25083143,http://place.map.kakao.com/24042279
355,14853240,좋은열매교회,교회,제주특별자치도 서귀포시 동문로 26,126.5636133,33.25108188,http://place.map.kakao.com/14853240
356,1613121567,서귀포시냇가교회,교회,제주특별자치도 서귀포시 동홍로109번길 25,126.5658766,33.25884743,http://place.map.kakao.com/1613121567
357,10807009,제주중앙교회,교회,제주특별자치도 서귀포시 동홍로72번길 12-13,126.5692661,33.25549433,http://place.map.kakao.com/10807009
358,256432549,성령샘교회,교회,제주특별자치도 서귀포시 중동로 32-2,126.5666387,33.25122591,http://place.map.kakao.com/256432549
359,10310267,더풍성한교회,교회,제주특별자치도 서귀포시 중산간동로7929번길 12,126.5689036,33.26462478,http://place.map.kakao.com/10310267
360,728438193,시냇가에심은교회,교회,제주특별자치도 서귀포시 중산간동로 7983,126.5638465,33.26461976,http://place.map.kakao.com/728438193
361,8974253,동서귀포교회,교회,제주특별자치도 서귀포시 동홍로 165,126.5673656,33.26332289,http://place.map.kakao.com/8974253
362,8428434,서귀포중앙교회,교회,제주특별자치도 서귀포시 동홍로 278,126.5688452,33.27302414,http://place.map.kakao.com/8428434
363,8130378,한라산교회,교회,제주특별자치도 서귀포시 동홍로 286-11,126.5682118,33.27434914,http://place.map.kakao.com/8130378
364,25762700,제주아름다운교회,교회,제주특별자치도 제주시 연삼로 714,126.562475,33.51046064,http://place.map.kakao.com/25762700
365,9608692,화북소망교회,교회,제주특별자치도 제주시 일주동로 179,126.5644987,33.51899683,http://place.map.kakao.com/9608692
366,185780895,늘사랑교회,교회,제주특별자치도 제주시 일주동로 197,126.5665838,33.51897169,http://place.map.kakao.com/185780895
367,1554959091,제주교회,교회,제주특별자치도 제주시 거로남10길 42-5,126.5686576,33.51038134,http://place.map.kakao.com/1554959091
368,11201204,제주화북교회,교회,제주특별자치도 제주시 진남로6길 31,126.5653949,33.52145862,http://place.map.kakao.com/11201204
369,25762627,제주은총교회,교회,제주특별자치도 제주시 진남로2길 32,126.5637673,33.52146101,http://place.map.kakao.com/25762627
370,26382555,화북서광교회,교회,제주특별자치도 제주시 진남로8길 21,126.5668667,33.5207434,http://place.map.kakao.com/26382555
371,9646178,함께하는교회,교회,제주특별자치도 제주시 진동로5길 45,126.5676486,33.52195787,http://place.map.kakao.com/9646178
372,1933786594,늘사랑교회,교회,제주특별자치도 제주시 진동로5길 30,126.5662582,33.52145353,http://place.map.kakao.com/1933786594
373,11866229,제주중앙 그리스도의교회,교회,제주특별자치도 제주시 진동로 12,126.568708,33.52017281,http://place.map.kakao.com/11866229
374,1499970555,서귀포방주교회,교회,제주특별자치도 서귀포시 동홍중앙로66번길 30-8,126.5750505,33.25591005,http://place.map.kakao.com/1499970555
375,9818660,서귀포제일교회,교회,제주특별자치도 서귀포시 정방연로 48,126.5771511,33.25202668,http://place.map.kakao.com/9818660
376,26260569,제주드림교회,교회,제주특별자치도 서귀포시 태평로 536,126.5744651,33.25182276,http://place.map.kakao.com/26260569
377,15296648,서귀포명성교회,교회,제주특별자치도 서귀포시 동홍중앙로90번길 30-7,126.5755562,33.25786381,http://place.map.kakao.com/15296648
378,10060346,열린문교회,교회,제주특별자치도 서귀포시 동홍남로 25,126.5709412,33.25704371,http://place.map.kakao.com/10060346
379,25930102,기쁜소식 서귀포교회,교회,제주특별자치도 서귀포시 동홍중앙로66번길 42-9,126.5766654,33.25573613,http://place.map.kakao.com/25930102
380,10296437,동신교회,교회,제주특별자치도 서귀포시 동홍중앙로 13,126.5717823,33.25182798,http://place.map.kakao.com/10296437
381,9100268,충만한교회,교회,제주특별자치도 서귀포시 동홍중앙로51번길 4,126.5716185,33.25549164,http://place.map.kakao.com/9100268
382,846663328,서귀포예수중심교회,교회,제주특별자치도 서귀포시 일주동로 8524,126.5775332,33.2551413,http://place.map.kakao.com/846663328
383,21985741,구세군서귀포영문(교회),교회,제주특별자치도 서귀포시 일주동로 8538,126.5760636,33.25501278,http://place.map.kakao.com/21985741
384,1953677940,동서남북교회,교회,제주특별자치도 서귀포시 동홍서로112번길 17,126.5714883,33.25884525,http://place.map.kakao.com/1953677940
385,26209352,새동산교회,교회,제주특별자치도 서귀포시 동홍중앙로7번길 16,126.570444,33.25163222,http://place.map.kakao.com/26209352
386,27078478,서귀포목양교회,교회,제주특별자치도 서귀포시 동홍중앙로66번길 30-8,126.5750806,33.25590384,http://place.map.kakao.com/27078478
387,1027950287,참즐거운교회,교회,제주특별자치도 서귀포시 일주동로 8543,126.5754477,33.25455626,http://place.map.kakao.com/1027950287
388,1592488443,제주찬양교회,교회,제주특별자치도 서귀포시 동홍남로 59,126.5746459,33.2570312,http://place.map.kakao.com/1592488443
389,578693244,포도나무교회,교회,제주특별자치도 서귀포시 동홍북로 27-14,126.571369,33.26041728,http://place.map.kakao.com/578693244
390,1897827996,온새미로교회,교회,제주특별자치도 제주시 첨단로 199,126.5719673,33.45457315,http://place.map.kakao.com/1897827996
391,79238213,기독교대한감리회빛과소금교회,교회,제주특별자치도 제주시 아봉로 381,126.5759528,33.4701701,http://place.map.kakao.com/79238213
392,525139168,제주동안교회,교회,제주특별자치도 제주시 동화로1길 49-24,126.5783803,33.51800622,http://place.map.kakao.com/525139168
393,10744204,임마누엘교회,교회,제주특별자치도 제주시 화삼로 36,126.5769536,33.51391534,http://place.map.kakao.com/10744204
394,1554626463,제주그린교회,교회,제주특별자치도 제주시 일주동로 250,126.5719739,33.51972613,http://place.map.kakao.com/1554626463
395,8127153,토평교회,교회,제주특별자치도 서귀포시 516로 94,126.5836659,33.26222265,http://place.map.kakao.com/8127153
396,9673028,충일교회,교회,제주특별자치도 서귀포시 검은여로 223,126.5863236,33.26122891,http://place.map.kakao.com/9673028
397,26543935,사랑의교회,교회,제주특별자치도 서귀포시 검은여로 237-24,126.5851452,33.26259185,http://place.map.kakao.com/26543935
398,25996698,평안교회,교회,제주특별자치도 서귀포시 토평로 166,126.5887752,33.28128565,http://place.map.kakao.com/25996698
399,9401843,제주성산교회,교회,제주특별자치도 제주시 새바위길 60-33,126.582295,33.49270272,http://place.map.kakao.com/9401843
400,27409704,선인교회,교회,제주특별자치도 제주시 삼봉로 114,126.5889179,33.51121117,http://place.map.kakao.com/27409704
401,717221760,제주예스교회,교회,제주특별자치도 제주시 건주로 73,126.5809647,33.5128678,http://place.map.kakao.com/717221760
402,895242005,벧엘교회,교회,제주특별자치도 제주시 도련일동 2002,126.5828401,33.51726399,http://place.map.kakao.com/895242005
403,23561371,평화교회,교회,제주특별자치도 제주시 화삼북로 136,126.5876489,33.51688158,http://place.map.kakao.com/23561371
404,9803171,삼양교회,교회,제주특별자치도 제주시 지석15길 10,126.5865814,33.52203153,http://place.map.kakao.com/9803171
405,8519207,제주수정교회,교회,제주특별자치도 제주시 원당로 29,126.5895775,33.52378517,http://place.map.kakao.com/8519207
406,1419346193,대한예수교장로회축복교회,교회,제주특별자치도 제주시 서흘길 34,126.5893097,33.52828863,http://place.map.kakao.com/1419346193
407,1032105527,세계메시아교 제주교회,교회,제주특별자치도 제주시 설촌로6길 21-1,126.5837702,33.52307157,http://place.map.kakao.com/1032105527
408,1305392984,참다운교회,교회,제주특별자치도 서귀포시 칠십리로317번길 53,126.5917457,33.24687122,http://place.map.kakao.com/1305392984
409,1123086260,제주상효교회,교회,제주특별자치도 서귀포시 상효로136번길 5-8,126.5990947,33.27254832,http://place.map.kakao.com/1123086260
410,10537915,시온교회,교회,제주특별자치도 서귀포시 516로 453,126.5937394,33.29137494,http://place.map.kakao.com/10537915
411,2053007843,선한길교회,교회,제주특별자치도 제주시 중산간동로 25,126.59986,33.49004147,http://place.map.kakao.com/2053007843
412,660519089,새사람행복한교회,교회,제주특별자치도 제주시 봉개북3길 43,126.5975449,33.49271712,http://place.map.kakao.com/660519089
413,27474662,제주성진교회,교회,제주특별자치도 제주시 삼봉로 162,126.5904964,33.50696448,http://place.map.kakao.com/27474662
414,24893268,대한예수교장로회도련교회,교회,제주특별자치도 제주시 매촌안길 10,126.5916367,33.51440099,http://place.map.kakao.com/24893268
415,240106304,좋은씨앗교회,교회,제주특별자치도 제주시 원당로 53-2,126.5910661,33.52587457,http://place.map.kakao.com/240106304
416,8593850,축복순복음교회,교회,제주특별자치도 제주시 선사로6길 54,126.5906472,33.52703805,http://place.map.kakao.com/8593850
417,7891180,보목교회,교회,제주특별자치도 서귀포시 보목로 85-2,126.6018529,33.24090994,http://place.map.kakao.com/7891180
418,26493191,꿈의교회,교회,제주특별자치도 서귀포시 효돈로 75,126.6069048,33.26286451,http://place.map.kakao.com/26493191
419,7901679,봉개교회,교회,제주특별자치도 제주시 번영로 561-8,126.6015028,33.48799112,http://place.map.kakao.com/7901679
420,8694339,효돈교회,교회,제주특별자치도 서귀포시 신효중앙로4번길 25,126.6160384,33.26525893,http://place.map.kakao.com/8694339
421,23970238,향림교회,교회,제주특별자치도 서귀포시 남원읍 하례광장로 96,126.6106977,33.3010694,http://place.map.kakao.com/23970238
422,399774867,동회천순례자의교회,교회,제주특별자치도 제주시 중산간동로 271,126.616664,33.50650726,http://place.map.kakao.com/399774867
423,9856525,신촌교회,교회,제주특별자치도 제주시 조천읍 신촌서5길 72-1,126.6161129,33.5347687,http://place.map.kakao.com/9856525
424,934268247,제주빛교회,교회,제주특별자치도 제주시 조천읍 신촌2길 8-12,126.6194086,33.53152322,http://place.map.kakao.com/934268247
425,616542535,늘빛우리교회,교회,제주특별자치도 제주시 조천읍 신촌3길 3-6,126.6183247,33.53319595,http://place.map.kakao.com/616542535
426,785264993,평강교회,교회,제주특별자치도 서귀포시 효돈순환로 110,126.6211977,33.26547311,http://place.map.kakao.com/785264993
427,20046298,와흘교회,교회,제주특별자치도 제주시 조천읍 중산간동로 388,126.6288944,33.50447082,http://place.map.kakao.com/20046298
428,23966975,북제주교회,교회,제주특별자치도 제주시 조천읍 신촌7길 28,126.6220092,33.53655035,http://place.map.kakao.com/23966975
429,24052003,신례교회,교회,제주특별자치도 서귀포시 남원읍 신례로 230,126.6328128,33.28542676,http://place.map.kakao.com/24052003
430,1563367456,제주주은혜교회,교회,제주특별자치도 제주시 조천읍 조천우회로 203,126.6310492,33.5277384,http://place.map.kakao.com/1563367456
431,11274404,조천교회,교회,제주특별자치도 제주시 조천읍 조와로 10,126.6353844,33.5346358,http://place.map.kakao.com/11274404
432,26428923,푸른열매교회,교회,제주특별자치도 제주시 조천읍 조천2길 6,126.6318449,33.5345532,http://place.map.kakao.com/26428923
433,9972730,조천감리교회,교회,제주특별자치도 제주시 조천읍 신북로 250,126.638904,33.53742662,http://place.map.kakao.com/9972730
434,26595453,제주오름교회,교회,제주특별자치도 제주시 조천읍 남조로3길 91,126.6487686,33.51650195,http://place.map.kakao.com/26595453
435,1319528294,사랑샘교회,교회,제주특별자치도 제주시 조천읍 신북로 270,126.6406653,33.53848841,http://place.map.kakao.com/1319528294
436,10318990,명성교회,교회,제주특별자치도 제주시 조천읍 남조로 2119-39,126.6572607,33.45705981,http://place.map.kakao.com/10318990
437,1880398377,대흘교회,교회,제주특별자치도 제주시 조천읍 남조로 2642,126.6525349,33.49763314,http://place.map.kakao.com/1880398377
438,9580511,함덕순복음교회,교회,제주특별자치도 제주시 조천읍 함대로 35,126.6584419,33.54086843,http://place.map.kakao.com/9580511
439,1742035740,제주등대교회,교회,제주특별자치도 제주시 조천읍 신북로 396,126.6526417,33.54281056,http://place.map.kakao.com/1742035740
440,9961320,위미교회,교회,제주특별자치도 서귀포시 남원읍 태위로115번길 16,126.6607868,33.27590569,http://place.map.kakao.com/9961320
441,600832517,하늘사랑교회,교회,제주특별자치도 제주시 조천읍 함덕서4길 60-13,126.667669,33.53914806,http://place.map.kakao.com/600832517
442,1170813904,이음교회,교회,제주특별자치도 제주시 조천읍 조천우회로 527,126.6654939,33.53139752,http://place.map.kakao.com/1170813904
443,1379198569,두드림교회,교회,제주특별자치도 제주시 조천읍 조천우회로 527,126.6657574,33.53117643,http://place.map.kakao.com/1379198569
444,534311561,대한예수교장로회 함덕교회,교회,제주특별자치도 제주시 조천읍 신북로 478-1,126.6610696,33.54319004,http://place.map.kakao.com/534311561
445,1716770239,제주미래로교회,교회,제주특별자치도 제주시 조천읍 미래로 578-16,126.6765332,33.43923815,http://place.map.kakao.com/1716770239
446,98430466,늘푸른교회,교회,제주특별자치도 제주시 조천읍 중산간동로 837-53,126.6743421,33.49603523,http://place.map.kakao.com/98430466
447,1896932659,아카페교회,교회,제주특별자치도 제주시 조천읍 함와로 349,126.6733244,33.51143004,http://place.map.kakao.com/1896932659
448,10052725,함덕제일감리교회,교회,제주특별자치도 제주시 조천읍 함덕남12길 26,126.6735645,33.5334837,http://place.map.kakao.com/10052725
449,17746120,제주해변성결교회,교회,제주특별자치도 제주시 조천읍 신북로 586-1,126.6720771,33.53963585,http://place.map.kakao.com/17746120
450,23972825,북촌교회,교회,제주특별자치도 제주시 조천읍 북촌7길 25-14,126.6922701,33.55074481,http://place.map.kakao.com/23972825
451,11984196,선흘교회,교회,제주특별자치도 제주시 조천읍 동백로 15,126.7089453,33.50897995,http://place.map.kakao.com/11984196
452,10190866,남원교회,교회,제주특별자치도 서귀포시 남원읍 남한로 27,126.7170837,33.28149241,http://place.map.kakao.com/10190866
453,11180658,의귀교회,교회,제주특별자치도 서귀포시 남원읍 남조로381번길 7,126.7136084,33.31188109,http://place.map.kakao.com/11180658
454,11010153,선흘중앙교회,교회,제주특별자치도 제주시 조천읍 선화길 36,126.7133477,33.45851672,http://place.map.kakao.com/11010153
455,245769533,제주포도나무교회,교회,제주특별자치도 제주시 조천읍 거문오름길 23-25,126.7140483,33.46138003,http://place.map.kakao.com/245769533
456,8283773,동복새생명교회,교회,제주특별자치도 제주시 구좌읍 동복남2길 57,126.7102655,33.54683565,http://place.map.kakao.com/8283773
457,7866063,만남의교회,교회,제주특별자치도 서귀포시 남원읍 태위로 698,126.7210226,33.27938068,http://place.map.kakao.com/7866063
458,183583275,제주그루터기교회,교회,제주특별자치도 서귀포시 남원읍 태수로 299-1,126.7233579,33.30606694,http://place.map.kakao.com/183583275
459,23972631,태흥교회,교회,제주특별자치도 서귀포시 남원읍 태신로 50,126.7446837,33.29071275,http://place.map.kakao.com/23972631
460,1491705243,본향교회,교회,제주특별자치도 서귀포시 남원읍 태신삼석로 59-78,126.7525609,33.29212801,http://place.map.kakao.com/1491705243
461,18477213,김녕교회,교회,제주특별자치도 제주시 구좌읍 김녕로14길 41,126.7533345,33.55161722,http://place.map.kakao.com/18477213
462,9542099,신흥교회,교회,제주특별자치도 서귀포시 남원읍 신흥로 20,126.7671022,33.3028783,http://place.map.kakao.com/9542099
463,8128650,토산교회,교회,제주특별자치도 서귀포시 표선면 토산중앙로49번길 37,126.7757519,33.30803711,http://place.map.kakao.com/8128650
464,23972482,가시리교회,교회,제주특별자치도 서귀포시 표선면 중산간동로 5236-7,126.7718381,33.35123231,http://place.map.kakao.com/23972482
465,9649734,가나안교회,교회,제주특별자치도 서귀포시 표선면 성읍이리로47번길 11,126.7710201,33.41535662,http://place.map.kakao.com/9649734
466,8260434,덕천교회,교회,제주특별자치도 제주시 구좌읍 월덕로 529,126.7720059,33.50416407,http://place.map.kakao.com/8260434
467,9163680,송당장로교회,교회,제주특별자치도 제주시 구좌읍 중산간동로 2222-2,126.7804955,33.4715702,http://place.map.kakao.com/9163680
468,23973045,월정감리교회,교회,제주특별자치도 제주시 구좌읍 행원로 20-13,126.7988463,33.54987109,http://place.map.kakao.com/23973045
469,8413650,선한목자 교회,교회,제주특별자치도 서귀포시 표선면 가마행남로 49,126.8047704,33.30605562,http://place.map.kakao.com/8413650
470,11294141,그리스도의교회,교회,제주특별자치도 서귀포시 표선면 민속해안로 5,126.8061913,33.30637522,http://place.map.kakao.com/11294141
471,9855888,성읍교회,교회,제주특별자치도 서귀포시 표선면 성읍정의현로34번길 21,126.8023986,33.38634695,http://place.map.kakao.com/9855888
472,8287876,행원교회,교회,제주특별자치도 제주시 구좌읍 행원로 44,126.8006747,33.55173494,http://place.map.kakao.com/8287876
473,9528150,표선교회,교회,제주특별자치도 서귀포시 표선면 표선관정로 16,126.8236702,33.32881575,http://place.map.kakao.com/9528150
474,10009325,한동교회,교회,제주특별자치도 제주시 구좌읍 한동로1길 37-13,126.826745,33.53512349,http://place.map.kakao.com/10009325
475,81908654,표선행복한교회,교회,제주특별자치도 서귀포시 표선면 표선백사로 99,126.835824,33.32433148,http://place.map.kakao.com/81908654
476,8014977,표선교회,교회,제주특별자치도 서귀포시 표선면 표선중앙로99번길 4,126.834867,33.32611183,http://place.map.kakao.com/8014977
477,23971297,표선침례교회,교회,제주특별자치도 서귀포시 표선면 표선동서로213번길 1-4,126.8307185,33.32307317,http://place.map.kakao.com/23971297
478,9909402,신풍성결교회,교회,제주특별자치도 서귀포시 성산읍 신풍상동로14번길 6,126.8344216,33.36166053,http://place.map.kakao.com/9909402
479,8901615,삼달교회,교회,제주특별자치도 서귀포시 성산읍 삼달로 238,126.8452146,33.3755955,http://place.map.kakao.com/8901615
480,10887684,평대그리스도의교회,교회,제주특별자치도 제주시 구좌읍 평대7길 18-16,126.8450013,33.5294604,http://place.map.kakao.com/10887684
481,17178110,구좌제일교회,교회,제주특별자치도 제주시 구좌읍 평대13길 46,126.854217,33.52650713,http://place.map.kakao.com/17178110
482,23966176,세화성은감리교회,교회,제주특별자치도 제주시 구좌읍 세평항로 36,126.8549276,33.52644666,http://place.map.kakao.com/23966176
483,8903107,세화교회,교회,제주특별자치도 제주시 구좌읍 세화2길 4-3,126.8549118,33.52303138,http://place.map.kakao.com/8903107
484,1561728110,성산한사랑교회,교회,제주특별자치도 서귀포시 성산읍 일주동로 5366,126.864251,33.36013151,http://place.map.kakao.com/1561728110
485,9192519,신산교회,교회,제주특별자치도 서귀포시 성산읍 신산중앙로 11-3,126.8779751,33.3806739,http://place.map.kakao.com/9192519
486,9754497,난산그리스도의교회,교회,제주특별자치도 서귀포시 성산읍 난산로36번길 36,126.8735809,33.40208476,http://place.map.kakao.com/9754497
487,9746132,남제주교회,교회,제주특별자치도 서귀포시 성산읍 서성일로1009번길 18,126.8859261,33.44447623,http://place.map.kakao.com/9746132
488,8145289,하도교회,교회,제주특별자치도 제주시 구좌읍 일주동로 3400,126.880715,33.51782242,http://place.map.kakao.com/8145289
489,8629226,하도제일교회,교회,제주특별자치도 제주시 구좌읍 하도9길 25,126.8877887,33.51472391,http://place.map.kakao.com/8629226
490,9268434,온평그리스도의교회,교회,제주특별자치도 서귀포시 성산읍 온평애향로23번길 12,126.899755,33.40862917,http://place.map.kakao.com/9268434
491,8409954,시흥교회,교회,제주특별자치도 서귀포시 성산읍 시흥상동로77번길 23,126.8963101,33.47406176,http://place.map.kakao.com/8409954
492,8073780,종달교회,교회,제주특별자치도 제주시 구좌읍 종달로1길 5,126.897021,33.49518518,http://place.map.kakao.com/8073780
493,23972312,제주동부교회,교회,제주특별자치도 서귀포시 성산읍 일주동로 4456,126.9081764,33.43145017,http://place.map.kakao.com/23972312
494,23971064,성산중앙교회,교회,제주특별자치도 서귀포시 성산읍 난고로 28,126.9065255,33.43477769,http://place.map.kakao.com/23971064
495,7948770,성산서부교회,교회,제주특별자치도 서귀포시 성산읍 고성중앙로 50,126.9085069,33.44850892,http://place.map.kakao.com/7948770
496,208366226,해돋는교회,교회,제주특별자치도 서귀포시 성산읍 난고로34번길 153,126.9073456,33.44621616,http://place.map.kakao.com/208366226
497,2026851861,제주성광교회,교회,제주특별자치도 서귀포시 성산읍 산성효자로114번길 131,126.9085932,33.45647742,http://place.map.kakao.com/2026851861
498,754852261,글로벌축복교회,교회,제주특별자치도 서귀포시 성산읍 일주동로4098번길 92-84,126.905842,33.46421118,http://place.map.kakao.com/754852261
499,23972655,신양교회,교회,제주특별자치도 서귀포시 성산읍 신양로 33,126.9132559,33.43606648,http://place.map.kakao.com/23972655
500,10473402,성산포순복음교회,교회,제주특별자치도 서귀포시 성산읍 일출로 18,126.9147161,33.44726191,http://place.map.kakao.com/10473402
501,8920764,동남교회,교회,제주특별자치도 서귀포시 성산읍 고성오조로113번길 18,126.9120689,33.45290956,http://place.map.kakao.com/8920764
502,27355293,성산교회,교회,제주특별자치도 서귀포시 성산읍 고성오조로 130,126.9133143,33.455242,http://place.map.kakao.com/27355293
503,24028651,성산가정교회,교회,제주특별자치도 서귀포시 성산읍 고성동서로45번길 4,126.9126002,33.45081279,http://place.map.kakao.com/24028651
504,8490555,오조교회,교회,제주특별자치도 서귀포시 성산읍 오조로70번길 11,126.9164887,33.46056007,http://place.map.kakao.com/8490555
505,23971177,성산포교회,교회,제주특별자치도 서귀포시 성산읍 일출로 294-1,126.9350438,33.46388911,http://place.map.kakao.com/23971177
506,11188106,우도교회,교회,제주특별자치도 제주시 우도면 우도로 195,126.952609,33.5097744,http://place.map.kakao.com/11188106
507,15101630,우도제일교회,교회,제주특별자치도 제주시 우도면 우도비양길 62,126.9605136,33.50888638,http://place.map.kakao.com/15101630
