num,id,store,business,address,x,y,url
1,8228403,고산초등학교,학교,제주특별자치도 제주시 한경면 고산로1길 16,126.1774285,33.30434474,http://place.map.kakao.com/8228403
2,8749888,고산초등학교병설유치원,어린이집/유치원,제주특별자치도 제주시 한경면 고산로1길 16,126.1772313,33.30430376,http://place.map.kakao.com/8749888
3,27321317,놀빛감성학교,학교,제주특별자치도 제주시 한경면 고산로1길 5,126.1790262,33.30342125,http://place.map.kakao.com/27321317
4,8138156,한국뷰티고등학교,학교,제주특별자치도 제주시 한경면 용고로 70,126.181375,33.30025952,http://place.map.kakao.com/8138156
5,10169804,고산중학교,학교,제주특별자치도 제주시 한경면 용고로 70,126.1819024,33.30034594,http://place.map.kakao.com/10169804
6,8416402,신창초등학교,학교,제주특별자치도 제주시 한경면 두신로 72,126.183851,33.34931527,http://place.map.kakao.com/8416402
7,7979642,신창중학교,학교,제주특별자치도 제주시 한경면 두신로 72,126.1845787,33.34916137,http://place.map.kakao.com/7979642
8,11297681,신창초등학교 병설유치원,어린이집/유치원,제주특별자치도 제주시 한경면 두신로 72,126.1838035,33.3493366,http://place.map.kakao.com/11297681
9,8063444,무릉초등학교,학교,제주특별자치도 서귀포시 대정읍 서삼중로 106-1,126.2014778,33.27248759,http://place.map.kakao.com/8063444
10,11246142,무릉중학교,학교,제주특별자치도 서귀포시 대정읍 서삼중로 106,126.201372,33.27279707,http://place.map.kakao.com/11246142
11,10415037,무릉초등학교 병설유치원,어린이집/유치원,제주특별자치도 서귀포시 대정읍 서삼중로 106-3,126.2021256,33.2720698,http://place.map.kakao.com/10415037
12,7831466,대정서초등학교,학교,제주특별자치도 서귀포시 대정읍 동일하모로 43,126.2390929,33.23220883,http://place.map.kakao.com/7831466
13,8901697,대정서초등학교 병설유치원,어린이집/유치원,제주특별자치도 서귀포시 대정읍 동일하모로 43,126.2390846,33.23217993,http://place.map.kakao.com/8901697
14,8063049,재릉초등학교,학교,제주특별자치도 제주시 한림읍 한림로 288-18,126.2379732,33.38818962,http://place.map.kakao.com/8063049
15,9937400,재릉초등학교 병설유치원,어린이집/유치원,제주특별자치도 제주시 한림읍 한림로 288-18,126.2379949,33.38816812,http://place.map.kakao.com/9937400
16,8142550,한림초등학교 비양분교장 (휴교),학교,제주특별자치도 제주시 한림읍 비양도길 270,126.2313303,33.40733803,http://place.map.kakao.com/8142550
17,7828696,대정중학교,학교,제주특별자치도 서귀포시 대정읍 비행장로 18,126.2542815,33.21989461,http://place.map.kakao.com/7828696
18,8066382,대정초등학교,학교,제주특별자치도 서귀포시 대정읍 상모대서로 15,126.2554529,33.22545557,http://place.map.kakao.com/8066382
19,7828654,대정여자고등학교,학교,제주특별자치도 서귀포시 대정읍 대한로88번길 82-22,126.2526388,33.22990348,http://place.map.kakao.com/7828654
20,8903051,대정초등학교 병설유치원,어린이집/유치원,제주특별자치도 서귀포시 대정읍 상모대서로 15,126.2554189,33.22542291,http://place.map.kakao.com/8903051
21,2117743629,청수승마학교,학교,제주특별자치도 제주시 한경면 연명로 346,126.2594178,33.30227104,http://place.map.kakao.com/2117743629
22,10734191,저청초등학교,학교,제주특별자치도 제주시 한경면 중산간서로 3591,126.2513117,33.32660174,http://place.map.kakao.com/10734191
23,8068719,저청중학교,학교,제주특별자치도 제주시 한경면 중산간서로 3590,126.2523788,33.32539642,http://place.map.kakao.com/8068719
24,11162176,저청초등학교병설유치원,어린이집/유치원,제주특별자치도 제주시 한경면 중산간서로 3591,126.2512157,33.32627298,http://place.map.kakao.com/11162176
25,10950705,한림고등학교,학교,제주특별자치도 제주시 한림읍 월계로 74,126.257982,33.39815623,http://place.map.kakao.com/10950705
26,10352499,가파초등학교 마라분교장 (휴교),학교,제주특별자치도 서귀포시 대정읍 마라로 58,126.2667262,33.11927897,http://place.map.kakao.com/10352499
27,8671741,가파초등학교,학교,제주특별자치도 서귀포시 대정읍 가파로67번길 45,126.2699312,33.16907118,http://place.map.kakao.com/8671741
28,11005598,대정고등학교,학교,제주특별자치도 서귀포시 대정읍 일주서로2498번길 21,126.2607626,33.2323972,http://place.map.kakao.com/11005598
29,8131240,한림공업고등학교,학교,제주특별자치도 제주시 한림읍 한림중앙로 87,126.2690645,33.40759132,http://place.map.kakao.com/8131240
30,8636467,한림중학교,학교,제주특별자치도 제주시 한림읍 명월성로 21,126.2664826,33.4057693,http://place.map.kakao.com/8636467
31,9566859,한림초등학교,학교,제주특별자치도 제주시 한림읍 한림로4길 16,126.2607509,33.41134677,http://place.map.kakao.com/9566859
32,8131553,한림여자중학교,학교,제주특별자치도 제주시 한림읍 한림로 604,126.2607499,33.41045599,http://place.map.kakao.com/8131553
33,9582968,한림초등학교 병설유치원,어린이집/유치원,제주특별자치도 제주시 한림읍 한림로4길 16,126.2607424,33.4113359,http://place.map.kakao.com/9582968
34,8729022,가파초등학교 병설유치원,어린이집/유치원,제주특별자치도 서귀포시 대정읍 가파로67번길 45,126.2703149,33.1693367,http://place.map.kakao.com/8729022
35,8066632,보성초등학교,학교,제주특별자치도 서귀포시 대정읍 추사로55번길 6-1,126.2757929,33.24985789,http://place.map.kakao.com/8066632
36,11070617,보성초등학교 병설유치원,어린이집/유치원,제주특별자치도 서귀포시 대정읍 추사로55번길 6-1,126.2753006,33.24969634,http://place.map.kakao.com/11070617
37,11125936,수원초등학교,학교,제주특별자치도 제주시 한림읍 한림로 822,126.2704406,33.42557708,http://place.map.kakao.com/11125936
38,9849940,수원초등학교 병설유치원,어린이집/유치원,제주특별자치도 제주시 한림읍 한림로 822,126.2704361,33.42559148,http://place.map.kakao.com/9849940
39,12710998,제주한수풀해녀학교,학교,제주특별자치도 제주시 한림읍 한림해안로 623-6,126.2785176,33.4427256,http://place.map.kakao.com/12710998
40,19783580,브랭섬홀아시아,학교,제주특별자치도 서귀포시 대정읍 글로벌에듀로 234,126.2872882,33.28993054,http://place.map.kakao.com/19783580
41,26538318,한국국제학교 제주캠퍼스,학교,제주특별자치도 서귀포시 대정읍 글로벌에듀로260번길 8,126.2865389,33.28821138,http://place.map.kakao.com/26538318
42,1282247080,세인트존스베리 아카데미 제주,학교,제주특별자치도 서귀포시 대정읍 글로벌에듀로304번길 10,126.2850239,33.28429871,http://place.map.kakao.com/1282247080
43,26538127,한국국제중학교 제주캠퍼스,학교,제주특별자치도 서귀포시 대정읍 글로벌에듀로260번길 34,126.2845004,33.28898406,http://place.map.kakao.com/26538127
44,14517735,국제학교법인 제인스,학교,제주특별자치도 서귀포시 대정읍 글로벌에듀로304번길 10,126.2843115,33.2852972,http://place.map.kakao.com/14517735
45,14680108,노스런던컬리지잇스쿨 제주캠퍼스,학교,제주특별자치도 서귀포시 대정읍 글로벌에듀로145번길 33,126.2888848,33.2969109,http://place.map.kakao.com/14680108
46,25537118,돌날 제주돌담학교,학교,제주특별자치도 제주시 한림읍 중산간서로 4659,126.2819905,33.38664169,http://place.map.kakao.com/25537118
47,8379901,사계초등학교,학교,제주특별자치도 서귀포시 안덕면 산방로 346,126.2996833,33.23372237,http://place.map.kakao.com/8379901
48,366392889,사계초등학교 산방마루,학교,제주특별자치도 서귀포시 안덕면 산방로 346,126.2991827,33.233129,http://place.map.kakao.com/366392889
49,23537761,사계초등학교 병설유치원,어린이집/유치원,제주특별자치도 서귀포시 안덕면 산방로 346,126.2996788,33.23374759,http://place.map.kakao.com/23537761
50,10207902,금악초등학교,학교,제주특별자치도 제주시 한림읍 금악남2길 1,126.2957338,33.35681991,http://place.map.kakao.com/10207902
51,8700634,귀덕초등학교,학교,제주특별자치도 제주시 한림읍 귀덕14길 14-5,126.2934545,33.44241942,http://place.map.kakao.com/8700634
52,23584482,귀덕초등학교 병설유치원,어린이집/유치원,제주특별자치도 제주시 한림읍 귀덕14길 14-5,126.293464,33.4424366,http://place.map.kakao.com/23584482
53,7836587,덕수초등학교,학교,제주특별자치도 서귀포시 안덕면 덕수서로 10,126.3044496,33.25179224,http://place.map.kakao.com/7836587
54,8665434,곽금초등학교,학교,제주특별자치도 제주시 애월읍 일주서로 6000,126.3072138,33.44711227,http://place.map.kakao.com/8665434
55,11309192,어도초등학교,학교,제주특별자치도 제주시 애월읍 봉성로 76,126.3132378,33.42018829,http://place.map.kakao.com/11309192
56,11104196,어도초등학교병설유치원,어린이집/유치원,제주특별자치도 제주시 애월읍 봉성로 76,126.3131388,33.42019134,http://place.map.kakao.com/11104196
57,7937462,서광초등학교,학교,제주특별자치도 서귀포시 안덕면 중산간서로 1842,126.3263942,33.28840672,http://place.map.kakao.com/7937462
58,10508025,서광초등학교 병설유치원,어린이집/유치원,제주특별자치도 서귀포시 안덕면 중산간서로 1842,126.3263856,33.28841389,http://place.map.kakao.com/10508025
59,8460343,애월초등학교,학교,제주특별자치도 제주시 애월읍 애월로 139-10,126.322051,33.46537025,http://place.map.kakao.com/8460343
60,10584006,애월중학교,학교,제주특별자치도 제주시 애월읍 애월로15길 8,126.3243356,33.46429,http://place.map.kakao.com/10584006
61,9269751,애월초등학교 병설유치원,어린이집/유치원,제주특별자치도 제주시 애월읍 애월로 139-10,126.3220642,33.46533065,http://place.map.kakao.com/9269751
62,7990822,안덕중학교,학교,제주특별자치도 서귀포시 안덕면 화순로 74,126.3374622,33.24891061,http://place.map.kakao.com/7990822
63,8424591,안덕초등학교,학교,제주특별자치도 서귀포시 안덕면 화순로56번길 32,126.336059,33.2505621,http://place.map.kakao.com/8424591
64,9262047,안덕초등학교 병설유치원,어린이집/유치원,제주특별자치도 서귀포시 안덕면 화순로56번길 32,126.3360721,33.25053332,http://place.map.kakao.com/9262047
65,8234452,납읍초등학교,학교,제주특별자치도 제주시 애월읍 납읍로2길 47,126.3306245,33.43539038,http://place.map.kakao.com/8234452
66,23584258,납읍초등학교 병설유치원,어린이집/유치원,제주특별자치도 제주시 애월읍 납읍로2길 47,126.3308295,33.43544197,http://place.map.kakao.com/23584258
67,9913892,애월고등학교,학교,제주특별자치도 제주시 애월읍 일주서로 6372-20,126.3333767,33.46023132,http://place.map.kakao.com/9913892
68,8267885,더럭초등학교,학교,제주특별자치도 제주시 애월읍 하가로 195,126.3454606,33.45362396,http://place.map.kakao.com/8267885
69,8104644,창천초등학교,학교,제주특별자치도 서귀포시 안덕면 창천중앙로 12,126.3693077,33.26361387,http://place.map.kakao.com/8104644
70,9430816,창천초등학교 병설유치원,어린이집/유치원,제주특별자치도 서귀포시 안덕면 창천중앙로 13,126.3686118,33.26367525,http://place.map.kakao.com/9430816
71,7979220,신엄중학교,학교,제주특별자치도 제주시 애월읍 일주서로 6711,126.3689019,33.47285917,http://place.map.kakao.com/7979220
72,8208585,구엄초등학교,학교,제주특별자치도 제주시 애월읍 일주서로 6768,126.3750211,33.47286132,http://place.map.kakao.com/8208585
73,8770446,구엄초등학교 병설유치원,어린이집/유치원,제주특별자치도 제주시 애월읍 일주서로 6768,126.3750167,33.47287572,http://place.map.kakao.com/8770446
74,8633682,한길정보통신학교,학교,제주특별자치도 제주시 애월읍 장소로 515,126.3856228,33.40898781,http://place.map.kakao.com/8633682
75,621939363,장전초등학교 한울마루,학교,,126.3898258,33.44991028,http://place.map.kakao.com/621939363
76,8014559,예래초등학교,학교,제주특별자치도 서귀포시 예래로 210-14,126.3913602,33.24632251,http://place.map.kakao.com/8014559
77,9319700,예래초등학교병설유치원,어린이집/유치원,제주특별자치도 서귀포시 예래로 210-14,126.3914118,33.24629752,http://place.map.kakao.com/9319700
78,8053780,장전초등학교,학교,제주특별자치도 제주시 애월읍 장전로 122,126.3904013,33.44943166,http://place.map.kakao.com/8053780
79,9396408,장전초등학교 병설유치원,어린이집/유치원,제주특별자치도 제주시 애월읍 장전로 122,126.3904057,33.44941726,http://place.map.kakao.com/9396408
80,10415373,물메초등학교,학교,제주특별자치도 제주시 애월읍 엄수로 202-4,126.391421,33.46604397,http://place.map.kakao.com/10415373
81,8984479,물메초등학교 병설유치원,어린이집/유치원,제주특별자치도 제주시 애월읍 엄수로 202-4,126.3913999,33.46598706,http://place.map.kakao.com/8984479
82,10859821,하귀초등학교,학교,제주특별자치도 제주시 애월읍 하귀로 44,126.4019416,33.47981375,http://place.map.kakao.com/10859821
83,8213344,귀일중학교,학교,제주특별자치도 제주시 애월읍 항몽로 44,126.4055696,33.47917485,http://place.map.kakao.com/8213344
84,9590468,하귀초등학교 병설유치원,어린이집/유치원,제주특별자치도 제주시 애월읍 하귀로 44,126.4019375,33.47979209,http://place.map.kakao.com/9590468
85,17140499,하귀일초등학교,학교,제주특별자치도 제주시 애월읍 하귀9길 42,126.4152554,33.48387312,http://place.map.kakao.com/17140499
86,17156787,하귀일초등학교 병설유치원,어린이집/유치원,제주특별자치도 제주시 애월읍 하귀9길 42,126.4152808,33.48394176,http://place.map.kakao.com/17156787
87,10784873,중문초등학교,학교,제주특별자치도 서귀포시 천제연로 231,126.4296888,33.25288767,http://place.map.kakao.com/10784873
88,8072149,중문중학교,학교,제주특별자치도 서귀포시 천제연로232번길 10,126.4287913,33.25031212,http://place.map.kakao.com/8072149
89,8064308,제주외국어고등학교,학교,제주특별자치도 제주시 애월읍 고성남길 34,126.4254118,33.43307441,http://place.map.kakao.com/8064308
90,26549044,중문초등학교 병설유치원,어린이집/유치원,제주특별자치도 서귀포시 천제연로 231,126.430092,33.25227281,http://place.map.kakao.com/26549044
91,330861914,지진실내구호소 중문초등학교,학교,제주특별자치도 서귀포시 천제연로 231,126.4301601,33.25302327,http://place.map.kakao.com/330861914
92,10807438,제주관광대학교,학교,제주특별자치도 제주시 애월읍 평화로 2715,126.4340481,33.44907416,http://place.map.kakao.com/10807438
93,8521553,제주영송학교,학교,제주특별자치도 제주시 애월읍 광령중길 126-3,126.4339658,33.44981851,http://place.map.kakao.com/8521553
94,8184735,광령초등학교,학교,제주특별자치도 제주시 애월읍 광성로 276,126.436644,33.45944891,http://place.map.kakao.com/8184735
95,8742172,광령초등학교 병설유치원,어린이집/유치원,제주특별자치도 제주시 애월읍 광성로 276,126.4366441,33.45943448,http://place.map.kakao.com/8742172
96,10621880,외도초등학교,학교,제주특별자치도 제주시 일주서로 7368,126.4342717,33.49280417,http://place.map.kakao.com/10621880
97,23538488,외도초등학교 병설유치원,어린이집/유치원,제주특별자치도 제주시 일주서로 7368,126.4342762,33.49277173,http://place.map.kakao.com/23538488
98,1382858237,지진실내구호소 외도초등학교,학교,제주특별자치도 제주시 일주서로 7368,126.4346989,33.49246622,http://place.map.kakao.com/1382858237
99,8527349,중문고등학교,학교,제주특별자치도 서귀포시 일주서로570번길 19,126.4476279,33.2547755,http://place.map.kakao.com/8527349
100,9900887,도평초등학교,학교,제주특별자치도 제주시 도평길 17,126.4472241,33.48078493,http://place.map.kakao.com/9900887
101,1953618360,도평초등학교 병설유치원,어린이집/유치원,제주특별자치도 제주시 도평길 17,126.4467445,33.48075033,http://place.map.kakao.com/1953618360
102,880115841,라이프리버 국제학교,학교,제주특별자치도 제주시 현사길 45,126.447297,33.4972618,http://place.map.kakao.com/880115841
103,1505701297,LRIS 엘리스 제주대안학교,학교,제주특별자치도 제주시 현사길 45,126.4473025,33.4972483,http://place.map.kakao.com/1505701297
104,248543497,라이프리버 국제학교 A동,학교,제주특별자치도 제주시 현사길 45,126.4474108,33.49712977,http://place.map.kakao.com/248543497
105,8127773,하원초등학교,학교,제주특별자치도 서귀포시 월평하원로 149,126.4594379,33.25315759,http://place.map.kakao.com/8127773
106,19612358,해안초등학교,학교,제주특별자치도 제주시 해안마을길 76,126.4540989,33.456815,http://place.map.kakao.com/19612358
107,1721447062,비라카미신학교 제주캠퍼스,학교,제주특별자치도 제주시 오도9길 55-4,126.4634951,33.48828193,http://place.map.kakao.com/1721447062
108,7836615,도리초등학교,학교,제주특별자치도 제주시 도리로 129,126.4651055,33.50218059,http://place.map.kakao.com/7836615
109,10306785,도리초등학교병설유치원,어린이집/유치원,제주특별자치도 제주시 도리로 129,126.4651076,33.50217789,http://place.map.kakao.com/10306785
110,8183645,강정초등학교,학교,제주특별자치도 서귀포시 말질로 188,126.4785567,33.235048,http://place.map.kakao.com/8183645
111,10129859,강정초등학교병설유치원,어린이집/유치원,제주특별자치도 서귀포시 말질로 188,126.4784971,33.23497562,http://place.map.kakao.com/10129859
112,10311477,도순초등학교,학교,제주특별자치도 서귀포시 도순남로 83,126.4773328,33.24744204,http://place.map.kakao.com/10311477
113,737852152,도순초등학교 병설유치원,어린이집/유치원,제주특별자치도 서귀포시 도순남로 83,126.4775137,33.24752124,http://place.map.kakao.com/737852152
114,8084303,제주한라대학교,학교,제주특별자치도 제주시 한라대학로 38,126.4748237,33.4768018,http://place.map.kakao.com/8084303
115,19125908,노형중학교,학교,제주특별자치도 제주시 노형1길 28,126.4756464,33.47953441,http://place.map.kakao.com/19125908
116,8064447,제주제일고등학교,학교,제주특별자치도 제주시 진군길 22,126.4794997,33.47998702,http://place.map.kakao.com/8064447
117,11470942,제주제일고등학교부설방송통신고등학교,학교,제주특별자치도 제주시 진군길 22,126.4795041,33.4799654,http://place.map.kakao.com/11470942
118,8247659,노형초등학교,학교,제주특별자치도 제주시 노형로 383,126.4759718,33.48481911,http://place.map.kakao.com/8247659
119,7887053,백록초등학교,학교,제주특별자치도 제주시 정존5길 62,126.4704106,33.48704945,http://place.map.kakao.com/7887053
120,8620669,한국방송통신대학교 제주지역대학,학교,제주특별자치도 제주시 정존7길 34,126.4736147,33.48600644,http://place.map.kakao.com/8620669
121,8856180,노형초등학교 병설유치원,어린이집/유치원,제주특별자치도 제주시 노형로 383,126.4759634,33.48478301,http://place.map.kakao.com/8856180
122,737046930,백록초등학교 병설유치원,어린이집/유치원,제주특별자치도 제주시 정존5길 62,126.4702252,33.48709915,http://place.map.kakao.com/737046930
123,786168398,지진실내구호소 노형초등학교,학교,제주특별자치도 제주시 노형로 383,126.476561,33.48488111,http://place.map.kakao.com/786168398
124,8032723,월랑초등학교,학교,제주특별자치도 제주시 남녕로 63,126.4779503,33.49291654,http://place.map.kakao.com/8032723
125,9361430,월랑초등학교 병설유치원,어린이집/유치원,제주특별자치도 제주시 남녕로 63,126.4779334,33.49286958,http://place.map.kakao.com/9361430
126,8604823,한라초등학교,학교,제주특별자치도 제주시 연화로 42,126.4864142,33.47803957,http://place.map.kakao.com/8604823
127,8146806,한라중학교,학교,제주특별자치도 제주시 과원북2길 24,126.4850763,33.47795107,http://place.map.kakao.com/8146806
128,9405557,제주고등학교,학교,제주특별자치도 제주시 1100로 3213,126.4816883,33.4723615,http://place.map.kakao.com/9405557
129,10192884,남녕고등학교,학교,제주특별자치도 제주시 도령로 55,126.4830551,33.48930633,http://place.map.kakao.com/10192884
130,8579508,제주서중학교,학교,제주특별자치도 제주시 일주서로 7811,126.4810309,33.49457398,http://place.map.kakao.com/8579508
131,8066153,신광초등학교,학교,제주특별자치도 제주시 성신로 25,126.4845581,33.49133216,http://place.map.kakao.com/8066153
132,25986154,신광초등학교 병설유치원,어린이집/유치원,제주특별자치도 제주시 성신로 25,126.4845582,33.49132134,http://place.map.kakao.com/25986154
133,13475306,제주 그레이스 아카데미,학교,제주특별자치도 서귀포시 엉또로 109,126.4978081,33.26666972,http://place.map.kakao.com/13475306
134,713500785,신제주불교대학 보리왓,학교,제주특별자치도 제주시 과원로 84,126.4918376,33.47750023,http://place.map.kakao.com/713500785
135,7981022,신제주초등학교,학교,제주특별자치도 제주시 비월길 29,126.4978148,33.48314603,http://place.map.kakao.com/7981022
136,15965013,제원직업전문학교,학교,제주특별자치도 제주시 노연로 119,126.4930167,33.48600438,http://place.map.kakao.com/15965013
137,7895147,법환초등학교,학교,제주특별자치도 서귀포시 이어도로 879,126.5086352,33.23754715,http://place.map.kakao.com/7895147
138,23538484,법환초등학교 병설유치원,어린이집/유치원,제주특별자치도 서귀포시 이어도로 879,126.5086007,33.23756865,http://place.map.kakao.com/23538484
139,7945238,서귀포대신중학교,학교,제주특별자치도 서귀포시 신중로13번길 15,126.5063998,33.25730197,http://place.map.kakao.com/7945238
140,10803015,제주중앙중학교,학교,제주특별자치도 제주시 선덕로5길 37,126.5004845,33.486655,http://place.map.kakao.com/10803015
141,8065445,제주대학교사범대학 부설고등학교,학교,제주특별자치도 제주시 용담로 65,126.5094447,33.51347527,http://place.map.kakao.com/8065445
142,12500936,제주대학교사범대학부설중학교,학교,제주특별자치도 제주시 용담로7길 33,126.50936,33.51551974,http://place.map.kakao.com/12500936
143,39076992,지진실내구호소 서초등학교,학교,제주특별자치도 제주시 성화로6길 51,126.509683,33.5114855,http://place.map.kakao.com/39076992
144,1980766111,법환좀녀마을해녀학교,학교,제주특별자치도 서귀포시 법환로 1,126.5146513,33.23613898,http://place.map.kakao.com/1980766111
145,10509263,새서귀초등학교,학교,제주특별자치도 서귀포시 신서귀로76번길 6-3,126.5135321,33.25690091,http://place.map.kakao.com/10509263
146,11192726,오라초등학교,학교,제주특별자치도 제주시 연사길 48,126.5134492,33.48951234,http://place.map.kakao.com/11192726
147,10631603,오라초등학교 병설유치원,어린이집/유치원,제주특별자치도 제주시 연사길 48,126.5134805,33.48950705,http://place.map.kakao.com/10631603
148,8067361,제주중앙초등학교,학교,제주특별자치도 제주시 서사로18길 40,126.5157579,33.50236366,http://place.map.kakao.com/8067361
149,10922797,한천초등학교,학교,제주특별자치도 제주시 남성로11길 22,126.5128071,33.50733248,http://place.map.kakao.com/10922797
150,8889066,법화불교대학,학교,제주특별자치도 제주시 남성로3길 7,126.5120969,33.50194539,http://place.map.kakao.com/8889066
151,17210890,제주중앙초등학교병설유치원,어린이집/유치원,제주특별자치도 제주시 서사로18길 40,126.5162282,33.50215994,http://place.map.kakao.com/17210890
152,23585455,한천초등학교 병설유치원,어린이집/유치원,제주특별자치도 제주시 남성로11길 22,126.5128049,33.50733608,http://place.map.kakao.com/23585455
153,980919570,지진실내구호소 중앙초등학교,학교,제주특별자치도 제주시 서사로18길 40,126.5150134,33.50251222,http://place.map.kakao.com/980919570
154,10804416,제주서초등학교,학교,제주특별자치도 제주시 성화로6길 51,126.5107562,33.51223626,http://place.map.kakao.com/10804416
155,8067362,제주중학교,학교,제주특별자치도 제주시 서문로 47,126.516585,33.51230603,http://place.map.kakao.com/8067362
156,483673473,청소년혼디학교,학교,제주특별자치도 제주시 서문로 35-1,126.5151083,33.51076755,http://place.map.kakao.com/483673473
157,9399730,제주서초등학교 병설유치원,어린이집/유치원,제주특별자치도 제주시 성화로6길 51,126.5107132,33.51221806,http://place.map.kakao.com/9399730
158,8063698,서호초등학교,학교,제주특별자치도 서귀포시 호근남로 40,126.5288303,33.25384739,http://place.map.kakao.com/8063698
159,10486298,서호초등학교 병설유치원,어린이집/유치원,제주특별자치도 서귀포시 호근남로 40,126.5288347,33.25382216,http://place.map.kakao.com/10486298
160,7836222,도남초등학교,학교,제주특별자치도 제주시 도남로8길 22,126.5258646,33.49380877,http://place.map.kakao.com/7836222
161,27371658,도남초등학교 병설유치원,어린이집/유치원,제주특별자치도 제주시 도남로8길 22,126.5258646,33.49381238,http://place.map.kakao.com/27371658
162,10803114,제주중앙여자중학교,학교,제주특별자치도 제주시 서사로11길 8,126.5211315,33.50523718,http://place.map.kakao.com/10803114
163,21254660,삼성초등학교,학교,제주특별자치도 제주시 서광로29길 35,126.5251541,33.50331965,http://place.map.kakao.com/21254660
164,8200520,광양초등학교,학교,제주특별자치도 제주시 돈내길 5,126.5297031,33.50274556,http://place.map.kakao.com/8200520
165,10738550,일도초등학교,학교,제주특별자치도 제주시 삼성로9길 27,126.5296103,33.50955403,http://place.map.kakao.com/10738550
166,8922431,동려평생학교,학교,제주특별자치도 제주시 광양4길 30-1,126.5251906,33.50175824,http://place.map.kakao.com/8922431
167,10444224,삼성초등학교 병설유치원,어린이집/유치원,제주특별자치도 제주시 서광로29길 35,126.5251628,33.50330165,http://place.map.kakao.com/10444224
168,23585156,일도초등학교 병설유치원,어린이집/유치원,제주특별자치도 제주시 삼성로9길 27,126.5296104,33.5095396,http://place.map.kakao.com/23585156
169,10806169,제주남초등학교 병설유치원,어린이집/유치원,제주특별자치도 제주시 남성로 149,126.5212778,33.50994405,http://place.map.kakao.com/10806169
170,8767379,광양초등학교 병설유치원,어린이집/유치원,제주특별자치도 제주시 돈내길 5,126.5296783,33.50274366,http://place.map.kakao.com/8767379
171,36908707,한국경영기술개발원부설제주직업전문학원,학교,제주특별자치도 제주시 서사로 81,126.5201257,33.50497003,http://place.map.kakao.com/36908707
172,8065312,제주남초등학교,학교,제주특별자치도 제주시 남성로 149,126.5212603,33.51000529,http://place.map.kakao.com/8065312
173,8516098,제주북초등학교,학교,제주특별자치도 제주시 중앙로8길 18,126.5222133,33.51519853,http://place.map.kakao.com/8516098
174,10089166,제주북초등학교 병설유치원,어린이집/유치원,제주특별자치도 제주시 중앙로8길 18,126.5221877,33.51515515,http://place.map.kakao.com/10089166
175,7945417,서귀포여자고등학교,학교,제주특별자치도 서귀포시 태평로 80,126.5315745,33.24394706,http://place.map.kakao.com/7945417
176,8067403,제주과학고등학교,학교,제주특별자치도 제주시 산록북로 421-1,126.5301372,33.42630976,http://place.map.kakao.com/8067403
177,17030481,이도초등학교,학교,제주특별자치도 제주시 구남동2길 58,126.5320636,33.48805853,http://place.map.kakao.com/17030481
178,23585152,이도초등학교 병설유치원,어린이집/유치원,제주특별자치도 제주시 구남동2길 58,126.5320679,33.48805133,http://place.map.kakao.com/23585152
179,25504878,제주 중앙여자고등학교,학교,제주특별자치도 제주시 구남동5길 11,126.5394595,33.49101461,http://place.map.kakao.com/25504878
180,8232731,남광초등학교,학교,제주특별자치도 제주시 남광로 28,126.5393357,33.49326092,http://place.map.kakao.com/8232731
181,8064572,제주제일중학교,학교,제주특별자치도 제주시 남광로 33,126.5389465,33.49521413,http://place.map.kakao.com/8064572
182,1312985500,제주제일중학교부설 방송통신중학교,학교,제주특별자치도 제주시 남광로 33,126.5389465,33.49521413,http://place.map.kakao.com/1312985500
183,8045847,인화초등학교,학교,제주특별자치도 제주시 신산로15길 35,126.5383153,33.50709477,http://place.map.kakao.com/8045847
184,236536581,제주동부청소년경찰학교,학교,제주특별자치도 제주시 동광로 8,126.5301102,33.50089974,http://place.map.kakao.com/236536581
185,23585154,인화초등학교 병설유치원,어린이집/유치원,제주특별자치도 제주시 신산로15길 35,126.5383323,33.50712729,http://place.map.kakao.com/23585154
186,8067845,제주동초등학교,학교,제주특별자치도 제주시 동문로 65,126.5333422,33.51446919,http://place.map.kakao.com/8067845
187,8083313,제주여자상업고등학교,학교,제주특별자치도 제주시 동문로 89-1,126.5363724,33.51481415,http://place.map.kakao.com/8083313
188,10803791,제주동초등학교병설유치원,어린이집/유치원,제주특별자치도 제주시 동문로 65,126.5333039,33.5143897,http://place.map.kakao.com/10803791
189,7940951,서귀포여자중학교,학교,제주특별자치도 서귀포시 일주동로 8820,126.5465051,33.25582816,http://place.map.kakao.com/7940951
190,7985386,아라초등학교,학교,제주특별자치도 제주시 중앙로 518,126.5437938,33.47623005,http://place.map.kakao.com/7985386
191,10596155,아라초등학교 병설유치원,어린이집/유치원,제주특별자치도 제주시 중앙로 518,126.5437725,33.47619391,http://place.map.kakao.com/10596155
192,10799403,제주여자고등학교,학교,제주특별자치도 제주시 구산로 50,126.5408671,33.4820147,http://place.map.kakao.com/10799403
193,10600170,아라중학교,학교,제주특별자치도 제주시 간월동로 30,126.5457051,33.48601758,http://place.map.kakao.com/10600170
194,8064306,제주영지학교,학교,제주특별자치도 제주시 간월동로3길 15,126.5426472,33.48805296,http://place.map.kakao.com/8064306
195,8066286,제주여자중학교,학교,제주특별자치도 제주시 구산로 50,126.5401583,33.48339332,http://place.map.kakao.com/8066286
196,891266092,아이소마,학교,제주특별자치도 제주시 중앙로 457,126.5441225,33.48249555,http://place.map.kakao.com/891266092
197,8310924,다솜발달장애인대안학교,학교,제주특별자치도 제주시 간월동로 14-1,126.544429,33.48560177,http://place.map.kakao.com/8310924
198,12896976,탐라중학교,학교,제주특별자치도 제주시 신설로 56,126.5451627,33.49179302,http://place.map.kakao.com/12896976
199,8063275,동광초등학교,학교,제주특별자치도 제주시 태성로 6,126.5471675,33.50190181,http://place.map.kakao.com/8063275
200,8085158,제주동여자중학교,학교,제주특별자치도 제주시 천수로 24,126.5404617,33.50253348,http://place.map.kakao.com/8085158
201,737589230,동광초등학교 병설유치원,어린이집/유치원,제주특별자치도 제주시 태성로 6,126.5471614,33.50183057,http://place.map.kakao.com/737589230
202,23742483,제주장애인야간학교,학교,제주특별자치도 제주시 천수동로 30,126.5453077,33.50770126,http://place.map.kakao.com/23742483
203,7930331,서귀북초등학교,학교,제주특별자치도 서귀포시 중앙로 175,126.5588269,33.259699,http://place.map.kakao.com/7930331
204,10504373,서귀서초등학교,학교,제주특별자치도 서귀포시 솜반천로 38,126.556624,33.25473581,http://place.map.kakao.com/10504373
205,19167675,서귀서초등학교 병설유치원,어린이집/유치원,제주특별자치도 서귀포시 솜반천로 38,126.5566283,33.25474394,http://place.map.kakao.com/19167675
206,12708375,서귀북초등학교 병설유치원,어린이집/유치원,제주특별자치도 서귀포시 중앙로 175,126.5583041,33.26036435,http://place.map.kakao.com/12708375
207,18425533,제주대학교 사라캠퍼스,학교,제주특별자치도 제주시 일주동로 61,126.5518613,33.51452404,http://place.map.kakao.com/18425533
208,8488008,오현고등학교,학교,제주특별자치도 제주시 일주동로 101,126.5565244,33.51655588,http://place.map.kakao.com/8488008
209,8018774,오현중학교,학교,제주특별자치도 제주시 일주동로 101,126.555886,33.5159333,http://place.map.kakao.com/8018774
210,8065444,제주대학교교육대학부설초등학교,학교,제주특별자치도 제주시 일주동로 61,126.5507823,33.51544968,http://place.map.kakao.com/8065444
211,7940588,서귀포중학교,학교,제주특별자치도 서귀포시 태평로 474,126.5697849,33.2477349,http://place.map.kakao.com/7940588
212,7940589,서귀포초등학교,학교,제주특별자치도 서귀포시 솔동산로11번길 17,126.566003,33.24435687,http://place.map.kakao.com/7940589
213,27289266,서귀포초등학교병설유치원,어린이집/유치원,제주특별자치도 서귀포시 솔동산로11번길 17,126.5667829,33.24395746,http://place.map.kakao.com/27289266
214,8366496,서귀중앙여자중학교,학교,제주특별자치도 서귀포시 중앙로 120,126.5624231,33.25476357,http://place.map.kakao.com/8366496
215,7930338,서귀포고등학교,학교,제주특별자치도 서귀포시 중앙로 140,126.5624751,33.25809978,http://place.map.kakao.com/7930338
216,7940475,서귀중앙초등학교,학교,제주특별자치도 서귀포시 동문동로 54,126.5636417,33.25313409,http://place.map.kakao.com/7940475
217,11610192,서귀포오석학교,학교,제주특별자치도 서귀포시 중동로 43-2,126.5670359,33.25075123,http://place.map.kakao.com/11610192
218,24013754,서귀중앙초등학교 병설유치원,어린이집/유치원,제주특별자치도 서귀포시 중동로8번길 8,126.5647175,33.25344893,http://place.map.kakao.com/24013754
219,8230926,남주고등학교,학교,제주특별자치도 서귀포시 동홍로303번길 14,126.5644434,33.27582187,http://place.map.kakao.com/8230926
220,8205342,남주중학교,학교,제주특별자치도 서귀포시 동홍로303번길 14,126.5651892,33.27521859,http://place.map.kakao.com/8205342
221,2063205245,남주고등학교 아름다운창조,학교,제주특별자치도 서귀포시 동홍로303번길 14,126.5641075,33.27580717,http://place.map.kakao.com/2063205245
222,8152196,한국폴리텍대학 제주캠퍼스,학교,제주특별자치도 제주시 산천단동3길 2,126.5614065,33.4474208,http://place.map.kakao.com/8152196
223,17384613,제주 지방경찰학교,학교,제주특별자치도 제주시 516로 2927,126.565448,33.44101202,http://place.map.kakao.com/17384613
224,11250683,제주대학교 아라캠퍼스,학교,제주특별자치도 제주시 제주대학로 102,126.5619017,33.4558976,http://place.map.kakao.com/11250683
225,8006278,영평초등학교,학교,제주특별자치도 제주시 아봉로 225,126.5669123,33.47872566,http://place.map.kakao.com/8006278
226,7980702,신성여자고등학교,학교,제주특별자치도 제주시 아봉로 174-1,126.5641978,33.47679755,http://place.map.kakao.com/7980702
227,8432196,신성여자중학교,학교,제주특별자치도 제주시 아봉로 174-5,126.5627881,33.47730108,http://place.map.kakao.com/8432196
228,10643192,영평초등학교 병설유치원,어린이집/유치원,제주특별자치도 제주시 아봉로 225,126.5672523,33.47872775,http://place.map.kakao.com/10643192
229,10967943,화북초등학교,학교,제주특별자치도 제주시 일주동로 157,126.5617362,33.51865891,http://place.map.kakao.com/10967943
230,830840349,화북초등학교 병설유치원,어린이집/유치원,제주특별자치도 제주시 일주동로 157,126.5617341,33.5186598,http://place.map.kakao.com/830840349
231,7845937,동홍초등학교,학교,제주특별자치도 서귀포시 동홍북로 17,126.5703413,33.26034161,http://place.map.kakao.com/7845937
232,8516788,제주국제대학교,학교,제주특별자치도 제주시 516로 2870,126.5701345,33.44125646,http://place.map.kakao.com/8516788
233,8008311,영주고등학교,학교,제주특별자치도 제주시 첨단동길 92,126.5796921,33.45503595,http://place.map.kakao.com/8008311
234,10807007,제주중앙고등학교,학교,제주특별자치도 제주시 아봉로 323,126.5729599,33.47412686,http://place.map.kakao.com/10807007
235,22874777,삼화초등학교,학교,제주특별자치도 제주시 화삼북로2길 27,126.5770001,33.51496135,http://place.map.kakao.com/22874777
236,8515269,제주동중학교,학교,제주특별자치도 제주시 동화로 12-1,126.5714664,33.51873984,http://place.map.kakao.com/8515269
237,10279144,동화초등학교,학교,제주특별자치도 제주시 동화로1길 44,126.5756832,33.51839372,http://place.map.kakao.com/10279144
238,23538487,동화초등학교 병설유치원,어린이집/유치원,제주특별자치도 제주시 동화로1길 44,126.5756874,33.51840816,http://place.map.kakao.com/23538487
239,27369134,삼화초등학교 병설유치원,어린이집/유치원,제주특별자치도 제주시 화삼북로2길 27,126.5770001,33.51496135,http://place.map.kakao.com/27369134
240,7924739,삼성여자고등학교,학교,제주특별자치도 서귀포시 검은여로 151,126.5842193,33.25505474,http://place.map.kakao.com/7924739
241,8083965,토평초등학교,학교,제주특별자치도 서귀포시 토평남로 86,126.5895032,33.26610464,http://place.map.kakao.com/8083965
242,25738329,도련초등학교,학교,제주특별자치도 제주시 화삼로 104,126.5839764,33.51372996,http://place.map.kakao.com/25738329
243,26511484,오름중학교,학교,제주특별자치도 제주시 화삼북로 110,126.5845826,33.51661709,http://place.map.kakao.com/26511484
244,27514673,도련초등학교병설유치원,어린이집/유치원,제주특별자치도 제주시 화삼로 104,126.5839526,33.51375602,http://place.map.kakao.com/27514673
245,7924552,삼양초등학교,학교,제주특별자치도 제주시 지석14길 7,126.5862634,33.52077365,http://place.map.kakao.com/7924552
246,19256482,삼양초등학교 병설유치원,어린이집/유치원,제주특별자치도 제주시 지석14길 7,126.5862636,33.52073398,http://place.map.kakao.com/19256482
247,1340430128,지진실내구호소 삼양초등학교,학교,제주특별자치도 제주시 지석14길 7,126.5858906,33.52085895,http://place.map.kakao.com/1340430128
248,7940648,서귀포산업과학고등학교,학교,제주특별자치도 서귀포시 516로 501,126.5944555,33.29717654,http://place.map.kakao.com/7940648
249,8427614,서귀포온성학교,학교,제주특별자치도 서귀포시 516로 447-10,126.5932623,33.29146715,http://place.map.kakao.com/8427614
250,7817215,대기고등학교,학교,제주특별자치도 제주시 번영로 453-6,126.5926195,33.49370631,http://place.map.kakao.com/7817215
251,7902603,봉개초등학교,학교,제주특별자치도 제주시 번영로 484,126.5940235,33.49007658,http://place.map.kakao.com/7902603
252,10387304,봉개초등학교병설유치원,어린이집/유치원,제주특별자치도 제주시 번영로 484,126.5940148,33.49009819,http://place.map.kakao.com/10387304
253,8372151,보목초등학교,학교,제주특별자치도 서귀포시 마소물로8번길 9,126.6000706,33.24494353,http://place.map.kakao.com/8372151
254,8689099,효돈초등학교,학교,제주특별자치도 서귀포시 효돈로 161,126.6161487,33.26457403,http://place.map.kakao.com/8689099
255,8086165,신촌초등학교,학교,제주특별자치도 제주시 조천읍 신북로 51,126.6191943,33.53423365,http://place.map.kakao.com/8086165
256,8063952,조천중학교,학교,제주특별자치도 제주시 조천읍 신북로 31,126.6168881,33.53281284,http://place.map.kakao.com/8063952
257,10614080,신촌초등학교병설유치원,어린이집/유치원,제주특별자치도 제주시 조천읍 신북로 51,126.6191986,33.53424809,http://place.map.kakao.com/10614080
258,10962300,효돈중학교,학교,제주특별자치도 서귀포시 효돈로 207,126.620683,33.26536696,http://place.map.kakao.com/10962300
259,10858902,하례초등학교,학교,제주특별자치도 서귀포시 남원읍 일주동로 8002,126.6308472,33.26476641,http://place.map.kakao.com/10858902
260,7967639,신례초등학교,학교,제주특별자치도 서귀포시 남원읍 중산간동로 7116,126.6320822,33.28456264,http://place.map.kakao.com/7967639
261,9198951,신례초등학교 병설유치원,어린이집/유치원,제주특별자치도 서귀포시 남원읍 중산간동로 7116,126.6326616,33.28462206,http://place.map.kakao.com/9198951
262,8575806,조천초등학교,학교,제주특별자치도 제주시 조천읍 신북로 195,126.6336834,33.53564417,http://place.map.kakao.com/8575806
263,10794267,조천초등학교 병설유치원,어린이집/유치원,제주특별자치도 제주시 조천읍 신북로 195,126.6337006,33.53566225,http://place.map.kakao.com/10794267
264,12501646,위미초등학교,학교,제주특별자치도 서귀포시 남원읍 태위로 57,126.6535331,33.27420144,http://place.map.kakao.com/12501646
265,9334746,위미초등학교병설유치원,어린이집/유치원,제주특별자치도 서귀포시 남원읍 태위로 57,126.653516,33.27419418,http://place.map.kakao.com/9334746
266,7828780,대흘초등학교,학교,제주특별자치도 제주시 조천읍 중산간동로 677,126.6577733,33.49960238,http://place.map.kakao.com/7828780
267,8889496,대흘초등학교 병설유치원,어린이집/유치원,제주특별자치도 제주시 조천읍 중산간동로 677,126.6578206,33.49960612,http://place.map.kakao.com/8889496
268,9584680,함덕고등학교,학교,제주특별자치도 제주시 조천읍 신흥로 9,126.651911,33.54458644,http://place.map.kakao.com/9584680
269,8483345,위미중학교,학교,제주특별자치도 서귀포시 남원읍 위미상원북로 34,126.6635557,33.28051153,http://place.map.kakao.com/8483345
270,10806258,조천초등학교 교래분교장,학교,제주특별자치도 제주시 조천읍 비자림로 672,126.678062,33.43646518,http://place.map.kakao.com/10806258
271,11213800,함덕초등학교,학교,제주특별자치도 제주시 조천읍 일주동로 1231,126.6724075,33.53882168,http://place.map.kakao.com/11213800
272,8598494,함덕중학교,학교,제주특별자치도 제주시 조천읍 일주동로 1234,126.672583,33.53681701,http://place.map.kakao.com/8598494
273,11212652,함덕초등학교 병설유치원,어린이집/유치원,제주특별자치도 제주시 조천읍 일주동로 1231,126.6724075,33.53882529,http://place.map.kakao.com/11212652
274,10470582,북촌초등학교,학교,제주특별자치도 제주시 조천읍 일주동로 1481,126.6916856,33.54797727,http://place.map.kakao.com/10470582
275,10470709,북촌초등학교 병설유치원,어린이집/유치원,제주특별자치도 제주시 조천읍 일주동로 1481,126.6916899,33.54797368,http://place.map.kakao.com/10470709
276,7945811,함덕초등학교 선인분교장,학교,제주특별자치도 제주시 조천읍 선진길 7-18,126.7041791,33.45942023,http://place.map.kakao.com/7945811
277,10928001,선흘초등학교,학교,제주특별자치도 제주시 조천읍 선흘동1길 41,126.704641,33.51508621,http://place.map.kakao.com/10928001
278,1441065300,볍씨학교,학교,제주특별자치도 제주시 조천읍 선흘동1길 35-7,126.7036943,33.51493248,http://place.map.kakao.com/1441065300
279,8008951,열방대학 제주캠퍼스,학교,제주특별자치도 제주시 조천읍 북흘로 135,126.7024029,33.53750534,http://place.map.kakao.com/8008951
280,8203567,남원초등학교,학교,제주특별자치도 서귀포시 남원읍 태위로 647,126.715589,33.27897886,http://place.map.kakao.com/8203567
281,8224674,남원중학교,학교,제주특별자치도 서귀포시 남원읍 남한로 36,126.7175453,33.28217149,http://place.map.kakao.com/8224674
282,10665088,의귀초등학교,학교,제주특별자치도 서귀포시 남원읍 한신로 213,126.7140503,33.3110481,http://place.map.kakao.com/10665088
283,9321674,의귀초등학교 병설유치원,어린이집/유치원,제주특별자치도 서귀포시 남원읍 한신로 213,126.714046,33.31105531,http://place.map.kakao.com/9321674
284,8710781,김녕초등학교 동복분교장,학교,제주특별자치도 제주시 구좌읍 동복로 66-5,126.7135249,33.55235016,http://place.map.kakao.com/8710781
285,736598517,김녕초등학교병설동복분교장유치원,어린이집/유치원,제주특별자치도 제주시 구좌읍 동복로 66-5,126.7135508,33.5523412,http://place.map.kakao.com/736598517
286,8114825,태흥초등학교,학교,제주특별자치도 서귀포시 남원읍 태위로 915,126.7428413,33.28639554,http://place.map.kakao.com/8114825
287,9494225,태흥초등학교 병설유치원,어린이집/유치원,제주특별자치도 서귀포시 남원읍 태위로 915,126.7428456,33.28638834,http://place.map.kakao.com/9494225
288,10217071,김녕초등학교,학교,제주특별자치도 제주시 구좌읍 김녕로 117,126.7504851,33.55543066,http://place.map.kakao.com/10217071
289,8213223,김녕중학교,학교,제주특별자치도 제주시 구좌읍 김녕로 118-20,126.7508163,33.55258951,http://place.map.kakao.com/8213223
290,8181906,흥산초등학교,학교,제주특별자치도 서귀포시 남원읍 일주동로 6642,126.7652842,33.30013032,http://place.map.kakao.com/8181906
291,20666507,흥산초등학교병설유치원,어린이집/유치원,제주특별자치도 서귀포시 남원읍 일주동로 6642,126.7652842,33.30014474,http://place.map.kakao.com/20666507
292,8108200,토산초등학교,학교,제주특별자치도 서귀포시 표선면 토산중앙로 68-9,126.7776307,33.31241158,http://place.map.kakao.com/8108200
293,9553551,토산초등학교 병설유치원,어린이집/유치원,제주특별자치도 서귀포시 표선면 토산중앙로 68-9,126.7776177,33.31243681,http://place.map.kakao.com/9553551
294,7956706,송당초등학교,학교,제주특별자치도 제주시 구좌읍 중산간동로 2218-3,126.7809916,33.47109864,http://place.map.kakao.com/7956706
295,9157586,송당초등학교 병설유치원,어린이집/유치원,제주특별자치도 제주시 구좌읍 중산간동로 2218-3,126.7810131,33.47109867,http://place.map.kakao.com/9157586
296,8630872,가마초등학교,학교,제주특별자치도 서귀포시 표선면 일주동로6285번길 8,126.7997111,33.30588888,http://place.map.kakao.com/8630872
297,11124750,성읍초등학교,학교,제주특별자치도 서귀포시 표선면 성읍민속로 65,126.7980148,33.38394159,http://place.map.kakao.com/11124750
298,10476609,성읍초등학교 병설유치원,어린이집/유치원,제주특별자치도 서귀포시 표선면 성읍민속로 65,126.7980192,33.38391275,http://place.map.kakao.com/10476609
299,10137329,구좌중앙초등학교,학교,제주특별자치도 제주시 구좌읍 월정7길 1,126.7976426,33.55169396,http://place.map.kakao.com/10137329
300,8674971,구좌중앙초등학교병설유치원,어린이집/유치원,제주특별자치도 제주시 구좌읍 월정7길 1,126.7976727,33.55170483,http://place.map.kakao.com/8674971
301,8594256,한마음초등학교,학교,제주특별자치도 서귀포시 표선면 한마음초등로 408,126.8144616,33.35197412,http://place.map.kakao.com/8594256
302,9553667,한마음초등학교병설유치원,어린이집/유치원,제주특별자치도 서귀포시 표선면 한마음초등로 408,126.8150319,33.35202997,http://place.map.kakao.com/9553667
303,8123102,표선고등학교,학교,제주특별자치도 서귀포시 표선면 표선중앙로 22-15,126.8278415,33.33117665,http://place.map.kakao.com/8123102
304,8601011,한동초등학교,학교,제주특별자치도 제주시 구좌읍 일주동로 2831,126.8285335,33.53881531,http://place.map.kakao.com/8601011
305,11212205,한동초등학교병설유치원,어린이집/유치원,제주특별자치도 제주시 구좌읍 일주동로 2831,126.8285378,33.53879368,http://place.map.kakao.com/11212205
306,11274459,표선초등학교,학교,제주특별자치도 서귀포시 표선면 표선동서로 293,126.8346408,33.32984787,http://place.map.kakao.com/11274459
307,9992244,표선초등학교 병설유치원,어린이집/유치원,제주특별자치도 서귀포시 표선면 표선동서로 293,126.8346596,33.32897512,http://place.map.kakao.com/9992244
308,8123743,표선중학교,학교,제주특별자치도 서귀포시 표선면 표선중앙로 31,126.8309702,33.33068325,http://place.map.kakao.com/8123743
309,2098685885,글로벌리더스쿨 제주캠퍼스,학교,제주특별자치도 서귀포시 성산읍 서성일로 488,126.8409863,33.41728819,http://place.map.kakao.com/2098685885
310,10888494,평대초등학교,학교,제주특별자치도 제주시 구좌읍 일주동로 2979,126.8405401,33.52948719,http://place.map.kakao.com/10888494
311,10886719,평대초등학교병설유치원,어린이집/유치원,제주특별자치도 제주시 구좌읍 일주동로 2979,126.8405444,33.52947998,http://place.map.kakao.com/10886719
312,10877035,풍천초등학교,학교,제주특별자치도 서귀포시 성산읍 풍천로 18,126.8501174,33.34906855,http://place.map.kakao.com/10877035
313,10880651,풍천초등학교 병설유치원,어린이집/유치원,제주특별자치도 서귀포시 성산읍 풍천로 18,126.8501088,33.34906133,http://place.map.kakao.com/10880651
314,10568808,세화초등학교,학교,제주특별자치도 제주시 구좌읍 구좌로 65,126.8589424,33.52279801,http://place.map.kakao.com/10568808
315,11123290,세화중학교,학교,제주특별자치도 제주시 구좌읍 일주동로 3132,126.8532392,33.52165176,http://place.map.kakao.com/11123290
316,8441904,세화초등학교 병설유치원,어린이집/유치원,제주특별자치도 제주시 구좌읍 구좌로 65,126.8589683,33.52274755,http://place.map.kakao.com/8441904
317,7949330,세화고등학교,학교,제주특별자치도 제주시 구좌읍 세종로 26,126.8628151,33.51622068,http://place.map.kakao.com/7949330
318,7974960,신산초등학교,학교,제주특별자치도 서귀포시 성산읍 일주동로 5104,126.8755793,33.38165609,http://place.map.kakao.com/7974960
319,8406399,신산중학교,학교,제주특별자치도 서귀포시 성산읍 일주동로 5104,126.8751632,33.38102454,http://place.map.kakao.com/8406399
320,8145291,하도초등학교,학교,제주특별자치도 제주시 구좌읍 일주동로 3378,126.878498,33.51752454,http://place.map.kakao.com/8145291
321,9545904,하도초등학교 병설유치원,어린이집/유치원,제주특별자치도 제주시 구좌읍 일주동로 3378,126.8782742,33.5175135,http://place.map.kakao.com/9545904
322,7970292,수산초등학교,학교,제주특별자치도 서귀포시 성산읍 수시로 9,126.8852856,33.44738604,http://place.map.kakao.com/7970292
323,9955056,수산초등학교 병설유치원,어린이집/유치원,제주특별자치도 서귀포시 성산읍 수시로 9,126.8852641,33.44739053,http://place.map.kakao.com/9955056
324,11192621,온평초등학교,학교,제주특별자치도 서귀포시 성산읍 일주동로 4740,126.8966851,33.40824797,http://place.map.kakao.com/11192621
325,9268438,온평초등학교 병설유치원,어린이집/유치원,제주특별자치도 서귀포시 성산읍 일주동로 4740,126.8967711,33.40823001,http://place.map.kakao.com/9268438
326,11527619,시흥초등학교,학교,제주특별자치도 서귀포시 성산읍 시흥상동로 113,126.8954471,33.47962575,http://place.map.kakao.com/11527619
327,9183618,시흥초등학교 병설유치원,어린이집/유치원,제주특별자치도 서귀포시 성산읍 시흥상동로 113,126.8962093,33.47920083,http://place.map.kakao.com/9183618
328,8073782,종달초등학교,학교,제주특별자치도 제주시 구좌읍 종달로7길 5,126.8971658,33.49284834,http://place.map.kakao.com/8073782
329,9999199,종달초등학교병설유치원,어린이집/유치원,제주특별자치도 제주시 구좌읍 종달로7길 5,126.8972521,33.4927294,http://place.map.kakao.com/9999199
330,7842741,동남초등학교,학교,제주특별자치도 서귀포시 성산읍 고성오조로 55,126.9138581,33.44913667,http://place.map.kakao.com/7842741
331,8063701,성산중학교,학교,제주특별자치도 서귀포시 성산읍 일주동로 4316,126.9104694,33.44359116,http://place.map.kakao.com/8063701
332,23584257,동남초등학교 병설유치원,어린이집/유치원,제주특별자치도 서귀포시 성산읍 고성오조로 55,126.9137119,33.44914739,http://place.map.kakao.com/23584257
333,10490212,성산고등학교,학교,제주특별자치도 서귀포시 성산읍 한도로 79-17,126.9151885,33.47021723,http://place.map.kakao.com/10490212
334,10495279,성산초등학교,학교,제주특별자치도 서귀포시 성산읍 한도로 217,126.9318347,33.468381,http://place.map.kakao.com/10495279
335,9141471,성산초등학교 병설유치원,어린이집/유치원,제주특별자치도 서귀포시 성산읍 한도로 217,126.9318476,33.46834134,http://place.map.kakao.com/9141471
336,21844023,우도초등학교,학교,제주특별자치도 제주시 우도면 우도로 156-11,126.955659,33.50587339,http://place.map.kakao.com/21844023
337,21844034,우도중학교,학교,제주특별자치도 제주시 우도면 우도로 156-11,126.9559734,33.50553089,http://place.map.kakao.com/21844034
