num,id,store,business,address,x,y,url
1,941661099,제주바다목장 다이브리조트,콘도,제주특별자치도 제주시 한경면 한경해안로 565,126.179302,33.3460594,http://place.map.kakao.com/941661099
2,1241302068,모켄리조트 제주,콘도,제주특별자치도 제주시 한경면 고산로4길 12-7,126.1812892,33.30461637,http://place.map.kakao.com/1241302068
3,17945141,메가리조트,콘도,제주특별자치도 제주시 한경면 판포1길 6,126.19928,33.3649952,http://place.map.kakao.com/17945141
4,24406284,블루하와이리조트,콘도,제주특별자치도 제주시 한림읍 한림로 77,126.2180996,33.38139425,http://place.map.kakao.com/24406284
5,1041102067,일성콘도앤리조트 제주비치지점,콘도,제주특별자치도 제주시 한림읍 한림로 127,126.221294,33.38568426,http://place.map.kakao.com/1041102067
6,2011426786,오시록헌 PM,콘도,제주특별자치도 제주시 한림읍 금능5길 19-3,126.2265333,33.38955869,http://place.map.kakao.com/2011426786
7,1914252541,한림리조트,콘도,제주특별자치도 제주시 한림읍 일주서로 5083-5,126.2499557,33.38941846,http://place.map.kakao.com/1914252541
8,19369047,카이리조트,콘도,제주특별자치도 제주시 한림읍 협재2길 10,126.2412749,33.39213717,http://place.map.kakao.com/19369047
9,1380810398,한림리조트 컨벤션홀,콘도,제주특별자치도 제주시 한림읍 협재로 99-1,126.2488173,33.39007244,http://place.map.kakao.com/1380810398
10,10229838,제주금강산콘도,콘도,제주특별자치도 제주시 한림읍 협재로 210-18,126.250286,33.37936321,http://place.map.kakao.com/10229838
11,25685145,하모니리조트,콘도,제주특별자치도 제주시 한림읍 협재로 213,126.252085,33.37936054,http://place.map.kakao.com/25685145
12,11147492,제주힐리조트,콘도,제주특별자치도 제주시 한림읍 명월성로 394,126.2616998,33.37389675,http://place.map.kakao.com/11147492
13,25890877,라온GC 라온빌리지,콘도,제주특별자치도 제주시 한경면 용금로 998,126.2784663,33.34135213,http://place.map.kakao.com/25890877
14,8103510,켄싱턴리조트 제주한림,콘도,제주특별자치도 제주시 한림읍 한림해안로 530,126.2743683,33.43578804,http://place.map.kakao.com/8103510
15,7961894,송악스테이,콘도,제주특별자치도 서귀포시 대정읍 형제해안로 256-8,126.2917062,33.21233594,http://place.map.kakao.com/7961894
16,24924966,콤마앤리조트,콘도,제주특별자치도 서귀포시 안덕면 사계중앙로3번길 22,126.2996902,33.23016644,http://place.map.kakao.com/24924966
17,27393070,두빛나래리조트,콘도,제주특별자치도 서귀포시 안덕면 사계북로 109,126.299372,33.23697906,http://place.map.kakao.com/27393070
18,26618302,나르샤리조트,콘도,제주특별자치도 서귀포시 안덕면 사계북로 52,126.2937735,33.23391256,http://place.map.kakao.com/26618302
19,25811011,물뜰에쉼팡리조트,콘도,제주특별자치도 제주시 한림읍 귀덕로 73,126.2978059,33.43797858,http://place.map.kakao.com/25811011
20,9449642,푸른콘도,콘도,제주특별자치도 제주시 한림읍 귀덕6길 146,126.290937,33.43156347,http://place.map.kakao.com/9449642
21,1460066976,썬앤문리조트,콘도,제주특별자치도 서귀포시 안덕면 사계남로 102,126.3010309,33.22737175,http://place.map.kakao.com/1460066976
22,25412000,젠하이드어웨이,콘도,제주특별자치도 서귀포시 안덕면 사계남로 186-8,126.3085027,33.22929609,http://place.map.kakao.com/25412000
23,1427973932,루시드엠,콘도,제주특별자치도 서귀포시 안덕면 사계북로 120,126.3004187,33.23689118,http://place.map.kakao.com/1427973932
24,10409257,바다스케치,콘도,제주특별자치도 서귀포시 안덕면 사계남로216번길 52,126.3097503,33.23490747,http://place.map.kakao.com/10409257
25,449607991,리조트라온제나,콘도,제주특별자치도 서귀포시 안덕면 사계로114번길 54-12,126.3048754,33.24247012,http://place.map.kakao.com/449607991
26,1892231820,애월더선셋리조트,콘도,제주특별자치도 제주시 애월읍 일주서로 6111,126.3088037,33.45601077,http://place.map.kakao.com/1892231820
27,414336592,제주신화월드 서머셋,콘도,제주특별자치도 서귀포시 안덕면 신화역사로304번길 89,126.3172444,33.30275007,http://place.map.kakao.com/414336592
28,25510674,블랙스톤리조트 제주,콘도,제주특별자치도 제주시 한림읍 한창로 925-122,126.3109189,33.33637026,http://place.map.kakao.com/25510674
29,790657408,제주토비스콘도 본관,콘도,제주특별자치도 제주시 애월읍 애월로1길 8,126.3115995,33.46304607,http://place.map.kakao.com/790657408
31,17833992,와이리조트 제주,콘도,제주특별자치도 서귀포시 안덕면 화순중앙로124번길 75,126.3276438,33.24260881,http://place.map.kakao.com/17833992
32,2009881839,테디팰리스,콘도,제주특별자치도 서귀포시 안덕면 서광동로34번길 204,126.3414952,33.29431926,http://place.map.kakao.com/2009881839
33,25510680,캐슬렉스제주골프클럽 골프텔,콘도,제주특별자치도 서귀포시 안덕면 평화로 1241,126.3487641,33.34016014,http://place.map.kakao.com/25510680
34,16611452,뉴오션리조트,콘도,제주특별자치도 제주시 애월읍 고내로13길 59,126.3455559,33.46942568,http://place.map.kakao.com/16611452
35,7866376,빌레리조트,콘도,제주특별자치도 제주시 애월읍 고내로13길 79,126.3470447,33.4710113,http://place.map.kakao.com/7866376
36,16260352,클럽다인리조트,콘도,제주특별자치도 제주시 애월읍 애월해안로 400-9,126.3511074,33.47151949,http://place.map.kakao.com/16260352
37,25633362,수앤수리조트,콘도,제주특별자치도 제주시 애월읍 부룡수길 60,126.3585963,33.47454092,http://place.map.kakao.com/25633362
38,8012335,올레리조트,콘도,제주특별자치도 제주시 애월읍 부룡수길 33,126.3555164,33.47581241,http://place.map.kakao.com/8012335
39,1748908555,제주캐슬마운틴리조트,콘도,제주특별자치도 서귀포시 안덕면 산록남로 513-14,126.3666161,33.33491406,http://place.map.kakao.com/1748908555
40,23679793,베이힐풀앤빌라,콘도,제주특별자치도 서귀포시 예래로 424,126.3726624,33.23690685,http://place.map.kakao.com/23679793
41,971289407,고은관광농원 휴양콘도미니엄,콘도,제주특별자치도 서귀포시 일주서로 1262,126.3785,33.26481783,http://place.map.kakao.com/971289407
42,1299493065,애월스테이인제주,콘도,제주특별자치도 제주시 애월읍 애월해안로 708,126.3771441,33.48317083,http://place.map.kakao.com/1299493065
43,15678832,논짓물비치하우스,콘도,제주특별자치도 서귀포시 논짓물로 15,126.3871362,33.23718097,http://place.map.kakao.com/15678832
44,1611301676,스테이인제주,콘도,제주특별자치도 서귀포시 논짓물로48번길 16-6,126.3874325,33.24146333,http://place.map.kakao.com/1611301676
45,51512543,중문훼미리콘도미니엄,콘도,제주특별자치도 서귀포시 소보리당로164번길 83,126.3836383,33.26594699,http://place.map.kakao.com/51512543
46,9428768,중문에스피리조트,콘도,제주특별자치도 서귀포시 일주서로 1222,126.3825431,33.26510215,http://place.map.kakao.com/9428768
47,11159850,재즈마을,콘도,제주특별자치도 서귀포시 소보리당로 220,126.3842675,33.2625456,http://place.map.kakao.com/11159850
48,12803464,엘리시안제주 콘도,콘도,제주특별자치도 제주시 애월읍 평화로 1738-116,126.3825782,33.37298265,http://place.map.kakao.com/12803464
49,27299075,흰수염고래리조트,콘도,제주특별자치도 제주시 애월읍 일주서로 6818,126.3806343,33.47502806,http://place.map.kakao.com/27299075
50,26498323,핀크스비오토피아,콘도,제주특별자치도 서귀포시 안덕면 산록남로762번길 79,126.3916676,33.30104135,http://place.map.kakao.com/26498323
51,9913896,애월파라다이스,콘도,제주특별자치도 제주시 애월읍 하소로 557-10,126.3968138,33.43416479,http://place.map.kakao.com/9913896
52,23707246,제주리조트,콘도,제주특별자치도 제주시 애월읍 가문동상4길 11,126.3930586,33.48295858,http://place.map.kakao.com/23707246
53,614900095,청광리조트 제주골든우드,콘도,,126.4039733,33.26231704,http://place.map.kakao.com/614900095
54,24263132,해밀리조트,콘도,제주특별자치도 제주시 애월읍 광상로 272,126.4040999,33.44362699,http://place.map.kakao.com/24263132
55,2141568980,미아리조트,콘도,제주특별자치도 제주시 애월읍 유수암북길 98,126.4032987,33.44662463,http://place.map.kakao.com/2141568980
56,796916033,켄싱턴리조트 제주중문,콘도,제주특별자치도 서귀포시 중문관광로72번길 29-29,126.412657,33.24751768,http://place.map.kakao.com/796916033
57,126838669,씨사이드아덴리조트,콘도,제주특별자치도 서귀포시 중문관광로 124,126.4141445,33.24844705,http://place.map.kakao.com/126838669
58,280733379,야크마을,콘도,제주특별자치도 서귀포시 색달중앙로 162,126.4166423,33.26964508,http://place.map.kakao.com/280733379
59,18059939,중문리조트,콘도,제주특별자치도 서귀포시 색달로 117,126.4156344,33.26255902,http://place.map.kakao.com/18059939
60,12789053,롯데리조트제주 아트빌라스,콘도,제주특별자치도 서귀포시 색달중앙로252번길 124,126.4160309,33.28795316,http://place.map.kakao.com/12789053
61,1935009599,벨라비타,콘도,제주특별자치도 서귀포시 일주서로 809,126.4237434,33.25818884,http://place.map.kakao.com/1935009599
62,763497967,헤브론힐리조트,콘도,제주특별자치도 제주시 애월읍 고성남서길 76,126.4223777,33.42748845,http://place.map.kakao.com/763497967
63,25611771,스프링힐,콘도,제주특별자치도 서귀포시 천제연로 292,126.4367273,33.25088208,http://place.map.kakao.com/25611771
64,354915517,제주애월리조트,콘도,제주특별자치도 제주시 애월읍 광령평화2길 116-20,126.4324948,33.43457843,http://place.map.kakao.com/354915517
65,168366827,휴센,콘도,,126.437096,33.45209395,http://place.map.kakao.com/168366827
66,12236502,담앤루,콘도,제주특별자치도 서귀포시 이어도로343번길 63,126.4515413,33.24589108,http://place.map.kakao.com/12236502
67,1134059644,클럽이에스 제주리조트,콘도,제주특별자치도 서귀포시 1100로 501,126.4560661,33.28953322,http://place.map.kakao.com/1134059644
68,17602489,제주나인리조트,콘도,제주특별자치도 제주시 해안마을북길 14-5,126.4534073,33.46486138,http://place.map.kakao.com/17602489
69,25984750,비스타리조트,콘도,제주특별자치도 제주시 서해안로 74,126.4575841,33.50304587,http://place.map.kakao.com/25984750
70,20126697,스완지리조트,콘도,제주특별자치도 제주시 서해안로 84,126.4582212,33.50304505,http://place.map.kakao.com/20126697
71,193245330,이호리조트,콘도,제주특별자치도 제주시 도리로 106-16,126.4633493,33.49936544,http://place.map.kakao.com/193245330
72,26946944,썬비치리조트,콘도,제주특별자치도 제주시 서해안로 114,126.4614272,33.50251447,http://place.map.kakao.com/26946944
73,24797618,아모렉스,콘도,제주특별자치도 제주시 서해안로 216,126.4703455,33.50746206,http://place.map.kakao.com/24797618
74,24572915,켄싱턴리조트 서귀포,콘도,제주특별자치도 서귀포시 이어도로 684,126.4890656,33.23377523,http://place.map.kakao.com/24572915
75,1473619504,더시에나리조트 (2023년5월예정),콘도,,126.4845373,33.26461381,http://place.map.kakao.com/1473619504
76,867149047,엠버리조트,콘도,제주특별자치도 제주시 1100로 2671-51,126.4890526,33.42369497,http://place.map.kakao.com/867149047
77,227790611,제주드림타워,콘도,제주특별자치도 제주시 노연로 12,126.4814332,33.48521534,http://place.map.kakao.com/227790611
78,1512651884,뷰타워리조트,콘도,제주특별자치도 제주시 서해안로 346-9,126.4819658,33.50959107,http://place.map.kakao.com/1512651884
79,18773327,로긴리조트&호텔,콘도,제주특별자치도 제주시 서해안로 442-11,126.4886599,33.51696151,http://place.map.kakao.com/18773327
80,17633552,올레요리조트,콘도,제주특별자치도 서귀포시 이어도로 720,126.4927014,33.23473682,http://place.map.kakao.com/17633552
81,11620915,팜밸리리조트,콘도,제주특별자치도 서귀포시 중산간서로 193,126.4907436,33.25910791,http://place.map.kakao.com/11620915
82,19942592,아이브리조트,콘도,제주특별자치도 서귀포시 산록남로 1966-34,126.4966487,33.28840136,http://place.map.kakao.com/19942592
83,19934000,파미유스파리조트,콘도,제주특별자치도 서귀포시 이어도로 826-6,126.5028988,33.23499258,http://place.map.kakao.com/19934000
84,25627403,서귀포푸른섬,콘도,제주특별자치도 서귀포시 법환로66번길 5-1,126.509872,33.23971413,http://place.map.kakao.com/25627403
85,22625773,샤모니리조트,콘도,제주특별자치도 서귀포시 중산간서로 68,126.5043352,33.26335269,http://place.map.kakao.com/22625773
86,10809104,그림리조트,콘도,제주특별자치도 제주시 서해안로 620-1,126.5035895,33.5163181,http://place.map.kakao.com/10809104
87,12557626,신원리조트 제주지사,콘도,제주특별자치도 제주시 용해로 55,126.503067,33.51225975,http://place.map.kakao.com/12557626
88,1434454665,서귀포월드컵리조트,콘도,제주특별자치도 서귀포시 월드컵로45번길 40,126.5120068,33.24460034,http://place.map.kakao.com/1434454665
89,209932546,씨오르리조트,콘도,제주특별자치도 서귀포시 이어도로 989,126.5185522,33.24244751,http://place.map.kakao.com/209932546
90,26324386,더세리리조트,콘도,제주특별자치도 서귀포시 법환상로2번길 97-17,126.5121316,33.24705686,http://place.map.kakao.com/26324386
91,9484793,코코비치리조트,콘도,제주특별자치도 서귀포시 태평로92번길 37,126.5316284,33.24108368,http://place.map.kakao.com/9484793
92,14583349,블루펄리조트,콘도,제주특별자치도 서귀포시 태평로92번길 35,126.5318922,33.24130738,http://place.map.kakao.com/14583349
93,2068006,덴앤델리조트,콘도,제주특별자치도 서귀포시 태평로 156,126.5396646,33.24441726,http://place.map.kakao.com/2068006
94,1551672902,벙커호텔앤리조트,콘도,제주특별자치도 서귀포시 중산간동로8183번길 16,126.5426136,33.2612345,http://place.map.kakao.com/1551672902
95,11755366,한라산 리조트,콘도,제주특별자치도 제주시 선돌목동길 56-46,126.5437571,33.44463429,http://place.map.kakao.com/11755366
96,903094133,제주 헬스케어타운 리조트,콘도,제주특별자치도 서귀포시 솔오름로20번길 12,126.5559575,33.28549695,http://place.map.kakao.com/903094133
97,230486137,더큐브리조트 제주,콘도,제주특별자치도 서귀포시 솔오름로105번길 24,126.5636462,33.28589925,http://place.map.kakao.com/230486137
98,22730174,돈내코힐스파리조트,콘도,제주특별자치도 서귀포시 돈내코로 180,126.5781496,33.302587,http://place.map.kakao.com/22730174
99,1301573963,벨룸리조트,콘도,제주특별자치도 서귀포시 516로277번길 45,126.581442,33.27935153,http://place.map.kakao.com/1301573963
100,12842379,우리들리조트,콘도,제주특별자치도 서귀포시 산록남로 2914,126.5888361,33.31042637,http://place.map.kakao.com/12842379
101,21795417,더베이제주리조트,콘도,제주특별자치도 서귀포시 문필로35번길 46,126.5934954,33.24116421,http://place.map.kakao.com/21795417
102,22205184,돌과바람리조트,콘도,제주특별자치도 서귀포시 하신상로 166,126.6101558,33.27226252,http://place.map.kakao.com/22205184
103,8314845,라헨느리조트,콘도,제주특별자치도 제주시 명림로 374,126.6138608,33.45330329,http://place.map.kakao.com/8314845
104,27561536,기린산장 홍보관,콘도,,126.6386694,33.32097159,http://place.map.kakao.com/27561536
105,17592746,백통신원,콘도,제주특별자치도 서귀포시 남원읍 서성로 427,126.639049,33.32268217,http://place.map.kakao.com/17592746
106,8016361,한화리조트 제주,콘도,제주특별자치도 제주시 명림로 575-107,126.6373564,33.44900416,http://place.map.kakao.com/8016361
107,27386975,기린빌라리조트,콘도,제주특별자치도 서귀포시 남원읍 서성로 427-1,126.6430229,33.32473132,http://place.map.kakao.com/27386975
108,25646810,지아일랜드리조트,콘도,제주특별자치도 서귀포시 남원읍 위미항구로121번길 31,126.6526096,33.28298074,http://place.map.kakao.com/25646810
109,1915158888,인피니티리조트,콘도,제주특별자치도 제주시 조천읍 조함해안로 376-9,126.6567651,33.54724166,http://place.map.kakao.com/1915158888
110,27171295,에코랜드GC 골프텔,콘도,,126.6669907,33.45653094,http://place.map.kakao.com/27171295
111,20650886,제이에스리조트,콘도,제주특별자치도 제주시 조천읍 대흘5길 25,126.6630225,33.49687591,http://place.map.kakao.com/20650886
112,8600814,함덕리조텔,콘도,제주특별자치도 제주시 조천읍 조함해안로 514,126.6676562,33.54250916,http://place.map.kakao.com/8600814
113,8063682,조이빌리조트,콘도,제주특별자치도 제주시 조천읍 와산남길 41,126.6768251,33.48348605,http://place.map.kakao.com/8063682
114,11379388,소노벨 제주,콘도,제주특별자치도 제주시 조천읍 신북로 577,126.6716679,33.54137664,http://place.map.kakao.com/11379388
116,1785792635,크라운컨트리클럽 골프빌리지,콘도,제주특별자치도 제주시 조천읍 북선로 125,126.6993356,33.53282767,http://place.map.kakao.com/1785792635
117,16434989,금호제주리조트,콘도,제주특별자치도 서귀포시 남원읍 태위로 522-12,126.7018417,33.27324563,http://place.map.kakao.com/16434989
118,26413770,돌핀리조트,콘도,제주특별자치도 제주시 구좌읍 일주동로 1845,126.7287681,33.55654624,http://place.map.kakao.com/26413770
119,30816269,송당송당펜션&리조트,콘도,제주특별자치도 제주시 구좌읍 비자림로 1220,126.7356672,33.43448705,http://place.map.kakao.com/30816269
120,156018313,세인트포골프&리조트,콘도,제주특별자치도 제주시 구좌읍 선유로 445-55,126.7384908,33.52052499,http://place.map.kakao.com/156018313
121,12341327,블라제리조트,콘도,제주특별자치도 서귀포시 표선면 녹산로 274,126.7469407,33.3790116,http://place.map.kakao.com/12341327
122,25510626,사이프러스골프앤리조트 골프텔,콘도,제주특별자치도 서귀포시 표선면 번영로 2300,126.7430594,33.41395756,http://place.map.kakao.com/25510626
123,16616707,더뷰리조트,콘도,제주특별자치도 서귀포시 남원읍 신흥앞동산로40번길 39-23,126.7719752,33.30832326,http://place.map.kakao.com/16616707
124,8656377,소노캄 제주,콘도,제주특별자치도 서귀포시 표선면 일주동로 6347-17,126.7920828,33.30553102,http://place.map.kakao.com/8656377
125,26519967,씨엘빌리지,콘도,제주특별자치도 서귀포시 표선면 세성로 67-32,126.8036919,33.31197582,http://place.map.kakao.com/26519967
126,1181754196,스테이다랑쉬,콘도,제주특별자치도 제주시 구좌읍 비자림로 2239,126.8083993,33.49531245,http://place.map.kakao.com/1181754196
127,1825465831,오크라리조트,콘도,제주특별자치도 서귀포시 표선면 번영로 3189,126.8201992,33.36419415,http://place.map.kakao.com/1825465831
128,25627785,C&P리조트,콘도,제주특별자치도 서귀포시 성산읍 중산간동로 4328-63,126.8309496,33.39025076,http://place.map.kakao.com/25627785
129,158379131,제주파라다이스힐,콘도,,126.8551221,33.37073149,http://place.map.kakao.com/158379131
130,1862043863,고투베드리조트,콘도,제주특별자치도 서귀포시 성산읍 서성일로 660,126.8550647,33.42734312,http://place.map.kakao.com/1862043863
131,21695836,제주원리조트,콘도,제주특별자치도 서귀포시 성산읍 서성일로 726-33,126.86288,33.42855926,http://place.map.kakao.com/21695836
132,900435379,메모리아리조트,콘도,제주특별자치도 서귀포시 성산읍 일주동로 5199-3,126.872379,33.37415496,http://place.map.kakao.com/900435379
133,2002158765,MJ리조트,콘도,제주특별자치도 제주시 구좌읍 해맞이해안로 1651,126.8793089,33.52888549,http://place.map.kakao.com/2002158765
134,64151218,오투힐 제주점,콘도,제주특별자치도 제주시 구좌읍 해맞이해안로 1590-6,126.8737681,33.52807935,http://place.map.kakao.com/64151218
135,170246594,오션갤러리 호텔앤리조트,콘도,제주특별자치도 서귀포시 성산읍 환해장성로 231,126.889749,33.38784919,http://place.map.kakao.com/170246594
136,24119848,제주휴리조트1,콘도,제주특별자치도 서귀포시 성산읍 난고로 228,126.8940423,33.42096574,http://place.map.kakao.com/24119848
137,1436088892,크리스마스리조트,콘도,제주특별자치도 제주시 구좌읍 해맞이해안로 2030-8,126.8997566,33.50913072,http://place.map.kakao.com/1436088892
138,1188987883,오션스퀘어,콘도,제주특별자치도 서귀포시 성산읍 환해장성로 667,126.9089783,33.41321288,http://place.map.kakao.com/1188987883
139,11832536,보라카이인제주,콘도,제주특별자치도 제주시 구좌읍 해맞이해안로 2484,126.9012886,33.48591654,http://place.map.kakao.com/11832536
140,17665996,코델리아리조트,콘도,제주특별자치도 서귀포시 성산읍 일주동로4120번길 23-20,126.9100727,33.45910309,http://place.map.kakao.com/17665996
141,515269451,더포그레이스호텔앤리조트,콘도,제주특별자치도 서귀포시 성산읍 해맞이해안로 2670,126.9104342,33.47365803,http://place.map.kakao.com/515269451
142,1105933662,취다선리조트,콘도,제주특별자치도 서귀포시 성산읍 해맞이해안로 2688,126.9127061,33.47182578,http://place.map.kakao.com/1105933662
143,996889508,봄그리고가을리조트,콘도,제주특별자치도 서귀포시 성산읍 해맞이해안로 2660,126.911019,33.47414532,http://place.map.kakao.com/996889508
144,25612365,오션스타콘도,콘도,제주특별자치도 서귀포시 성산읍 섭지코지로 169,126.9265463,33.42734383,http://place.map.kakao.com/25612365
145,8177478,휘닉스제주,콘도,제주특별자치도 서귀포시 성산읍 섭지코지로 107,126.9282125,33.43058701,http://place.map.kakao.com/8177478
147,603194690,훈데르트힐즈,콘도,제주특별자치도 제주시 우도면 우도해안길 32-24,126.9551807,33.49419924,http://place.map.kakao.com/603194690
