num,id,store,business,address,x,y,url
1,27560257,리벤시아풀빌라호텔,호텔,제주특별자치도 제주시 한림읍 한림로 33,126.2184593,33.37723118,http://place.map.kakao.com/27560257
2,1918540062,이큐스테이,호텔,제주특별자치도 제주시 한림읍 금능남1길 6-1,126.2299083,33.38526377,http://place.map.kakao.com/1918540062
3,201873249,호텔홀라인 제주협재점,호텔,제주특별자치도 제주시 한림읍 한림로 197,126.2288927,33.38647371,http://place.map.kakao.com/201873249
4,1741076556,호텔52,호텔,제주특별자치도 서귀포시 대정읍 신영로36번길 35,126.247073,33.21989087,http://place.map.kakao.com/1741076556
5,27294594,라온호텔&리조트,호텔,제주특별자치도 제주시 한림읍 금능남로 127,126.2410955,33.37851576,http://place.map.kakao.com/27294594
6,1725185687,블루스프링부띠끄호텔,호텔,제주특별자치도 제주시 한림읍 한림로 330,126.2402536,33.3929117,http://place.map.kakao.com/1725185687
7,649389465,르메인호텔,호텔,제주특별자치도 제주시 한림읍 한림로 392,126.2444222,33.39707184,http://place.map.kakao.com/649389465
8,809042780,아길라호텔,호텔,제주특별자치도 제주시 한림읍 옹포2길 10,126.2493954,33.39971933,http://place.map.kakao.com/809042780
9,1938973523,모슬포호텔 1동,호텔,제주특별자치도 서귀포시 대정읍 최남단해안로30번길 11,126.2509272,33.21775747,http://place.map.kakao.com/1938973523
10,1828110170,드림제주호텔,호텔,제주특별자치도 서귀포시 대정읍 하모항구로6번길 5,126.2515459,33.21664319,http://place.map.kakao.com/1828110170
11,1308144764,모슬포호텔 3동,호텔,제주특별자치도 서귀포시 대정읍 최남단해안로30번길 15,126.250537,33.21772627,http://place.map.kakao.com/1308144764
12,26865974,SH써니호텔,호텔,제주특별자치도 서귀포시 대정읍 신영로 87-1,126.2523177,33.22074477,http://place.map.kakao.com/26865974
13,27317836,베니키아홈더제주리조트,호텔,제주특별자치도 제주시 한림읍 협재로 226,126.2511827,33.37830925,http://place.map.kakao.com/27317836
14,1822245656,하이제주호텔,호텔,제주특별자치도 제주시 한림읍 일주서로 5125,126.253419,33.39176724,http://place.map.kakao.com/1822245656
15,27316962,제주 자몽호텔,호텔,제주특별자치도 제주시 한림읍 한림해안로 136,126.261338,33.41488629,http://place.map.kakao.com/27316962
16,435060476,더퍼스트호텔,호텔,제주특별자치도 제주시 한림읍 한림로 695,126.2647389,33.41675475,http://place.map.kakao.com/435060476
17,18984706,썬하우스,호텔,제주특별자치도 제주시 한림읍 일주서로 5556,126.278443,33.42314633,http://place.map.kakao.com/18984706
18,1525358705,스카이호텔,호텔,제주특별자치도 제주시 한림읍 한림로 917,126.2761928,33.43284961,http://place.map.kakao.com/1525358705
19,384009875,휴식,호텔,제주특별자치도 제주시 한림읍 귀덕4길 9-3,126.2812311,33.43761675,http://place.map.kakao.com/384009875
20,1710816172,트로피컬하이드어웨이,호텔,제주특별자치도 서귀포시 대정읍 형제해안로 284,126.2912722,33.2092337,http://place.map.kakao.com/1710816172
21,25611491,제주항공우주호텔,호텔,제주특별자치도 서귀포시 안덕면 녹차분재로 216,126.2947102,33.30253135,http://place.map.kakao.com/25611491
22,21763648,담모라호텔앤리조트,호텔,제주특별자치도 서귀포시 안덕면 일주서로 1975-11,126.3060327,33.24972016,http://place.map.kakao.com/21763648
23,1540900019,호텔하루시다,호텔,제주특별자치도 서귀포시 안덕면 사계로114번길 130,126.30874,33.24945393,http://place.map.kakao.com/1540900019
24,719625115,제주신화월드 랜딩관,특급호텔,제주특별자치도 서귀포시 안덕면 신화역사로304번길 38,126.3175385,33.30566208,http://place.map.kakao.com/719625115
25,1073984114,제주신화월드 신화관,특급호텔,제주특별자치도 서귀포시 안덕면 신화역사로304번길 38,126.3159012,33.30674131,http://place.map.kakao.com/1073984114
26,1065946291,제주신화월드 메리어트관,특급호텔,제주특별자치도 서귀포시 안덕면 신화역사로304번길 38,126.3176746,33.30749309,http://place.map.kakao.com/1065946291
27,855820137,블랙스톤제주 힐하우스호텔,호텔,제주특별자치도 제주시 한림읍 한창로 925-122,126.3136166,33.33615078,http://place.map.kakao.com/855820137
28,489015678,힐하우스 호텔 & 스파,호텔,제주특별자치도 제주시 한림읍 한창로 925-122,126.3123398,33.33597061,http://place.map.kakao.com/489015678
29,23609232,플레이스,호텔,제주특별자치도 서귀포시 안덕면 화순문화로 17-28,126.3260507,33.25263608,http://place.map.kakao.com/23609232
30,1054418012,르메인호텔 서귀포,호텔,제주특별자치도 서귀포시 안덕면 화순로 119,126.3335379,33.246247,http://place.map.kakao.com/1054418012
31,27116088,씨스테이호텔&스파,호텔,제주특별자치도 제주시 애월읍 애월해안로 255,126.3389917,33.46758227,http://place.map.kakao.com/27116088
32,1316216570,머큐어앰배서더 제주,특급호텔,제주특별자치도 서귀포시 안덕면 한창로 365,126.3487373,33.29365237,http://place.map.kakao.com/1316216570
33,1295712598,샐리스 제주,호텔,제주특별자치도 제주시 애월읍 고내로 46,126.341716,33.4646612,http://place.map.kakao.com/1295712598
34,26635911,리치호텔,호텔,제주특별자치도 제주시 애월읍 고내로13길 100,126.3489409,33.47207433,http://place.map.kakao.com/26635911
35,133156568,스탠포드호텔앤리조트 제주,호텔,제주특별자치도 제주시 애월읍 애월해안로 408,126.3527546,33.47192841,http://place.map.kakao.com/133156568
36,1211550418,다인오세아노호텔 루프탑ARA,특급호텔,제주특별자치도 제주시 애월읍 애월해안로 394,126.3504653,33.47250427,http://place.map.kakao.com/1211550418
37,18755393,탑스텐빌라드애월 제주,호텔,제주특별자치도 제주시 애월읍 애월해안로 516-7,126.3592315,33.47709749,http://place.map.kakao.com/18755393
38,85652945,호텔스카브로,호텔,제주특별자치도 서귀포시 예래해안로 15,126.3699316,33.23410163,http://place.map.kakao.com/85652945
39,18224608,라림부띠끄호텔,호텔,제주특별자치도 서귀포시 안덕면 대평로 39,126.3629781,33.23680264,http://place.map.kakao.com/18224608
40,26517493,베니키아호텔 제주,호텔,제주특별자치도 제주시 애월읍 애월해안로 554-6,126.3622293,33.47762686,http://place.map.kakao.com/26517493
41,201611100,애월비치호텔,호텔,제주특별자치도 제주시 애월읍 애월해안로 554-10,126.3628753,33.47727045,http://place.map.kakao.com/201611100
42,1970340396,씨클리프호텔제주,호텔,제주특별자치도 제주시 애월읍 애월해안로 554-8,126.3628424,33.47764805,http://place.map.kakao.com/1970340396
43,29939773,코쿤호텔 애월,호텔,제주특별자치도 제주시 애월읍 중엄3길 50,126.3716405,33.47798327,http://place.map.kakao.com/29939773
44,2013358824,그랜드메르호텔제주,호텔,제주특별자치도 서귀포시 논짓물로 45,126.386162,33.2396394,http://place.map.kakao.com/2013358824
45,12501795,포도호텔,호텔,제주특별자치도 서귀포시 안덕면 산록남로 863,126.3874568,33.31789883,http://place.map.kakao.com/12501795
46,24838363,루체빌,호텔,제주특별자치도 서귀포시 안덕면 산록남로 786,126.3851526,33.31983493,http://place.map.kakao.com/24838363
47,10503501,서귀포호텔,호텔,제주특별자치도 서귀포시 상예로 319,126.3947159,33.2731855,http://place.map.kakao.com/10503501
48,26919010,디아넥스호텔,호텔,제주특별자치도 서귀포시 안덕면 산록남로762번길 71,126.3926864,33.30306955,http://place.map.kakao.com/26919010
49,27280262,탐라스테이호텔제주,호텔,제주특별자치도 제주시 애월읍 애월해안로 881,126.3911929,33.4869669,http://place.map.kakao.com/27280262
50,23968892,호텔시드니,호텔,제주특별자치도 제주시 애월읍 애월해안로 945,126.3960532,33.48369808,http://place.map.kakao.com/23968892
51,7967458,제주신라호텔,특급호텔,제주특별자치도 서귀포시 중문관광로72번길 75,126.4080414,33.24743088,http://place.map.kakao.com/7967458
52,27184194,스위트호텔 제주점,호텔,제주특별자치도 서귀포시 중문관광로72번길 67,126.4084286,33.24904482,http://place.map.kakao.com/27184194
53,1633038054,파르나스호텔 제주,호텔,제주특별자치도 서귀포시 중문관광로72번길 100,126.4057632,33.24459343,http://place.map.kakao.com/1633038054
54,953071258,블룸호텔,호텔,제주특별자치도 서귀포시 중문관광로72번길 53,126.408113,33.2498692,http://place.map.kakao.com/953071258
55,1340230571,호텔더본 제주,호텔,제주특별자치도 서귀포시 색달로 18,126.4064734,33.25954119,http://place.map.kakao.com/1340230571
56,1220460107,히든클리프호텔&네이쳐,호텔,제주특별자치도 서귀포시 예래해안로 542,126.4025951,33.25477649,http://place.map.kakao.com/1220460107
57,2102809860,그랜드조선 제주,특급호텔,제주특별자치도 서귀포시 중문관광로72번길 60,126.4080049,33.25236438,http://place.map.kakao.com/2102809860
58,45570566,그랜드조선 힐 스위트,특급호텔,제주특별자치도 서귀포시 중문관광로72번길 60,126.4090526,33.25326918,http://place.map.kakao.com/45570566
59,1660831497,더스테이센추리호텔,호텔,제주특별자치도 제주시 애월읍 일주서로 7113,126.4089331,33.48484028,http://place.map.kakao.com/1660831497
60,7862728,롯데호텔 제주,특급호텔,제주특별자치도 서귀포시 중문관광로72번길 35,126.4106002,33.24845645,http://place.map.kakao.com/7862728
61,10594509,씨에스호텔앤리조트,호텔,제주특별자치도 서귀포시 중문관광로 196,126.4196617,33.24298655,http://place.map.kakao.com/10594509
62,24710774,아리아호텔,호텔,제주특별자치도 서귀포시 중문관광로 23-1,126.4155512,33.25587672,http://place.map.kakao.com/24710774
63,857640746,아루미호텔 중문,호텔,제주특별자치도 서귀포시 색달중앙로 38,126.4139705,33.2586066,http://place.map.kakao.com/857640746
64,2047342707,호텔더그랑 중문,호텔,제주특별자치도 서귀포시 색달중앙로 19,126.4131369,33.25743778,http://place.map.kakao.com/2047342707
65,26842343,제이뷰호텔,호텔,제주특별자치도 서귀포시 중산간서로 935,126.4164508,33.26470511,http://place.map.kakao.com/26842343
66,76689097,반얀트리카시아 제주(예정),호텔,,126.4129513,33.28325746,http://place.map.kakao.com/76689097
67,21549099,대아관광 르네상스제주호텔,호텔,제주특별자치도 제주시 애월읍 평화로 2477,126.4160915,33.43171455,http://place.map.kakao.com/21549099
68,23973217,제주아일래드호텔,호텔,제주특별자치도 제주시 애월읍 평화로 2477,126.4160915,33.43171455,http://place.map.kakao.com/23973217
69,17573500,제주부영호텔앤리조트,호텔,제주특별자치도 서귀포시 중문관광로 222,126.4231393,33.24249691,http://place.map.kakao.com/17573500
70,926565755,유어스호텔,호텔,제주특별자치도 서귀포시 천제연로178번길 21,126.4238154,33.24982754,http://place.map.kakao.com/926565755
71,455327301,호텔 스테이인터뷰 제주,호텔,제주특별자치도 서귀포시 중문관광로 288,126.4294832,33.24589103,http://place.map.kakao.com/455327301
72,26854361,베니키아중문호텔,호텔,제주특별자치도 서귀포시 천제연로 166,126.4223865,33.25189193,http://place.map.kakao.com/26854361
73,25677469,중문시티호텔,호텔,제주특별자치도 서귀포시 중문상로 27,126.4248163,33.25086272,http://place.map.kakao.com/25677469
74,255215375,해리안호텔,호텔,제주특별자치도 서귀포시 천제연로 153,126.4214004,33.25284938,http://place.map.kakao.com/255215375
75,1687488820,호텔제이힐,호텔,제주특별자치도 서귀포시 천제연로188번길 11,126.4247021,33.25075671,http://place.map.kakao.com/1687488820
76,25654998,예그린하우스,호텔,제주특별자치도 서귀포시 천제연로188번길 15,126.4245534,33.25052701,http://place.map.kakao.com/25654998
77,1383946076,바솔트호텔,호텔,제주특별자치도 서귀포시 일주서로 809,126.4237888,33.25862454,http://place.map.kakao.com/1383946076
78,19364611,엑스오,호텔,제주특별자치도 제주시 애월읍 광령평화2길 35,126.4300381,33.44059343,http://place.map.kakao.com/19364611
79,25741593,그라벨호텔제주,호텔,제주특별자치도 제주시 일주서로 7316,126.4287003,33.49240715,http://place.map.kakao.com/25741593
80,929178313,엘렌호텔,호텔,제주특별자치도 서귀포시 이어도로 152,126.4385209,33.23972808,http://place.map.kakao.com/929178313
81,1393422347,오션블루호텔,호텔,제주특별자치도 서귀포시 이어도로 67,126.4304108,33.23886532,http://place.map.kakao.com/1393422347
82,24030044,파밀리아호텔,호텔,제주특별자치도 서귀포시 대포동서로 63-20,126.438011,33.24094478,http://place.map.kakao.com/24030044
83,27316853,썬라이즈호텔 중문점,호텔,제주특별자치도 서귀포시 중문관광로 310,126.4305262,33.24754218,http://place.map.kakao.com/27316853
84,25575890,일레인호텔,호텔,제주특별자치도 서귀포시 일주서로 660,126.439031,33.25461078,http://place.map.kakao.com/25575890
85,8619771,WE호텔,호텔,제주특별자치도 서귀포시 1100로 453-95,126.4440806,33.2861974,http://place.map.kakao.com/8619771
86,21462506,한라관광호텔포시즌,호텔,제주특별자치도 서귀포시 1100로 453-95,126.4440766,33.28616132,http://place.map.kakao.com/21462506
87,23966560,힐타운호텔,호텔,제주특별자치도 제주시 애월읍 광령평화8길 47-7,126.4438446,33.44829443,http://place.map.kakao.com/23966560
88,136203229,캠퍼트리 호텔앤리조트,호텔,제주특별자치도 제주시 해안마을서4길 100,126.4488824,33.45302686,http://place.map.kakao.com/136203229
89,16352592,제주해군호텔,호텔,제주특별자치도 제주시 해안마을서2길 19,126.4486468,33.45898715,http://place.map.kakao.com/16352592
90,1246754253,오로라호텔,호텔,제주특별자치도 제주시 논세길 51,126.4423185,33.48944255,http://place.map.kakao.com/1246754253
91,2050325625,나이스호텔,호텔,제주특별자치도 제주시 논세길 96-38,126.4423718,33.48297299,http://place.map.kakao.com/2050325625
92,25136731,씨앤호텔,호텔,제주특별자치도 제주시 일주서로 7490,126.4470502,33.49359754,http://place.map.kakao.com/25136731
93,1025402180,이호MH호텔,호텔,제주특별자치도 제주시 현사길 33,126.4486494,33.49695678,http://place.map.kakao.com/1025402180
94,2062435690,라이프리버호텔,호텔,제주특별자치도 제주시 현사길 45,126.4473025,33.4972483,http://place.map.kakao.com/2062435690
95,1740038066,제주샹그릴라호텔앤리조트,호텔,제주특별자치도 제주시 해안마을북길 14-6,126.4538684,33.46441442,http://place.map.kakao.com/1740038066
96,27189960,호텔펄리,호텔,제주특별자치도 제주시 노형로 79,126.4547704,33.46431921,http://place.map.kakao.com/27189960
97,20298862,오션패밀리호텔,호텔,제주특별자치도 제주시 일주서로 7531,126.4508768,33.49527979,http://place.map.kakao.com/20298862
98,2126972223,오드리인호텔,호텔,제주특별자치도 제주시 서해안로 100,126.4601841,33.50305362,http://place.map.kakao.com/2126972223
99,27208640,호텔펄리플러스,호텔,제주특별자치도 제주시 도두봉2길 2,126.4699704,33.50542197,http://place.map.kakao.com/27208640
100,742590754,베드라디오 도두봉,호텔,제주특별자치도 제주시 서해안로 204,126.4698882,33.50655762,http://place.map.kakao.com/742590754
101,14559675,제주아일랜드,호텔,제주특별자치도 제주시 고사마루길 30,126.4714403,33.47766287,http://place.map.kakao.com/14559675
102,1806296595,레슬리호텔,호텔,제주특별자치도 제주시 광평길 3,126.4706143,33.48115391,http://place.map.kakao.com/1806296595
103,26851048,에스호텔,호텔,제주특별자치도 제주시 오일장중길 26,126.4713357,33.49541205,http://place.map.kakao.com/26851048
104,20805585,토스카나호텔,호텔,제주특별자치도 서귀포시 용흥로66번길 158-7,126.484409,33.26562309,http://place.map.kakao.com/20805585
105,1730860321,엠버퓨어힐 호텔&리조트,호텔,제주특별자치도 제주시 1100로 2671-30,126.487361,33.42501786,http://place.map.kakao.com/1730860321
106,196009555,썬랜드호텔,호텔,제주특별자치도 제주시 신광로 92,126.489607,33.48397082,http://place.map.kakao.com/196009555
107,20061270,라움호텔,호텔,제주특별자치도 제주시 신광로10길 1,126.489381,33.48361646,http://place.map.kakao.com/20061270
108,17164338,뉴아일랜드관광호텔,호텔,제주특별자치도 제주시 연동6길 17,126.4894377,33.48421535,http://place.map.kakao.com/17164338
109,1105959656,그랜드하얏트제주,특급호텔,제주특별자치도 제주시 노연로 12,126.4814115,33.4852423,http://place.map.kakao.com/1105959656
110,26621840,베스트웨스턴 제주호텔,호텔,제주특별자치도 제주시 도령로 27,126.4818458,33.48782988,http://place.map.kakao.com/26621840
111,26406591,호텔위드제주,호텔,제주특별자치도 제주시 노연로 34,126.4837967,33.48582026,http://place.map.kakao.com/26406591
112,1525669923,위드스테이호텔,호텔,제주특별자치도 제주시 노연로 34,126.4837648,33.48575702,http://place.map.kakao.com/1525669923
113,8297922,뉴제주호텔,호텔,제주특별자치도 제주시 원노형6길 2,126.4826851,33.48565514,http://place.map.kakao.com/8297922
114,209126929,엠버씨티호텔,호텔,제주특별자치도 제주시 노연로 13,126.4816698,33.48631808,http://place.map.kakao.com/209126929
115,1696885296,위드시티호텔,호텔,제주특별자치도 제주시 노연로 34,126.4837967,33.48582026,http://place.map.kakao.com/1696885296
116,26777549,엠버호텔 센트럴,호텔,제주특별자치도 제주시 노연로 24,126.4826582,33.48583535,http://place.map.kakao.com/26777549
117,10033831,포시즌호텔,호텔,제주특별자치도 제주시 원노형3길 19,126.4839588,33.48642861,http://place.map.kakao.com/10033831
118,16671446,위너스호텔,호텔,제주특별자치도 제주시 원노형3길 29,126.4828587,33.48649435,http://place.map.kakao.com/16671446
119,23966998,와싱톤호텔,호텔,제주특별자치도 제주시 도령로 25,126.4815984,33.48745379,http://place.map.kakao.com/23966998
120,8067669,메종글래드제주,특급호텔,제주특별자치도 제주시 노연로 80,126.4885292,33.48521147,http://place.map.kakao.com/8067669
121,25767159,호텔레오,특급호텔,제주특별자치도 제주시 삼무로 14,126.4882455,33.48971285,http://place.map.kakao.com/25767159
122,24222779,엠버호텔 제주,호텔,제주특별자치도 제주시 삼무로 12,126.4878128,33.48974803,http://place.map.kakao.com/24222779
123,1889199424,아시아호텔,호텔,제주특별자치도 제주시 노연로 53,126.4858599,33.48627062,http://place.map.kakao.com/1889199424
124,25647980,제주센트럴시티호텔,호텔,제주특별자치도 제주시 노연로 66,126.4871217,33.48577095,http://place.map.kakao.com/25647980
125,1653062403,어반스테이 제주연동,호텔,제주특별자치도 제주시 연동6길 5,126.4894474,33.48551008,http://place.map.kakao.com/1653062403
126,25660819,해마호텔,호텔,제주특별자치도 제주시 삼무로 28,126.4895519,33.48970472,http://place.map.kakao.com/25660819
127,23965831,세종호텔,호텔,제주특별자치도 제주시 신광로 74,126.4897102,33.48546067,http://place.map.kakao.com/23965831
128,7861421,뉴맨하탄관광호텔,호텔,제주특별자치도 제주시 도령로 66,126.4855947,33.48927362,http://place.map.kakao.com/7861421
129,26324072,케이관광호텔,호텔,제주특별자치도 제주시 연동3길 10,126.4879202,33.48904072,http://place.map.kakao.com/26324072
130,1916099616,금호훼밀리호텔,호텔,제주특별자치도 제주시 제원1길 9,126.4883495,33.48923814,http://place.map.kakao.com/1916099616
131,634452255,힐스테이트제주,호텔,제주특별자치도 제주시 연동6길 5,126.4894377,33.48551455,http://place.map.kakao.com/634452255
132,10133183,국제호텔,호텔,제주특별자치도 제주시 연동1길 8,126.4865416,33.48926673,http://place.map.kakao.com/10133183
133,25622042,귀빈호텔,호텔,제주특별자치도 제주시 제원1길 20,126.4873578,33.48954059,http://place.map.kakao.com/25622042
134,23183577,롯데시티호텔 제주,특급호텔,제주특별자치도 제주시 도령로 83,126.4864772,33.49069458,http://place.map.kakao.com/23183577
135,10424829,삼해인관광호텔,호텔,제주특별자치도 제주시 도령로 108,126.4893995,33.49128278,http://place.map.kakao.com/10424829
136,19229728,호텔제이엠,호텔,제주특별자치도 제주시 삼무로1길 10-7,126.4887601,33.49040109,http://place.map.kakao.com/19229728
137,49899759,위플스테이,호텔,제주특별자치도 제주시 도령로 102,126.4887417,33.49097983,http://place.map.kakao.com/49899759
138,8218953,뉴월드호텔,호텔,제주특별자치도 제주시 도령로 96,126.4883666,33.49071682,http://place.map.kakao.com/8218953
139,10367959,디셈버호텔,호텔,제주특별자치도 제주시 삼무로1길 15,126.4896472,33.4903218,http://place.map.kakao.com/10367959
140,1231324174,퓨어스테이오션,호텔,제주특별자치도 제주시 서해안로 346-9,126.4819658,33.50959116,http://place.map.kakao.com/1231324174
141,1925398663,퓨어스테이,호텔,제주특별자치도 제주시 서해안로 346-14,126.4812456,33.5094493,http://place.map.kakao.com/1925398663
142,2025257355,팜파스호텔 제주,호텔,제주특별자치도 제주시 서해안로 368-3,126.4849893,33.51155661,http://place.map.kakao.com/2025257355
143,955688322,몽듀호텔,호텔,제주특별자치도 제주시 서해안로 382,126.4845403,33.51267451,http://place.map.kakao.com/955688322
144,1676720234,메르블루호텔,호텔,제주특별자치도 제주시 서해안로 368,126.4841728,33.51130257,http://place.map.kakao.com/1676720234
145,853726165,글래즈하임호텔,호텔,제주특별자치도 서귀포시 이어도로 777,126.4979881,33.23668956,http://place.map.kakao.com/853726165
146,798185690,호텔리안,호텔,제주특별자치도 서귀포시 이어도로 777,126.4979541,33.23662811,http://place.map.kakao.com/798185690
147,25078479,아이진호텔,호텔,제주특별자치도 제주시 신대로22길 4,126.4947978,33.48241971,http://place.map.kakao.com/25078479
148,9400343,펄호텔 제주,호텔,제주특별자치도 제주시 신대로20길 49,126.4909527,33.48347146,http://place.map.kakao.com/9400343
149,26922571,호텔더원,호텔,제주특별자치도 제주시 사장3길 33,126.4912496,33.4827496,http://place.map.kakao.com/26922571
150,16928851,노블레스호텔,호텔,제주특별자치도 제주시 연동8길 31,126.4907574,33.48302707,http://place.map.kakao.com/16928851
151,1954367611,선스테이호텔,호텔,제주특별자치도 제주시 신광로 93,126.4901251,33.48369526,http://place.map.kakao.com/1954367611
152,8622554,메이저호텔,호텔,제주특별자치도 제주시 사장3길 36,126.4910457,33.48303547,http://place.map.kakao.com/8622554
153,8222100,뉴크라운호텔,호텔,제주특별자치도 제주시 신광로 87,126.49026,33.48418267,http://place.map.kakao.com/8222100
154,8598773,한림호텔,호텔,제주특별자치도 제주시 연동10길 20,126.4916936,33.4840948,http://place.map.kakao.com/8598773
155,14561156,진호캐스텔,호텔,제주특별자치도 제주시 사장길 37,126.4949818,33.48260438,http://place.map.kakao.com/14561156
156,8083961,제주코아호텔,호텔,제주특별자치도 제주시 신대로 148,126.4960323,33.48402596,http://place.map.kakao.com/8083961
157,16881735,씨티호텔,호텔,제주특별자치도 제주시 신대로 170,126.495103,33.48248226,http://place.map.kakao.com/16881735
158,26485988,신라스테이 제주,호텔,제주특별자치도 제주시 노연로 100,126.4909019,33.4855377,http://place.map.kakao.com/26485988
159,1530398349,호텔에어시티제주,호텔,제주특별자치도 제주시 삼무로 56,126.4924944,33.48958247,http://place.map.kakao.com/1530398349
160,1756804594,호텔스카이파크 제주1호점,호텔,제주특별자치도 제주시 삼무로 48,126.491735,33.48953968,http://place.map.kakao.com/1756804594
161,353278880,하이레지던스,호텔,제주특별자치도 제주시 은남1길 46,126.4909738,33.48944009,http://place.map.kakao.com/353278880
162,259448322,호텔앨리스&트렁크,호텔,제주특별자치도 제주시 연동12길 4,126.4930152,33.48534351,http://place.map.kakao.com/259448322
163,27469794,호텔컬리넌 제주,호텔,제주특별자치도 제주시 사장1길 26,126.4928514,33.4853762,http://place.map.kakao.com/27469794
164,511288043,호텔통 연동점,호텔,제주특별자치도 제주시 사장1길 28,126.4926674,33.48538987,http://place.map.kakao.com/511288043
165,8939402,뜨레비호텔,호텔,제주특별자치도 제주시 연동7길 8,126.4905663,33.48919318,http://place.map.kakao.com/8939402
166,7856594,제주로얄호텔,호텔,제주특별자치도 제주시 신대로12길 45,126.4916977,33.4885595,http://place.map.kakao.com/7856594
167,1050775187,인덱스 제이드림호텔,호텔,제주특별자치도 제주시 은남1길 40,126.4915466,33.48936671,http://place.map.kakao.com/1050775187
168,251296123,호텔B,호텔,제주특별자치도 제주시 신대로12길 16,126.4949147,33.48878453,http://place.map.kakao.com/251296123
169,1226251698,호텔메이저2,호텔,제주특별자치도 제주시 은남4길 40,126.4915244,33.48654643,http://place.map.kakao.com/1226251698
170,17346832,호텔W 신제주점,호텔,제주특별자치도 제주시 은남4길 42,126.491292,33.48654548,http://place.map.kakao.com/17346832
171,25978802,에이원호텔,호텔,제주특별자치도 제주시 사장1길 10,126.4947594,33.48532268,http://place.map.kakao.com/25978802
172,21750786,레브호텔,호텔,제주특별자치도 제주시 은남1길 15,126.494148,33.48907802,http://place.map.kakao.com/21750786
173,26574400,제니아호텔,호텔,제주특별자치도 제주시 은남1길 25,126.4930933,33.48911338,http://place.map.kakao.com/26574400
174,18438884,Atnoon호텔,호텔,제주특별자치도 제주시 은남1길 8,126.4949986,33.48935197,http://place.map.kakao.com/18438884
175,8306889,다이아몬드호텔,호텔,제주특별자치도 제주시 신대로12길 42,126.4922346,33.48892324,http://place.map.kakao.com/8306889
176,18567288,탐라지오호텔,호텔,제주특별자치도 제주시 신광로 79,126.4901733,33.485019,http://place.map.kakao.com/18567288
177,10275414,뉴신라호텔,호텔,제주특별자치도 제주시 신대로12길 40,126.4924509,33.48893044,http://place.map.kakao.com/10275414
178,25815599,호텔엘린,호텔,제주특별자치도 제주시 은남1길 4,126.4954378,33.48932491,http://place.map.kakao.com/25815599
179,1777793812,호텔시리우스,호텔,제주특별자치도 제주시 도령로 133,126.4910162,33.49340276,http://place.map.kakao.com/1777793812
180,1082324144,글로스터호텔 제주,호텔,제주특별자치도 제주시 삼무로 57,126.4926163,33.49008515,http://place.map.kakao.com/1082324144
181,27129103,제주썬호텔&카지노,호텔,제주특별자치도 제주시 삼무로 67,126.4938965,33.49012645,http://place.map.kakao.com/27129103
182,1705243950,벤티모호텔앤레지던스,호텔,제주특별자치도 제주시 연삼로 14,126.4937439,33.49342926,http://place.map.kakao.com/1705243950
183,2106593561,신신호텔 제주공항점,호텔,제주특별자치도 제주시 도령로 124,126.4905207,33.49221242,http://place.map.kakao.com/2106593561
184,24858644,이화호텔,호텔,제주특별자치도 제주시 도령로 155,126.4921964,33.49474105,http://place.map.kakao.com/24858644
185,1354215953,갤러리호텔비앤비,호텔,제주특별자치도 제주시 삼무로3길 48,126.4907433,33.49057875,http://place.map.kakao.com/1354215953
186,11334932,파크사이드호텔,호텔,제주특별자치도 제주시 도령로 126,126.4907918,33.49240558,http://place.map.kakao.com/11334932
187,1750036595,퓨어스테이,호텔,제주특별자치도 제주시 신대로 68,126.4963642,33.49136988,http://place.map.kakao.com/1750036595
188,1750036595,퓨어스테이,호텔,제주특별자치도 제주시 신대로 68,126.4963642,33.49136988,http://place.map.kakao.com/1750036595
189,8085808,제주스위트호텔,호텔,제주특별자치도 제주시 삼무로3길 9,126.4948906,33.49015575,http://place.map.kakao.com/8085808
190,241470328,제이그랜드호텔,호텔,제주특별자치도 제주시 삼무로 57,126.4926527,33.49011415,http://place.map.kakao.com/241470328
191,10732565,전원호텔,호텔,제주특별자치도 제주시 삼무로11길 38,126.4956998,33.49015544,http://place.map.kakao.com/10732565
192,878003934,해호텔,호텔,제주특별자치도 제주시 서해안로 526,126.4952233,33.51959582,http://place.map.kakao.com/878003934
193,207515165,더그랜드섬오름,호텔,제주특별자치도 서귀포시 막숙포로 118,126.5096764,33.23284565,http://place.map.kakao.com/207515165
194,221546969,스위트메이서귀포호텔,호텔,제주특별자치도 서귀포시 김정문화로27번길 9-1,126.5075472,33.25248102,http://place.map.kakao.com/221546969
195,22646362,빠레브호텔,호텔,제주특별자치도 서귀포시 김정문화로 15,126.5066265,33.25229073,http://place.map.kakao.com/22646362
196,1749664013,윈스카이호텔,호텔,제주특별자치도 서귀포시 신중남로 17,126.5084784,33.25309691,http://place.map.kakao.com/1749664013
197,137464688,브릿지레지던스호텔,호텔,제주특별자치도 서귀포시 김정문화로 49,126.5100004,33.25150974,http://place.map.kakao.com/137464688
198,27224641,비스타케이호텔 월드컵,호텔,제주특별자치도 서귀포시 김정문화로41번길 10-6,126.5098017,33.25191288,http://place.map.kakao.com/27224641
199,459588496,제주웨스턴그레이스 강정점,호텔,제주특별자치도 서귀포시 김정문화로27번길 9-7,126.5069325,33.25264448,http://place.map.kakao.com/459588496
200,24384252,호텔캘리포니아,호텔,제주특별자치도 서귀포시 김정문화로27번길 14-4,126.5083776,33.25289184,http://place.map.kakao.com/24384252
201,398458378,호텔퍼블리코,호텔,제주특별자치도 서귀포시 신서로48번길 20-9,126.5071024,33.25296253,http://place.map.kakao.com/398458378
202,25004568,라관광호텔,호텔,제주특별자치도 제주시 연북로 217,126.5048194,33.48196969,http://place.map.kakao.com/25004568
203,1199603041,제주노블레스관광호텔,호텔,제주특별자치도 제주시 월성로4길 19,126.5034576,33.50115012,http://place.map.kakao.com/1199603041
204,27101305,펠리시아호텔,호텔,제주특별자치도 서귀포시 일주동로 9123,126.517925,33.24724175,http://place.map.kakao.com/27101305
205,1971607879,타마라 제주,호텔,제주특별자치도 서귀포시 김정문화로41번길 10-8,126.5101219,33.25184562,http://place.map.kakao.com/1971607879
206,878897990,신신호텔 제주월드컵,호텔,제주특별자치도 서귀포시 서호중로 55,126.5192582,33.25440583,http://place.map.kakao.com/878897990
207,103391106,그랜드밀리언스호텔 서귀포,호텔,제주특별자치도 서귀포시 서호중앙로 84,126.5200182,33.25455663,http://place.map.kakao.com/103391106
208,1784157708,제주푸른호텔,호텔,제주특별자치도 서귀포시 서호중로 47,126.5183288,33.25460691,http://place.map.kakao.com/1784157708
209,1207206178,서귀포힐즈호텔,호텔,제주특별자치도 서귀포시 신서로48번길 50,126.5101677,33.25287276,http://place.map.kakao.com/1207206178
210,1925642923,더스테이호텔,호텔,제주특별자치도 서귀포시 신서로48번길 52-7,126.510531,33.2523846,http://place.map.kakao.com/1925642923
211,26603613,제주갤럭시호텔,호텔,제주특별자치도 제주시 남성로 33,126.5125679,33.50315718,http://place.map.kakao.com/26603613
212,764103997,참피온호텔,호텔,제주특별자치도 제주시 남성로 131,126.5194041,33.50914971,http://place.map.kakao.com/764103997
213,8344108,르네상스호텔,호텔,제주특별자치도 제주시 서사로14길 1,126.5194316,33.50340488,http://place.map.kakao.com/8344108
214,1915623105,찰리호텔,호텔,제주특별자치도 제주시 서사로 128,126.5196087,33.50095053,http://place.map.kakao.com/1915623105
215,1309923582,영승국제상무 찰리호텔,호텔,제주특별자치도 제주시 서사로 128,126.5195797,33.50094681,http://place.map.kakao.com/1309923582
216,15292731,라마다프라자 제주호텔,특급호텔,제주특별자치도 제주시 탑동로 66,126.5178794,33.51878088,http://place.map.kakao.com/15292731
217,10809103,제주오리엔탈호텔,특급호텔,제주특별자치도 제주시 탑동로 47,126.5197977,33.51758741,http://place.map.kakao.com/10809103
218,10806785,제주퍼시픽호텔,호텔,제주특별자치도 제주시 서사로 20,126.5191667,33.5106301,http://place.map.kakao.com/10806785
219,8777608,금자탑,호텔,제주특별자치도 제주시 서사로 20,126.5192291,33.51063215,http://place.map.kakao.com/8777608
220,223185023,이스턴호텔 제주,호텔,제주특별자치도 서귀포시 서호중로 65,126.5200707,33.2543693,http://place.map.kakao.com/223185023
221,27401069,스카이힐비지니스호텔,호텔,제주특별자치도 제주시 서광로24길 1,126.5232846,33.49943653,http://place.map.kakao.com/27401069
222,20855905,올레관광호텔,호텔,제주특별자치도 제주시 서광로 254,126.523625,33.49955595,http://place.map.kakao.com/20855905
223,23573833,씨앤제이관광호텔,호텔,제주특별자치도 제주시 광양8길 24,126.5270759,33.49981079,http://place.map.kakao.com/23573833
224,25782496,아스타호텔,호텔,제주특별자치도 제주시 서사로 129,126.5202517,33.50085565,http://place.map.kakao.com/25782496
225,24186488,사하라호텔,호텔,제주특별자치도 제주시 서광로 265,126.5247447,33.50026349,http://place.map.kakao.com/24186488
226,25021636,하니크라운호텔,호텔,제주특별자치도 제주시 삼성로 10,126.527586,33.50497345,http://place.map.kakao.com/25021636
227,2006616547,제주슬림호텔,호텔,제주특별자치도 제주시 서광로 292-1,126.5277324,33.50019918,http://place.map.kakao.com/2006616547
228,23149337,스카이호텔,호텔,제주특별자치도 제주시 서광로29길 3,126.5265201,33.50069494,http://place.map.kakao.com/23149337
229,23149337,스카이호텔,호텔,제주특별자치도 제주시 서광로29길 3,126.5265201,33.50069494,http://place.map.kakao.com/23149337
230,17991994,하니호텔 대연회장,호텔,제주특별자치도 제주시 삼성로 10,126.5269236,33.50486273,http://place.map.kakao.com/17991994
231,1218668479,아라팰리스호텔,호텔,제주특별자치도 제주시 남성로26길 26,126.5237337,33.50721989,http://place.map.kakao.com/1218668479
232,8164322,스타즈호텔 제주로베로,호텔,제주특별자치도 제주시 관덕로 26,126.5219463,33.51285697,http://place.map.kakao.com/8164322
233,1718120041,제주스테이호텔,호텔,제주특별자치도 제주시 무근성7길 22,126.5205641,33.51445105,http://place.map.kakao.com/1718120041
234,16000032,에메랄드호텔,호텔,제주특별자치도 제주시 중앙로12길 35,126.5211674,33.51201368,http://place.map.kakao.com/16000032
235,16672670,신화,특급호텔,제주특별자치도 제주시 무근성7길 12-1,126.5202743,33.5139252,http://place.map.kakao.com/16672670
236,1653542956,호텔아나타,호텔,제주특별자치도 제주시 만덕로6길 31,126.5286754,33.5136437,http://place.map.kakao.com/1653542956
237,23966650,오션스위츠 제주호텔,특급호텔,제주특별자치도 제주시 탑동해안로 74,126.5230927,33.51813749,http://place.map.kakao.com/23966650
238,8064798,제주팔레스호텔,호텔,제주특별자치도 제주시 탑동로 9,126.5236809,33.5168631,http://place.map.kakao.com/8064798
239,1492721934,제주담스테이,호텔,제주특별자치도 제주시 중앙로2길 35-1,126.5210401,33.51734879,http://place.map.kakao.com/1492721934
240,1771787813,디앤디파트먼트 제주 d room,호텔,제주특별자치도 제주시 탑동로2길 3,126.5231896,33.51773485,http://place.map.kakao.com/1771787813
241,19923396,천마비지니스호텔,호텔,제주특별자치도 제주시 중앙로 20,126.5246037,33.51659978,http://place.map.kakao.com/19923396
242,7982455,씨사이드관광호텔,호텔,제주특별자치도 제주시 중앙로 20,126.5245431,33.51666085,http://place.map.kakao.com/7982455
243,27386976,호텔리젠트마린,호텔,제주특별자치도 제주시 서부두2길 20,126.5267519,33.51741943,http://place.map.kakao.com/27386976
244,396315142,휘슬락호텔,호텔,제주특별자치도 제주시 서부두2길 26,126.5275035,33.51737903,http://place.map.kakao.com/396315142
245,1887659694,호텔더블유 탑동점,호텔,제주특별자치도 제주시 임항로 24,126.5272144,33.51629962,http://place.map.kakao.com/1887659694
246,8511487,탑동호텔,호텔,제주특별자치도 제주시 서부두남길 19,126.5273501,33.51589082,http://place.map.kakao.com/8511487
247,26598426,라마다제주시티호텔,호텔,제주특별자치도 제주시 중앙로 304,126.5342941,33.49350354,http://place.map.kakao.com/26598426
248,1336826885,헤르츠호텔,호텔,제주특별자치도 제주시 중앙로 252,126.5311311,33.49737387,http://place.map.kakao.com/1336826885
249,432316222,디아이에이치에이엠씨,호텔,제주특별자치도 제주시 중앙로 304,126.5343498,33.49353801,http://place.map.kakao.com/432316222
250,2141992071,호텔샬롬제주,호텔,제주특별자치도 제주시 동광로 34,126.5325806,33.50199009,http://place.map.kakao.com/2141992071
251,26989616,애플호텔,호텔,제주특별자치도 제주시 동광로 45,126.5335499,33.503045,http://place.map.kakao.com/26989616
252,14560656,동경호텔,호텔,제주특별자치도 제주시 삼성로 63,126.5319264,33.50796518,http://place.map.kakao.com/14560656
253,14559744,골프피아,호텔,제주특별자치도 제주시 고마로14길 16,126.5394238,33.50588716,http://place.map.kakao.com/14559744
254,369977844,심스호텔,호텔,제주특별자치도 제주시 임항로 249,126.5395349,33.51781202,http://place.map.kakao.com/369977844
255,27281938,하버호텔,호텔,제주특별자치도 제주시 임항로 260,126.5382676,33.51769009,http://place.map.kakao.com/27281938
256,9473326,크로바호텔,호텔,제주특별자치도 제주시 동문로 119,126.5393881,33.51424658,http://place.map.kakao.com/9473326
257,97355052,호텔난타,호텔,제주특별자치도 제주시 선돌목동길 56-26,126.5479108,33.44582699,http://place.map.kakao.com/97355052
258,25621432,천하장호텔,호텔,제주특별자치도 제주시 동광로 165,126.5430144,33.50990713,http://place.map.kakao.com/25621432
259,8110930,크라운호텔,호텔,제주특별자치도 제주시 동문로 138,126.5411677,33.51314964,http://place.map.kakao.com/8110930
260,25636374,파크선샤인제주,호텔,제주특별자치도 서귀포시 남성중로 135,126.5533118,33.24343916,http://place.map.kakao.com/25636374
261,1580578863,호텔윈스토리,호텔,제주특별자치도 서귀포시 중정로 11,126.5575481,33.24768836,http://place.map.kakao.com/1580578863
262,848156554,까사로마호텔,호텔,제주특별자치도 서귀포시 태평로 347,126.5581148,33.24681399,http://place.map.kakao.com/848156554
263,786558512,신신호텔 천지연,호텔,제주특별자치도 서귀포시 서문로 42-1,126.5575262,33.24948072,http://place.map.kakao.com/786558512
264,1439697145,호텔징크,호텔,제주특별자치도 서귀포시 중정로 11,126.5575566,33.24770281,http://place.map.kakao.com/1439697145
265,1120697603,FK알레그리아호텔,호텔,제주특별자치도 서귀포시 중앙로47번길 25,126.5589384,33.24818378,http://place.map.kakao.com/1120697603
266,27316725,서귀포풍경호텔,호텔,제주특별자치도 서귀포시 남성중로 147,126.5534755,33.24481113,http://place.map.kakao.com/27316725
267,18854409,오렌지호텔,호텔,제주특별자치도 서귀포시 태평로335번길 3,126.557366,33.2471864,http://place.map.kakao.com/18854409
268,81758333,호텔더그랑 서귀포,호텔,제주특별자치도 서귀포시 중정로 16,126.5581378,33.24734243,http://place.map.kakao.com/81758333
269,497977386,호텔에이치아이,호텔,제주특별자치도 서귀포시 중앙로47번길 25,126.5589278,33.24815489,http://place.map.kakao.com/497977386
270,1681935166,풍경호스텔,호텔,제주특별자치도 서귀포시 남성로 117,126.5528893,33.24234216,http://place.map.kakao.com/1681935166
271,16672118,은하호텔,호텔,제주특별자치도 서귀포시 중앙로47번길 40,126.557574,33.24849631,http://place.map.kakao.com/16672118
272,696982759,느몽,호텔,제주특별자치도 서귀포시 중정로5번길 15,126.5578039,33.24866573,http://place.map.kakao.com/696982759
273,27234129,호텔휴식 서귀포,호텔,제주특별자치도 서귀포시 중앙로71번길 17,126.5595004,33.25038215,http://place.map.kakao.com/27234129
274,27437953,스와브호텔,호텔,제주특별자치도 서귀포시 서홍로 102,126.5532077,33.25714716,http://place.map.kakao.com/27437953
275,26888968,BK호텔제주,호텔,제주특별자치도 서귀포시 칠십리로91번길 12,126.5642037,33.24109028,http://place.map.kakao.com/26888968
276,26486737,나인부띠끄호텔,호텔,제주특별자치도 서귀포시 솔동산로10번길 23,126.5626372,33.24258419,http://place.map.kakao.com/26486737
277,1562467866,피노호텔,호텔,제주특별자치도 서귀포시 천지연로29번길 5,126.5633095,33.2413937,http://place.map.kakao.com/1562467866
278,17595377,파인힐호텔,호텔,제주특별자치도 서귀포시 부두로 44,126.5643517,33.24132342,http://place.map.kakao.com/17595377
279,26810174,천지연호텔,호텔,제주특별자치도 서귀포시 솔동산로 40,126.5624316,33.24186307,http://place.map.kakao.com/26810174
280,259977648,솔동산스테이,호텔,제주특별자치도 서귀포시 솔동산로10번길 45,126.5625773,33.24083031,http://place.map.kakao.com/259977648
281,26521295,호텔화인 제주,호텔,제주특별자치도 서귀포시 칠십리로 87,126.5650436,33.24048913,http://place.map.kakao.com/26521295
282,25982374,엠스테이호텔 제주,호텔,제주특별자치도 서귀포시 태평로353번길 14,126.5607328,33.24685211,http://place.map.kakao.com/25982374
283,1431146744,제주호텔더엠,호텔,제주특별자치도 서귀포시 태평로353번길 14,126.5609459,33.2469286,http://place.map.kakao.com/1431146744
284,27462000,제주오션팰리스,호텔,제주특별자치도 서귀포시 중앙로 14,126.5623329,33.24594711,http://place.map.kakao.com/27462000
285,1262889468,더호텔,특급호텔,제주특별자치도 서귀포시 명동로 11,126.5631984,33.24732243,http://place.map.kakao.com/1262889468
286,9473549,추풍령호텔,호텔,제주특별자치도 서귀포시 중앙로59번길 12,126.5603139,33.24993421,http://place.map.kakao.com/9473549
287,1172176205,빨간모자달팽이,호텔,제주특별자치도 서귀포시 중앙로4번길 15,126.5634922,33.24543815,http://place.map.kakao.com/1172176205
288,2121670383,호텔브릿지 서귀포,호텔,제주특별자치도 서귀포시 태평로 436,126.5666241,33.24548788,http://place.map.kakao.com/2121670383
289,406670669,퍼스트70호텔,호텔,제주특별자치도 서귀포시 명동로 46,126.5668407,33.24725583,http://place.map.kakao.com/406670669
290,1786235947,제주디아일랜드블루호텔,호텔,제주특별자치도 서귀포시 태평로431번길 3,126.5657683,33.24582391,http://place.map.kakao.com/1786235947
291,2051633200,노블피아,호텔,제주특별자치도 서귀포시 명동로 46,126.5668556,33.24728113,http://place.map.kakao.com/2051633200
292,825865438,호텔골든데이지 서귀포오션,호텔,제주특별자치도 서귀포시 동홍로 7,126.5674527,33.24934704,http://place.map.kakao.com/825865438
293,2144868533,런호텔,호텔,제주특별자치도 서귀포시 태평로431번길 20,126.5661461,33.24710554,http://place.map.kakao.com/2144868533
294,1904200568,코너스톤호텔,호텔,제주특별자치도 서귀포시 정방로 7-10,126.5683775,33.24764436,http://place.map.kakao.com/1904200568
295,17522070,굿인호텔,호텔,제주특별자치도 서귀포시 태평로439번길 14,126.5657636,33.24677601,http://place.map.kakao.com/17522070
296,1244283964,호텔 케니 서귀포,호텔,제주특별자치도 서귀포시 동문로 42,126.5649832,33.25008407,http://place.map.kakao.com/1244283964
297,1789281222,호텔버지니아,호텔,제주특별자치도 서귀포시 중정로61번길 31,126.5623655,33.25060505,http://place.map.kakao.com/1789281222
298,26772683,제주한옥호텔 한라궁,호텔,제주특별자치도 서귀포시 정방연로 6,126.5782457,33.24845993,http://place.map.kakao.com/26772683
299,10500084,서귀포KAL호텔,특급호텔,제주특별자치도 서귀포시 칠십리로 242,126.5817618,33.24648461,http://place.map.kakao.com/10500084
300,25623506,우리들골프텔,호텔,제주특별자치도 서귀포시 산록남로 2917,126.5871586,33.31183094,http://place.map.kakao.com/25623506
301,1617458355,블랙샌즈호텔,호텔,제주특별자치도 제주시 선사로 8,126.5873387,33.52192045,http://place.map.kakao.com/1617458355
302,1158272994,호텔서귀피안,호텔,제주특별자치도 서귀포시 보목로64번길 178,126.5905403,33.24441482,http://place.map.kakao.com/1158272994
303,271273920,호텔 서귀피안,호텔,제주특별자치도 서귀포시 보목로64번길 178,126.5904822,33.24444889,http://place.map.kakao.com/271273920
304,1112536839,제이앤비,호텔,제주특별자치도 서귀포시 토평남로30번길 10-8,126.5926418,33.26072502,http://place.map.kakao.com/1112536839
305,804210846,씨앤하우스,호텔,제주특별자치도 제주시 조천읍 조천9길 10,126.6368124,33.53684529,http://place.map.kakao.com/804210846
306,27470228,코업시티호텔 하버뷰,호텔,제주특별자치도 서귀포시 남원읍 태위로 108,126.6589587,33.27455636,http://place.map.kakao.com/27470228
307,305310523,라마다바이윈덤 제주더함덕호텔,특급호텔,제주특별자치도 제주시 조천읍 신북로 470,126.6598172,33.54324701,http://place.map.kakao.com/305310523
308,1761672158,호텔스위트캐슬,호텔,제주특별자치도 제주시 조천읍 신북로 443,126.6569041,33.54420729,http://place.map.kakao.com/1761672158
309,740192410,유탑유블레스호텔 제주,호텔,제주특별자치도 제주시 조천읍 조함해안로 502,126.6662784,33.54241169,http://place.map.kakao.com/740192410
310,567379794,아이미제주비치호텔,호텔,제주특별자치도 제주시 조천읍 조함해안로 474,126.6634196,33.54329472,http://place.map.kakao.com/567379794
311,69588241,에벤에셀호텔,호텔,제주특별자치도 제주시 조천읍 조함해안로 504,126.6669896,33.5422405,http://place.map.kakao.com/69588241
312,302382839,제주서우봉비치호텔,호텔,제주특별자치도 제주시 조천읍 함덕6길 10,126.6603898,33.54273828,http://place.map.kakao.com/302382839
313,19575539,오션그랜드,호텔,제주특별자치도 제주시 조천읍 조함해안로 490,126.6651711,33.5425241,http://place.map.kakao.com/19575539
314,552641953,함덕비치스테이제주,호텔,제주특별자치도 제주시 조천읍 조함해안로 474,126.6633615,33.54327834,http://place.map.kakao.com/552641953
315,1691208426,아트스테이함덕비치,호텔,제주특별자치도 제주시 조천읍 조함해안로 504,126.6668132,33.54249788,http://place.map.kakao.com/1691208426
316,8840804,비치스토리호텔,호텔,제주특별자치도 제주시 조천읍 조함해안로 492-5,126.665401,33.54210639,http://place.map.kakao.com/8840804
317,1109989552,제주비치호텔W,호텔,제주특별자치도 제주시 조천읍 조함해안로 474,126.6633851,33.54330725,http://place.map.kakao.com/1109989552
318,2048499712,세인트비치호텔,호텔,제주특별자치도 제주시 조천읍 조함해안로 504,126.6668642,33.54239523,http://place.map.kakao.com/2048499712
319,506816387,i마이다스레지던스호텔,호텔,제주특별자치도 제주시 조천읍 함덕8길 13-1,126.6626234,33.54204836,http://place.map.kakao.com/506816387
320,23966002,흥진비치호텔,호텔,제주특별자치도 제주시 조천읍 함덕7길 4,126.6609147,33.54396589,http://place.map.kakao.com/23966002
321,947683137,에코랜드호텔,호텔,제주특별자치도 제주시 조천읍 남조로 1982,126.6723937,33.45104915,http://place.map.kakao.com/947683137
322,24248707,파크비치호텔,호텔,제주특별자치도 제주시 조천읍 북촌1길 56,126.6845877,33.5491531,http://place.map.kakao.com/24248707
323,26073432,메이더호텔,호텔,제주특별자치도 제주시 구좌읍 일주동로 1626,126.7065743,33.55198226,http://place.map.kakao.com/26073432
324,14558919,부영CC관광호텔,호텔,제주특별자치도 서귀포시 남원읍 남조로 960,126.7124273,33.35923074,http://place.map.kakao.com/14558919
325,25021635,꼬뜨도르호텔,호텔,제주특별자치도 제주시 구좌읍 일주동로 1724,126.7166801,33.55197244,http://place.map.kakao.com/25021635
326,2085296581,에벤에셀,호텔,제주특별자치도 서귀포시 표선면 성읍이리로 96-31,126.7778043,33.40938404,http://place.map.kakao.com/2085296581
327,341068739,카세로지,호텔,제주특별자치도 서귀포시 표선면 가시로 383,126.7863879,33.34500092,http://place.map.kakao.com/341068739
328,23683654,샤이니호텔,호텔,제주특별자치도 제주시 구좌읍 송당4길 7,126.7842803,33.47068245,http://place.map.kakao.com/23683654
329,27583807,리시온호텔,호텔,제주특별자치도 서귀포시 표선면 표선동서로 263,126.8336159,33.32714343,http://place.map.kakao.com/27583807
330,436777485,오션호텔,특급호텔,제주특별자치도 서귀포시 표선면 표선중앙로 94,126.8338315,33.32559201,http://place.map.kakao.com/436777485
331,16261247,해비치호텔앤드리조트 제주,호텔,제주특별자치도 서귀포시 표선면 민속해안로 537,126.8446725,33.32144142,http://place.map.kakao.com/16261247
332,1683447904,엔파제주호텔,호텔,제주특별자치도 서귀포시 성산읍 서성일로 726-11,126.8620695,33.42974489,http://place.map.kakao.com/1683447904
333,1234629860,제주 하나리조트,호텔,제주특별자치도 서귀포시 성산읍 일주동로 4995,126.8853,33.38738173,http://place.map.kakao.com/1234629860
334,113091928,아띠랑스,호텔,제주특별자치도 서귀포시 성산읍 해맞이해안로 2614,126.9091834,33.477461,http://place.map.kakao.com/113091928
335,373352758,제주스테이인성산,호텔,제주특별자치도 서귀포시 성산읍 신고로 11,126.9157145,33.43805443,http://place.map.kakao.com/373352758
336,26969908,플레이스캠프제주,호텔,제주특별자치도 서귀포시 성산읍 동류암로 20,126.918209,33.44994385,http://place.map.kakao.com/26969908
337,27349601,골든튤립제주성산호텔,특급호텔,제주특별자치도 서귀포시 성산읍 일출로 31,126.9162598,33.44800589,http://place.map.kakao.com/27349601
338,1303223319,더베스트제주성산,호텔,제주특별자치도 서귀포시 성산읍 동류암로 26,126.9170024,33.44977355,http://place.map.kakao.com/1303223319
339,1676724257,티라호텔,호텔,제주특별자치도 서귀포시 성산읍 섭지코지로25번길 41,126.9184417,33.44268423,http://place.map.kakao.com/1676724257
340,829276999,호텔MCC,호텔,제주특별자치도 서귀포시 성산읍 섭지코지로25번길 29,126.9188296,33.44181984,http://place.map.kakao.com/829276999
341,8412984,성산포스카이호텔,호텔,제주특별자치도 서귀포시 성산읍 동류암로36번길 6,126.9167661,33.44948127,http://place.map.kakao.com/8412984
342,1986689241,브라운스위트제주 호텔앤리조트,호텔,제주특별자치도 서귀포시 성산읍 고성오조로 94,126.9144834,33.45203037,http://place.map.kakao.com/1986689241
343,27520061,호텔휴안스테이,호텔,제주특별자치도 서귀포시 성산읍 성산중앙로37번길 9,126.9323935,33.46359557,http://place.map.kakao.com/27520061
344,27140338,블루마운틴호텔,호텔,제주특별자치도 서귀포시 성산읍 일출로 297,126.9343523,33.4636958,http://place.map.kakao.com/27140338
345,614001841,휴스테이 금호,호텔,제주특별자치도 서귀포시 성산읍 성산중앙로 30-11,126.9338876,33.46224576,http://place.map.kakao.com/614001841
346,20476314,성산비치호텔,호텔,제주특별자치도 서귀포시 성산읍 성산등용로 13,126.9329089,33.46482204,http://place.map.kakao.com/20476314
347,14562552,성산호텔,특급호텔,제주특별자치도 서귀포시 성산읍 성산등용로 8,126.9336695,33.46467819,http://place.map.kakao.com/14562552
348,26838524,브리즈베이호텔,호텔,제주특별자치도 서귀포시 성산읍 성산등용로 42,126.9308614,33.4666327,http://place.map.kakao.com/26838524
349,26525716,호텔아로하,호텔,제주특별자치도 서귀포시 성산읍 성산등용로 40,126.9310594,33.46649802,http://place.map.kakao.com/26525716
350,26455299,더클라우드풀&스파,호텔,제주특별자치도 서귀포시 성산읍 한도로 269-37,126.9353801,33.46884092,http://place.map.kakao.com/26455299
