num,id,store,business,address,x,y,url
1,15786539,제주현대미술관,문화시설,제주특별자치도 제주시 한경면 저지14길 35,126.265585,33.33966276,http://place.map.kakao.com/15786539
2,27400232,제주도립김창열미술관,문화시설,제주특별자치도 제주시 한림읍 용금로 883-5,126.2686621,33.33906784,http://place.map.kakao.com/27400232
3,1473795733,문화예술 공공수장고,문화시설,제주특별자치도 제주시 한경면 저지12길 84-2,126.2649473,33.33706419,http://place.map.kakao.com/1473795733
4,1360322030,제주현대미술관 분관,문화시설,제주특별자치도 제주시 한경면 저지12길 100,126.2664682,33.33733465,http://place.map.kakao.com/1360322030
5,1372900411,화가박서보의집,문화시설,제주특별자치도 제주시 한경면 저지14길 25,126.266225,33.33905436,http://place.map.kakao.com/1372900411
6,1373007226,서담 미술관,문화시설,제주특별자치도 제주시 한경면 저지12길 102,126.2668458,33.33739458,http://place.map.kakao.com/1373007226
7,1928105420,갤러리데이지,문화시설,제주특별자치도 제주시 한경면 저지12길 97-12,126.267538,33.33785307,http://place.map.kakao.com/1928105420
8,329553073,피움갤러리,문화시설,제주특별자치도 제주시 한림읍 한림해안로 321,126.2632397,33.42966738,http://place.map.kakao.com/329553073
9,12935648,갤러리노리,문화시설,제주특별자치도 제주시 한림읍 용금로 891,126.2704368,33.33955792,http://place.map.kakao.com/12935648
10,268167132,유동룡 이타미준 미술관,문화시설,제주특별자치도 제주시 한림읍 용금로 906-10,126.2707974,33.34062212,http://place.map.kakao.com/268167132
11,1646798584,루나피크닉,문화시설,제주특별자치도 서귀포시 안덕면 일주서로 1836,126.3222855,33.25413393,http://place.map.kakao.com/1646798584
12,1508345156,아르떼뮤지엄 제주,문화시설,제주특별자치도 제주시 애월읍 어림비로 478,126.3450106,33.39670048,http://place.map.kakao.com/1508345156
13,18355590,놀라운트릭아이미술관,문화시설,제주특별자치도 제주시 한림읍 광산로 942,126.3574002,33.34720789,http://place.map.kakao.com/18355590
14,27082388,물미술관,문화시설,제주특별자치도 서귀포시 안덕면 산록남로762번길 79,126.3881002,33.30142866,http://place.map.kakao.com/27082388
15,1580275891,돌미술관,문화시설,제주특별자치도 서귀포시 안덕면 산록남로762번길 79,126.3881002,33.30142866,http://place.map.kakao.com/1580275891
16,8229205,포도뮤지엄,문화시설,제주특별자치도 서귀포시 안덕면 산록남로 788,126.3859695,33.31927276,http://place.map.kakao.com/8229205
17,980903973,갤러리여름,문화시설,제주특별자치도 제주시 애월읍 광상로 333-11,126.3979301,33.44192753,http://place.map.kakao.com/980903973
18,1837422490,ICC제주갤러리,문화시설,제주특별자치도 서귀포시 중문관광로 224,126.4244423,33.24129026,http://place.map.kakao.com/1837422490
19,10801589,제주도립미술관,문화시설,제주특별자치도 제주시 1100로 2894-78,126.4896447,33.45258465,http://place.map.kakao.com/10801589
20,396959222,이룸갤러리,문화시설,제주특별자치도 제주시 일주서로 7827-1,126.4828448,33.49391078,http://place.map.kakao.com/396959222
21,934465639,갤러리오늘,문화시설,제주특별자치도 제주시 신대로18길 32,126.4930107,33.48481065,http://place.map.kakao.com/934465639
22,1118154543,99미술관,문화시설,제주특별자치도 서귀포시 김정문화로27번길 9-1,126.5075644,33.25247207,http://place.map.kakao.com/1118154543
23,333319103,에땅어린이미술관 제주정글센터,문화시설,제주특별자치도 제주시 연삼로 127-15,126.5059716,33.49393842,http://place.map.kakao.com/333319103
24,1662057990,제주국제미술관,문화시설,제주특별자치도 서귀포시 서호남로 65,126.5194958,33.25040172,http://place.map.kakao.com/1662057990
25,8927103,대왕 미술관,문화시설,제주특별자치도 제주시 공설로5길 14,126.5180767,33.4979513,http://place.map.kakao.com/8927103
26,291326758,문화공간제주아트,문화시설,제주특별자치도 제주시 전농로 107,126.5245816,33.50449313,http://place.map.kakao.com/291326758
27,25811890,아라리오뮤지엄 탑동시네마,문화시설,제주특별자치도 제주시 탑동로 14,126.5233917,33.51739573,http://place.map.kakao.com/25811890
28,1267769906,산지천갤러리,문화시설,제주특별자치도 제주시 중앙로3길 36,126.5283314,33.51514984,http://place.map.kakao.com/1267769906
29,441346085,예술공감,문화시설,제주특별자치도 제주시 관덕로 26,126.5219591,33.51287144,http://place.map.kakao.com/441346085
30,499195231,한일갤러리,문화시설,제주특별자치도 제주시 신산로 103,126.5360507,33.50491438,http://place.map.kakao.com/499195231
31,71610218,자미진갤러리,문화시설,제주특별자치도 제주시 간월동로 52,126.5476646,33.48743124,http://place.map.kakao.com/71610218
32,8194422,기당미술관,문화시설,제주특별자치도 서귀포시 남성중로153번길 15,126.5511971,33.24488858,http://place.map.kakao.com/8194422
33,8045145,이중섭미술관,문화시설,제주특별자치도 서귀포시 이중섭로 27-3,126.564888,33.24590378,http://place.map.kakao.com/8045145
34,20495355,문화공간 양,문화시설,제주특별자치도 제주시 거로남6길 13,126.5617707,33.50927166,http://place.map.kakao.com/20495355
35,19175660,왈종미술관,문화시설,제주특별자치도 서귀포시 칠십리로214번길 30,126.5736673,33.24529312,http://place.map.kakao.com/19175660
36,1848413975,갤러리2중선농원,문화시설,제주특별자치도 제주시 영평길 269,126.5700271,33.47806572,http://place.map.kakao.com/1848413975
37,234381019,갤러리 하샤마임,문화시설,제주특별자치도 제주시 청풍남8길 12-2,126.5704587,33.51790508,http://place.map.kakao.com/234381019
38,1449835357,제주봄미술관,문화시설,제주특별자치도 서귀포시 검은여로130번길 68-12,126.5878789,33.24997812,http://place.map.kakao.com/1449835357
39,331771319,석화갤러리,문화시설,제주특별자치도 서귀포시 토평로50번길 9-14,126.5900334,33.26842177,http://place.map.kakao.com/331771319
40,1030595475,전재현조천산방,문화시설,제주특별자치도 제주시 조천읍 와흘상서1길 14-15,126.6338681,33.49590512,http://place.map.kakao.com/1030595475
41,2018038903,바람섬갤러리,문화시설,제주특별자치도 서귀포시 남원읍 공천포로 25,126.6403508,33.26297296,http://place.map.kakao.com/2018038903
42,26781918,사진말전문갤러리 마음빛그리미,문화시설,제주특별자치도 서귀포시 남원읍 위미해안로 106,126.6538361,33.26922528,http://place.map.kakao.com/26781918
43,1309057733,김택화미술관,문화시설,제주특별자치도 제주시 조천읍 신흥로 1,126.6531719,33.5437515,http://place.map.kakao.com/1309057733
44,531445637,돌하르방미술관,문화시설,제주특별자치도 제주시 조천읍 북촌서1길 70,126.6888111,33.53884326,http://place.map.kakao.com/531445637
45,27428618,유퉁의엉터리미술관,문화시설,제주특별자치도 서귀포시 남원읍 태수로 711,126.7085029,33.33879445,http://place.map.kakao.com/27428618
46,25551229,우산미술관,문화시설,제주특별자치도 제주시 구좌읍 번영로 2172-80,126.743808,33.42409323,http://place.map.kakao.com/25551229
47,10882773,자연사랑 가시리전시장,문화시설,제주특별자치도 서귀포시 표선면 가시로613번길 46,126.7716123,33.35542985,http://place.map.kakao.com/10882773
48,707071776,라비미술관,음식점,제주특별자치도 제주시 구좌읍 월정중길 13,126.7913248,33.55666749,http://place.map.kakao.com/707071776
49,8222476,김영갑갤러리두모악,문화시설,제주특별자치도 서귀포시 성산읍 삼달로 137,126.8541359,33.37189523,http://place.map.kakao.com/8222476
50,278928655,사운드로잉갤러리,문화시설,제주특별자치도 서귀포시 성산읍 신풍하동로 252,126.8618354,33.3616021,http://place.map.kakao.com/278928655
51,315242865,조아가지구,문화시설,제주특별자치도 서귀포시 성산읍 난산로41번길 39-2,126.8679013,33.39892679,http://place.map.kakao.com/315242865
52,583188058,아라리오 갤러리,문화시설,제주특별자치도 제주시 구좌읍 하도15길 77,126.8926749,33.50804557,http://place.map.kakao.com/583188058
53,17580245,휘닉스제주 유민미술관,문화시설,제주특별자치도 서귀포시 성산읍 섭지코지로 107,126.9322309,33.42919718,http://place.map.kakao.com/17580245
54,1014235503,우도미술관,문화시설,제주특별자치도 제주시 우도면 우도해안길 32-12,126.95573,33.49316259,http://place.map.kakao.com/1014235503
