num,id,store,business,address,x,y,url
1,21851367,용당리새마을작은도서관,도서관,제주특별자치도 제주시 한경면 일주서로 4117,126.1813881,33.33378088,http://place.map.kakao.com/21851367
2,26325900,해맑음작은도서관,도서관,제주특별자치도 제주시 한경면 일주서로 4275,126.1849281,33.34762736,http://place.map.kakao.com/26325900
3,10863792,한경도서관,도서관,제주특별자치도 제주시 한경면 신한로 13,126.1845312,33.35010593,http://place.map.kakao.com/10863792
4,21815367,두모리새마을작은도서관,도서관,제주특별자치도 제주시 한경면 두신로 125,126.18508,33.35369786,http://place.map.kakao.com/21815367
5,567376808,신도1리새마을작은도서관,도서관,제주특별자치도 서귀포시 대정읍 도원로 217,126.1917502,33.278433,http://place.map.kakao.com/567376808
6,570871920,판포리새마을작은도서관,도서관,제주특별자치도 제주시 한경면 판포4길 39,126.203043,33.36249406,http://place.map.kakao.com/570871920
7,1500941665,월령리새마을작은도서관,도서관,제주특별자치도 제주시 한림읍 월령1길 11,126.2155009,33.37590702,http://place.map.kakao.com/1500941665
8,21851365,조수1리새마을작은도서관,도서관,제주특별자치도 제주시 한경면 홍수암로 565,126.2284285,33.33728898,http://place.map.kakao.com/21851365
9,14096718,금능꿈차롱작은도서관,도서관,제주특별자치도 제주시 한림읍 금능길 39,126.227215,33.38794098,http://place.map.kakao.com/14096718
10,21851359,비양리새마을작은도서관,도서관,제주특별자치도 제주시 한림읍 비양도길 23,126.229045,33.40514202,http://place.map.kakao.com/21851359
11,66467872,무릉2리새마을작은도서관,도서관,제주특별자치도 서귀포시 대정읍 암반수마농로 538-2,126.2330641,33.27390544,http://place.map.kakao.com/66467872
12,7956366,송악도서관,도서관,제주특별자치도 서귀포시 대정읍 동일하모로149번길 12,126.2485168,33.22661526,http://place.map.kakao.com/7956366
13,2103762935,청수리새마을작은도서관,도서관,제주특별자치도 제주시 한경면 대한로 1036,126.2476782,33.31762871,http://place.map.kakao.com/2103762935
14,668580822,한라새마을문고,도서관,제주특별자치도 서귀포시 대정읍 상모로 316,126.2556256,33.22280586,http://place.map.kakao.com/668580822
15,21815434,상모3리새마을작은도서관,도서관,제주특별자치도 서귀포시 대정읍 영서중로 45-4,126.2584508,33.2220798,http://place.map.kakao.com/21815434
16,21851378,상모서상동새마을작은도서관,도서관,제주특별자치도 서귀포시 대정읍 상모로288번길 18,126.2582644,33.22484484,http://place.map.kakao.com/21851378
17,11503932,하모2리다목적센터,도서관,제주특별자치도 서귀포시 대정읍 신영로94번길 3-6,126.2536903,33.22029138,http://place.map.kakao.com/11503932
18,2099816884,월림리새마을작은도서관,도서관,제주특별자치도 제주시 한림읍 월림7길 2,126.255419,33.35079285,http://place.map.kakao.com/2099816884
19,1473511377,옹포리새마을작은도서관,도서관,제주특별자치도 제주시 한림읍 월계로 21,126.255632,33.40348677,http://place.map.kakao.com/1473511377
20,1830650062,한림항새마을작은도서관,도서관,제주특별자치도 제주시 한림읍 한림해안로 81,126.2563483,33.41177125,http://place.map.kakao.com/1830650062
21,21815435,상모2리새마을문고,도서관,제주특별자치도 서귀포시 대정읍 상모로269번길 14,126.2614786,33.22276861,http://place.map.kakao.com/21815435
22,10515131,상모1리새마을작은도서관,도서관,제주특별자치도 서귀포시 대정읍 상모인성로 18,126.2694812,33.22637183,http://place.map.kakao.com/10515131
23,1274156949,명월리새마을작은도서관,도서관,제주특별자치도 제주시 한림읍 명월로 71,126.2666275,33.38698102,http://place.map.kakao.com/1274156949
24,8157550,한수풀도서관,도서관,제주특별자치도 제주시 한림읍 한림상로 240-11,126.268489,33.42032196,http://place.map.kakao.com/8157550
25,379420820,한수리새마을작은도서관,도서관,제주특별자치도 제주시 한림읍 한림로 739,126.2638602,33.42073906,http://place.map.kakao.com/379420820
26,688515037,가파리새마을작은도서관,도서관,제주특별자치도 서귀포시 대정읍 가파로 73,126.2735538,33.16645963,http://place.map.kakao.com/688515037
27,1371421383,상명리새마을작은도서관,도서관,제주특별자치도 제주시 한림읍 상명1길 16-1,126.2715499,33.35964483,http://place.map.kakao.com/1371421383
28,932199940,강구리새마을작은도서관,도서관,제주특별자치도 제주시 한림읍 강구로 92,126.2773206,33.4086098,http://place.map.kakao.com/932199940
29,21815343,어린이도서관 꿈틀책방,도서관,제주특별자치도 제주시 한림읍 명랑남동길 25,126.2739685,33.41664682,http://place.map.kakao.com/21815343
30,1526339915,대림리새마을작은도서관,도서관,제주특별자치도 제주시 한림읍 한수풀로 180,126.2812761,33.42210341,http://place.map.kakao.com/1526339915
31,1434177563,사계리꿈드림문화숲,도서관,제주특별자치도 서귀포시 안덕면 사계중앙로 33,126.296937,33.2288652,http://place.map.kakao.com/1434177563
32,1043900528,사계리새마을작은도서관,도서관,제주특별자치도 서귀포시 안덕면 사계중앙로 3,126.298095,33.23109513,http://place.map.kakao.com/1043900528
33,21851379,사계리새마을문고,도서관,제주특별자치도 서귀포시 안덕면 사계중앙로18번길 5,126.2969049,33.23073497,http://place.map.kakao.com/21851379
34,1460067647,금악리새마을작은도서관,도서관,제주특별자치도 제주시 한림읍 금악로 2,126.2963263,33.35741833,http://place.map.kakao.com/1460067647
35,1167656214,귀덕3리새마을작은도서관,도서관,제주특별자치도 제주시 한림읍 한수풀로 337,126.2962625,33.41923122,http://place.map.kakao.com/1167656214
36,2103915341,귀덕1리새마을문고,도서관,제주특별자치도 제주시 한림읍 귀덕로 97-2,126.2980493,33.43606498,http://place.map.kakao.com/2103915341
37,21815349,귀덕1리새마을문고,도서관,제주특별자치도 제주시 한림읍 귀덕14길 15,126.2947845,33.44245133,http://place.map.kakao.com/21815349
38,21815412,덕수새마을문고,도서관,제주특별자치도 서귀포시 안덕면 덕수회관로 98,126.3065565,33.2545954,http://place.map.kakao.com/21815412
39,1759262433,덕수리새마을작은도서관,도서관,제주특별자치도 서귀포시 안덕면 덕수회관로 98,126.3064917,33.25464192,http://place.map.kakao.com/1759262433
40,2103721023,서광서리새마을작은도서관,도서관,제주특별자치도 서귀포시 안덕면 녹차분재로59번길 42,126.3003063,33.2874764,http://place.map.kakao.com/2103721023
41,21851376,서광서리새마을작은도서관,도서관,제주특별자치도 서귀포시 안덕면 서광남로 144-5,126.3021582,33.28503984,http://place.map.kakao.com/21851376
42,27165949,봉성새별작은도서관,도서관,제주특별자치도 제주시 애월읍 봉성로 75,126.3120391,33.41948922,http://place.map.kakao.com/27165949
43,31175977,이음작은도서관,도서관,제주특별자치도 제주시 애월읍 납읍동1길 12-1,126.3287642,33.44125507,http://place.map.kakao.com/31175977
44,9235059,안덕산방도서관,도서관,제주특별자치도 서귀포시 안덕면 화순서서로 44,126.330651,33.25503037,http://place.map.kakao.com/9235059
45,21815414,서광이비치는새마을작은도서관,도서관,제주특별자치도 서귀포시 안덕면 서광동로 17,126.3311983,33.28798546,http://place.map.kakao.com/21815414
46,2138365341,동광해바른작은도서관,도서관,제주특별자치도 서귀포시 안덕면 동광로100번길 12,126.3382463,33.30485805,http://place.map.kakao.com/2138365341
47,21851362,납읍리새마을작은도서관,도서관,제주특별자치도 제주시 애월읍 납읍로2길 3,126.3311005,33.43838622,http://place.map.kakao.com/21851362
48,7995696,애월도서관,도서관,제주특별자치도 제주시 애월읍 일주서로 6339,126.3313217,33.46337941,http://place.map.kakao.com/7995696
49,1356801947,상가리새마을작은도서관,도서관,제주특별자치도 제주시 애월읍 상가중길 23,126.3456707,33.44971218,http://place.map.kakao.com/1356801947
50,1225298786,하가리새마을작은도서관,도서관,제주특별자치도 제주시 애월읍 하가로 143,126.3498802,33.45692178,http://place.map.kakao.com/1225298786
51,1536758827,감산리새마을작은도서관,도서관,제주특별자치도 서귀포시 안덕면 감산중로 32,126.3533634,33.25900947,http://place.map.kakao.com/1536758827
52,1640433326,대평리새마을작은도서관,도서관,제주특별자치도 서귀포시 안덕면 대평감산로 43,126.3658885,33.23833674,http://place.map.kakao.com/1640433326
53,21815437,창천리새마을문고,도서관,제주특별자치도 서귀포시 안덕면 창천중앙로 35,126.3686966,33.26561867,http://place.map.kakao.com/21815437
54,9084723,상창바람소리작은도서관,도서관,제주특별자치도 서귀포시 안덕면 한창로 102,126.36603,33.27223108,http://place.map.kakao.com/9084723
55,1624472107,다니엘작은도서관,도서관,제주특별자치도 제주시 애월읍 구엄길 1,126.375495,33.47458394,http://place.map.kakao.com/1624472107
56,21815354,장전리새마을작은도서관,도서관,제주특별자치도 제주시 애월읍 장전로 106,126.389098,33.45062977,http://place.map.kakao.com/21815354
57,21815416,예래새마을작은도서관,도서관,제주특별자치도 서귀포시 열리로 80,126.3901924,33.24699121,http://place.map.kakao.com/21815416
58,736033002,수산리새마을작은도서관,도서관,제주특별자치도 제주시 애월읍 하소로 157,126.3935672,33.46756916,http://place.map.kakao.com/736033002
59,991569721,예원새마을작은도서관,도서관,제주특별자치도 제주시 애월읍 예원로 95,126.3981038,33.46099523,http://place.map.kakao.com/991569721
60,21815356,수산리문고,도서관,제주특별자치도 제주시 애월읍 하소로 157,126.3935832,33.46758366,http://place.map.kakao.com/21815356
61,21815358,유수암청소년공부방,도서관,제주특별자치도 제주시 애월읍 유수암로 16,126.4018352,33.4414235,http://place.map.kakao.com/21815358
62,27160385,유수암리새마을작은도서관,도서관,제주특별자치도 제주시 애월읍 유수암로 16,126.4018438,33.44142715,http://place.map.kakao.com/27160385
63,1102032441,그레이스영어작은도서관,도서관,제주특별자치도 서귀포시 천제연로 103-15,126.4164354,33.25588809,http://place.map.kakao.com/1102032441
64,21815408,색달새마을문고,도서관,제주특별자치도 서귀포시 색달로72번길 2,126.4106931,33.26083074,http://place.map.kakao.com/21815408
65,2146561215,고성1리새마을작은도서관,도서관,제주특별자치도 제주시 애월읍 광성로 61-1,126.4140582,33.45841738,http://place.map.kakao.com/2146561215
66,21851360,하귀1리새마을작은도서관,도서관,제주특별자치도 제주시 애월읍 하귀10길 5,126.4100554,33.48593655,http://place.map.kakao.com/21851360
67,2004973302,하귀휴먼시아1단지새마을작은도서관,도서관,제주특별자치도 제주시 애월읍 하귀9길 45,126.4164102,33.48303107,http://place.map.kakao.com/2004973302
68,45924764,외도아름새마을작은도서관,도서관,제주특별자치도 제주시 우정로18길 25,126.4284657,33.48422686,http://place.map.kakao.com/45924764
69,9098770,서부도서관,도서관,제주특별자치도 서귀포시 중문관광로 346,126.4323223,33.25088008,http://place.map.kakao.com/9098770
70,306756796,푸른새마을작은도서관,도서관,제주특별자치도 서귀포시 천제연로 239,126.4307705,33.25156544,http://place.map.kakao.com/306756796
71,1833708605,광령1리새마을작은도서관,도서관,제주특별자치도 제주시 애월읍 광성로 298-1,126.439219,33.46046315,http://place.map.kakao.com/1833708605
72,1902489451,외도1차부영새마을작은도서관,도서관,제주특별자치도 제주시 우정로11길 22,126.4336125,33.48761522,http://place.map.kakao.com/1902489451
73,21851372,외도2차부영새마을작은도서관,도서관,제주특별자치도 제주시 우평로 318,126.4339956,33.48496269,http://place.map.kakao.com/21851372
74,1853863844,꼬마도서관,도서관,제주특별자치도 제주시 연동 252-23,126.4319506,33.48572509,http://place.map.kakao.com/1853863844
75,32691691,소낭새마을작은도서관,도서관,제주특별자치도 제주시 우정로 15,126.4311294,33.49151313,http://place.map.kakao.com/32691691
76,1386896867,회수새마을작은도서관,도서관,제주특별자치도 서귀포시 중산간서로 654,126.4453376,33.26330186,http://place.map.kakao.com/1386896867
77,1313261321,하원애향새마을작은도서관,도서관,제주특별자치도 서귀포시 하원로19번길 20-6,126.4599811,33.2569684,http://place.map.kakao.com/1313261321
78,21815399,월산새마을문고,도서관,제주특별자치도 제주시 월산남길 5,126.4638122,33.47245496,http://place.map.kakao.com/21815399
79,1107396703,제주특별자치도작은도서관협회,도서관,제주특별자치도 제주시 월광로 37,126.4647664,33.48522923,http://place.map.kakao.com/1107396703
80,89763960,오도새마을작은도서관,도서관,제주특별자치도 제주시 오도길 31,126.4605388,33.49236232,http://place.map.kakao.com/89763960
81,14547472,제주서부방음도서관,도서관,제주특별자치도 제주시 도공로 54,126.4658371,33.50185556,http://place.map.kakao.com/14547472
82,45101,도두1동새마을작은도서관,도서관,제주특별자치도 제주시 도두1길 9-1,126.4682132,33.50292605,http://place.map.kakao.com/45101
83,8263117,도두1동새마을문고,도서관,제주특별자치도 제주시 도두1길 13,126.468031,33.50314887,http://place.map.kakao.com/8263117
84,1441401235,도순새마을 작은도서관,도서관,제주특별자치도 서귀포시 도순남로 11,126.4735817,33.25170714,http://place.map.kakao.com/1441401235
85,8508002,제주시탐라도서관,도서관,제주특별자치도 제주시 정원로 50,126.4771806,33.47918386,http://place.map.kakao.com/8508002
86,27258169,혜낭도서관,도서관,제주특별자치도 제주시 노형1길 28,126.475655,33.47953444,http://place.map.kakao.com/27258169
87,8244850,노형꿈틀작은도서관,도서관,제주특별자치도 제주시 노형로 351,126.4739081,33.48233099,http://place.map.kakao.com/8244850
88,21815398,뜨란채새마을작은도서관,도서관,제주특별자치도 제주시 수덕로 44,126.4714874,33.48761664,http://place.map.kakao.com/21815398
89,21815395,정든새마을작은도서관,도서관,제주특별자치도 제주시 정존11길 68,126.4721262,33.48873734,http://place.map.kakao.com/21815395
90,876307362,바오밥작은도서관,도서관,제주특별자치도 제주시 정존15길 33,126.4765452,33.4875191,http://place.map.kakao.com/876307362
91,1245534770,탐라스마트도서관,도서관,제주특별자치도 제주시 월랑로 91,126.4705106,33.49235935,http://place.map.kakao.com/1245534770
92,899003616,캠코브러리 32호점,도서관,제주특별자치도 제주시 월랑북길 30-5,126.4774311,33.49175941,http://place.map.kakao.com/899003616
93,678719210,꿈자람책방,도서관,제주특별자치도 제주시 월랑로 91,126.4706481,33.49257902,http://place.map.kakao.com/678719210
94,21815400,용흥새마을문고,도서관,제주특별자치도 서귀포시 용흥로 67,126.4811728,33.25206362,http://place.map.kakao.com/21815400
95,513756768,용흥작은도서관,도서관,제주특별자치도 서귀포시 용흥로 55,126.4824565,33.25146578,http://place.map.kakao.com/513756768
96,1975561645,노형부영2차새마을작은도서관,도서관,제주특별자치도 제주시 과원로 11,126.4847102,33.47690731,http://place.map.kakao.com/1975561645
97,845348082,원앙새마을작은도서관,도서관,제주특별자치도 제주시 원노형로 93,126.4849703,33.47986922,http://place.map.kakao.com/845348082
98,1866770702,으뜸새마을작은도서관,도서관,제주특별자치도 제주시 진군1길 3,126.4816958,33.47832647,http://place.map.kakao.com/1866770702
99,21815396,해오름새마을작은도서관,도서관,제주특별자치도 제주시 연화로 16,126.4864501,33.47996913,http://place.map.kakao.com/21815396
100,1409795254,행복나눔작은도서관,도서관,제주특별자치도 제주시 원노형로 46,126.4845325,33.48475764,http://place.map.kakao.com/1409795254
101,1850556191,꼬마도서관,도서관,제주특별자치도 제주시 연동 297-1,126.4862514,33.48739382,http://place.map.kakao.com/1850556191
102,1897396657,연동대림새마을작은도서관,도서관,제주특별자치도 제주시 국기로 14,126.4887668,33.48047278,http://place.map.kakao.com/1897396657
103,8250074,놀이도서관,도서관,제주특별자치도 제주시 국기로 5,126.490049,33.48125704,http://place.map.kakao.com/8250074
104,27210076,제주한라병원 도서실,도서관,제주특별자치도 제주시 도령로 65,126.4850701,33.48991338,http://place.map.kakao.com/27210076
105,26325764,새삶새마을문고,도서관,제주특별자치도 제주시 도령북길 8,126.4853682,33.49299084,http://place.map.kakao.com/26325764
106,10018371,새삶청소년공부방,도서관,제주특별자치도 제주시 도령북길 8,126.4853877,33.49297199,http://place.map.kakao.com/10018371
107,3687807,꿈꾸는북라이크작은도서관,도서관,제주특별자치도 제주시 서해안로 456-8,126.4891069,33.51783248,http://place.map.kakao.com/3687807
108,821864954,제주꿈바당어린이도서관,도서관,제주특별자치도 제주시 연오로 140,126.4997666,33.48052127,http://place.map.kakao.com/821864954
109,2103742471,상승새마을작은도서관,도서관,제주특별자치도 제주시 신대로 101,126.4968864,33.48815873,http://place.map.kakao.com/2103742471
110,1850914491,꼬마도서관,도서관,제주특별자치도 제주시 외도일동 560-3,126.4941052,33.48310931,http://place.map.kakao.com/1850914491
111,7948608,설문대어린이도서관,도서관,제주특별자치도 제주시 신대로10길 48-9,126.4925107,33.49158587,http://place.map.kakao.com/7948608
112,27282965,반딧불이작은도서관,도서관,제주특별자치도 제주시 연삼로 22,126.4946088,33.49347607,http://place.map.kakao.com/27282965
113,7940950,서귀포시중앙도서관,도서관,제주특별자치도 서귀포시 김정문화로 32,126.5076302,33.25146431,http://place.map.kakao.com/7940950
114,21851436,연미새마을작은도서관,도서관,제주특별자치도 제주시 연사길 142,126.5053257,33.48679343,http://place.map.kakao.com/21851436
115,1354332786,꿈왓작은도서관,도서관,제주특별자치도 제주시 용문로11길 22,126.5068457,33.50716644,http://place.map.kakao.com/1354332786
116,442297543,하늘길방음작은도서관,도서관,제주특별자치도 제주시 용마로2길 38,126.5080737,33.5140171,http://place.map.kakao.com/442297543
117,1848987928,성화새마을작은도서관,도서관,제주특별자치도 제주시 용해로 55,126.5031317,33.51223116,http://place.map.kakao.com/1848987928
118,309526616,신머들새마을작은도서관,도서관,제주특별자치도 서귀포시 서호남로 92-16,126.5197922,33.24800994,http://place.map.kakao.com/309526616
119,536181717,북소랑,도서관,제주특별자치도 서귀포시 일주동로 9185,126.5112304,33.24818234,http://place.map.kakao.com/536181717
120,154783345,서귀포 악기도서관,도서관,제주특별자치도 서귀포시 월드컵로 33,126.5104698,33.24660853,http://place.map.kakao.com/154783345
121,853179856,상상영어도서관,도서관,제주특별자치도 서귀포시 서호중앙로 55,126.5186105,33.25255138,http://place.map.kakao.com/853179856
122,8065114,재외동포재단 자료실,도서관,제주특별자치도 서귀포시 신중로 55,126.510526,33.25557995,http://place.map.kakao.com/8065114
123,17555144,국세공무원교육원 도서관,도서관,제주특별자치도 서귀포시 서호중로 19,126.5155903,33.2567187,http://place.map.kakao.com/17555144
124,10951375,한라도서관,도서관,제주특별자치도 제주시 오남로 221,126.5162735,33.47620144,http://place.map.kakao.com/10951375
125,8512348,제주한라도서관운영사업소,도서관,제주특별자치도 제주시 오남로 221,126.5162261,33.47621207,http://place.map.kakao.com/8512348
126,22579150,불기도서관,도서관,제주특별자치도 제주시 오남로 92,126.5173892,33.48765243,http://place.map.kakao.com/22579150
127,17035003,참꽃작은도서관,도서관,제주특별자치도 제주시 오라로16길 1,126.5167382,33.49404399,http://place.map.kakao.com/17035003
128,693701238,오라공설새마을작은도서관,도서관,제주특별자치도 제주시 공설로5길 4,126.517263,33.49798419,http://place.map.kakao.com/693701238
129,49560431,사평새마을작은도서관,도서관,제주특별자치도 제주시 사평4길 33,126.5126791,33.49022698,http://place.map.kakao.com/49560431
130,2017820581,제주스카우트새마을작은도서관,도서관,제주특별자치도 제주시 평전3길 34-1,126.5155112,33.50182174,http://place.map.kakao.com/2017820581
131,757809776,성짓골작은도서관,도서관,제주특별자치도 제주시 무근성1길 9,126.5188366,33.51484646,http://place.map.kakao.com/757809776
132,449571388,꿈틔움새마을작은도서관,도서관,제주특별자치도 서귀포시 서호남로 92-15,126.5236552,33.24958642,http://place.map.kakao.com/449571388
133,11197577,호근새마을작은도서관,도서관,제주특별자치도 서귀포시 호근남로 6,126.5280536,33.25698933,http://place.map.kakao.com/11197577
134,1851038322,꼬마도서관,도서관,제주특별자치도 제주시 도남동 46,126.5225684,33.495996,http://place.map.kakao.com/1851038322
135,1623747117,도남해모로새마을작은도서관,도서관,제주특별자치도 제주시 도남서길 14,126.5250653,33.4943674,http://place.map.kakao.com/1623747117
136,1945752826,이도1동새마을작은도서관,도서관,제주특별자치도 제주시 중앙로25길 17,126.5269048,33.50673346,http://place.map.kakao.com/1945752826
137,1623637701,차세대작은도서관,도서관,제주특별자치도 제주시 광양2길 33,126.5267624,33.50323925,http://place.map.kakao.com/1623637701
138,8239809,꿈이있는작은도서관,도서관,제주특별자치도 제주시 홍랑길 10,126.5232784,33.50075554,http://place.map.kakao.com/8239809
139,195461872,월드컵새마을작은도서관,도서관,제주특별자치도 제주시 서광로29길 25,126.5255134,33.50217781,http://place.map.kakao.com/195461872
140,1384861083,새날작은도서관,도서관,제주특별자치도 제주시 광양4길 32,126.5251009,33.50144684,http://place.map.kakao.com/1384861083
141,125774438,제주김영수도서관,도서관,제주특별자치도 제주시 중앙로8길 18,126.5219746,33.51476124,http://place.map.kakao.com/125774438
142,1170303119,김영수도서관친구들,도서관,제주특별자치도 제주시 칠성로길 8,126.5238971,33.51354608,http://place.map.kakao.com/1170303119
143,12763017,달리도서관,도서관,제주특별자치도 제주시 신성로12길 21-2,126.5316664,33.49549067,http://place.map.kakao.com/12763017
144,30967019,꿈썸작은도서관,도서관,제주특별자치도 제주시 남광북3길 46-12,126.5387064,33.49585517,http://place.map.kakao.com/30967019
145,1077214665,이도주공새마을작은도서관,도서관,제주특별자치도 제주시 구남로 43,126.5342811,33.49109263,http://place.map.kakao.com/1077214665
146,26156586,이도쉐마작은도서관,도서관,제주특별자치도 제주시 구남로 46,126.5349915,33.49065081,http://place.map.kakao.com/26156586
147,1801380859,꿈에그린도서관 81호점,도서관,제주특별자치도 제주시 구남로 31,126.5331511,33.49032563,http://place.map.kakao.com/1801380859
148,8067671,제주기적의도서관,도서관,제주특별자치도 제주시 동광로12길 19,126.5355198,33.5017469,http://place.map.kakao.com/8067671
149,660929433,일도2동새마을작은도서관,도서관,제주특별자치도 제주시 신선동길 15,126.5311284,33.5098519,http://place.map.kakao.com/660929433
150,8754205,제주도문화정보점자도서관,도서관,제주특별자치도 제주시 동광로 56,126.5347084,33.50294838,http://place.map.kakao.com/8754205
151,21815372,두맹이작은도서관,도서관,제주특별자치도 제주시 동문로14길 16-1,126.5331746,33.51201262,http://place.map.kakao.com/21815372
152,1449203837,일도새마을작은도서관,도서관,제주특별자치도 제주시 신산로 8,126.5316306,33.51252611,http://place.map.kakao.com/1449203837
153,293921949,캠코브러리 25호점,도서관,제주특별자치도 제주시 만덕로4길 1,126.5317088,33.51457933,http://place.map.kakao.com/293921949
154,1400644115,아라스위첸새마을작은도서관,도서관,제주특별자치도 제주시 아란9길 22,126.5422068,33.47359424,http://place.map.kakao.com/1400644115
155,1452361005,염광새마을작은도서관,도서관,제주특별자치도 제주시 인다15길 5,126.5473954,33.47051631,http://place.map.kakao.com/1452361005
156,1630689001,복지새마을작은도서관,도서관,제주특별자치도 제주시 인다12길 1,126.5465833,33.47357517,http://place.map.kakao.com/1630689001
157,1913837046,월두새마을작은도서관,도서관,제주특별자치도 제주시 월두2길 63-1,126.5494286,33.48590135,http://place.map.kakao.com/1913837046
158,932054926,별이내리는숲,도서관,제주특별자치도 제주시 연삼로 489,126.5413844,33.49981409,http://place.map.kakao.com/932054926
159,369895811,한일베라체새마을작은도서관,도서관,제주특별자치도 제주시 신설로 55,126.5481339,33.49319595,http://place.map.kakao.com/369895811
160,1863822570,혜성무지개새마을작은도서관,도서관,제주특별자치도 제주시 남광로 65,126.5418968,33.49610142,http://place.map.kakao.com/1863822570
161,752961141,햇살좋은 한마음도서관,도서관,제주특별자치도 제주시 연신로 52,126.5462542,33.49626892,http://place.map.kakao.com/752961141
162,10806995,제주도서관,도서관,제주특별자치도 제주시 연삼로 489,126.5411675,33.50013426,http://place.map.kakao.com/10806995
163,31000458,사람꽃작은도서관,도서관,제주특별자치도 제주시 천수로 52,126.5423921,33.5038245,http://place.map.kakao.com/31000458
164,31206707,호꼼슬로작은도서관,도서관,제주특별자치도 제주시 연수로2길 28-4,126.5462847,33.50320409,http://place.map.kakao.com/31206707
165,1099033798,신천지새마을작은도서관,도서관,제주특별자치도 제주시 천수로 72,126.5447864,33.50447886,http://place.map.kakao.com/1099033798
166,1826551540,일도우성새마을작은도서관,도서관,제주특별자치도 제주시 태성로 3,126.5483604,33.5024363,http://place.map.kakao.com/1826551540
167,26325747,일도성환아파트새마을문고,도서관,제주특별자치도 제주시 태성로 21,126.5487513,33.50114304,http://place.map.kakao.com/26325747
168,12144463,한국디지털종합도서관,도서관,제주특별자치도 제주시 천수로 42,126.5414747,33.50309262,http://place.map.kakao.com/12144463
169,9898638,우당도서관,도서관,제주특별자치도 제주시 사라봉동길 30,126.5487158,33.51544938,http://place.map.kakao.com/9898638
170,2103828236,하늘나무도서관,도서관,제주특별자치도 제주시 고마로1길 26,126.5404199,33.51289442,http://place.map.kakao.com/2103828236
171,841456148,항운노조새마을작은도서관,도서관,제주특별자치도 제주시 임항로 191,126.5435765,33.52337897,http://place.map.kakao.com/841456148
172,9810062,삼매봉도서관,도서관,제주특별자치도 서귀포시 남성중로153번길 15,126.5520303,33.2443479,http://place.map.kakao.com/9810062
173,1941040208,한우리독서문화원문고,도서관,제주특별자치도 서귀포시 중앙로117번길 7,126.5596961,33.25501,http://place.map.kakao.com/1941040208
174,789370170,매직오브리딩작은도서관,도서관,제주특별자치도 서귀포시 중산간동로 8067,126.5548476,33.26391526,http://place.map.kakao.com/789370170
175,1932983460,지오숲새마을작은도서관,도서관,제주특별자치도 서귀포시 중앙로195번길 7,126.5575928,33.26180803,http://place.map.kakao.com/1932983460
176,21815432,아담한새마을작은도서관,도서관,제주특별자치도 서귀포시 홍중로 97,126.5548875,33.26110953,http://place.map.kakao.com/21815432
177,32719112,아라아이파크새마을작은도서관,도서관,제주특별자치도 제주시 인다1길 20,126.5503021,33.47468866,http://place.map.kakao.com/32719112
178,2007827753,마크누리,도서관,제주특별자치도 제주시 금월길 81,126.5535118,33.4819455,http://place.map.kakao.com/2007827753
179,417066395,일도대림새마을작은도서관,도서관,제주특별자치도 제주시 태성로 39,126.5505847,33.50037073,http://place.map.kakao.com/417066395
180,21815428,중앙꿈쟁이작은도서관,도서관,제주특별자치도 서귀포시 동문로 55,126.566393,33.24968506,http://place.map.kakao.com/21815428
181,1806421290,서귀포JC새마을작은도서관,도서관,제주특별자치도 서귀포시 천지연로 29,126.5631053,33.24187625,http://place.map.kakao.com/1806421290
182,21815439,서귀포중앙교회문고,도서관,제주특별자치도 서귀포시 태평로439번길 8,126.5662659,33.24673809,http://place.map.kakao.com/21815439
183,8790775,서귀포기적의도서관,도서관,제주특별자치도 서귀포시 일주동로 8593,126.5699928,33.25435719,http://place.map.kakao.com/8790775
184,1543310187,서귀포도서관,도서관,제주특별자치도 서귀포시 중앙로150번길 4-1,126.5630504,33.25853097,http://place.map.kakao.com/1543310187
185,21815431,오석새마을작은도서관,도서관,제주특별자치도 서귀포시 중동로 43-2,126.5670399,33.25081255,http://place.map.kakao.com/21815431
186,1014349812,한우리작은도서관,도서관,제주특별자치도 서귀포시 중앙로117번길 5,126.560078,33.25504021,http://place.map.kakao.com/1014349812
187,975151489,소랑호꼴락작은도서관,도서관,제주특별자치도 서귀포시 동문로 1,126.5624668,33.25288112,http://place.map.kakao.com/975151489
188,21815403,동홍6새마을작은도서관,도서관,제주특별자치도 서귀포시 중앙로 198-9,126.560292,33.26288153,http://place.map.kakao.com/21815403
189,26349176,청풍작은도서관,도서관,제주특별자치도 제주시 청풍길 13,126.5655787,33.52257814,http://place.map.kakao.com/26349176
190,21815404,동홍3희망새마을문고,도서관,제주특별자치도 서귀포시 태평로512번길 9,126.5738049,33.24986937,http://place.map.kakao.com/21815404
191,1079958762,희망새마을작은도서관,도서관,제주특별자치도 서귀포시 태평로512번길 13,126.573277,33.24964035,http://place.map.kakao.com/1079958762
192,2074233746,퐁낭작은도서관,도서관,제주특별자치도 서귀포시 동홍중앙로 56,126.5723311,33.25546885,http://place.map.kakao.com/2074233746
193,21815406,동홍1새마을작은도서관,도서관,제주특별자치도 서귀포시 동홍중앙로 10,126.5725871,33.25227796,http://place.map.kakao.com/21815406
194,1943067708,산남새마을작은도서관,도서관,,126.5738737,33.25516037,http://place.map.kakao.com/1943067708
195,21815405,동홍대림새마을작은도서관,도서관,제주특별자치도 서귀포시 동홍중앙로 61,126.5716717,33.25601477,http://place.map.kakao.com/21815405
196,905038138,아르미새마을작은도서관,도서관,제주특별자치도 서귀포시 동홍로162번길 30,126.5701333,33.26337036,http://place.map.kakao.com/905038138
197,389165996,꿈에그린2단지새마을작은도서관,도서관,제주특별자치도 제주시 첨단로동길 74,126.5760418,33.45277132,http://place.map.kakao.com/389165996
198,570895651,월평새마을작은도서관,도서관,제주특별자치도 제주시 월평5길 2,126.5752432,33.47007751,http://place.map.kakao.com/570895651
199,480184707,동화새마을작은도서관,도서관,제주특별자치도 제주시 동화로1길 35,126.5770704,33.51954619,http://place.map.kakao.com/480184707
200,32538060,삼화2차부영새마을작은도서관,도서관,제주특별자치도 제주시 화삼로 12,126.5740114,33.51336701,http://place.map.kakao.com/32538060
201,32631763,삼화LH2새마을작은도서관,도서관,제주특별자치도 제주시 화삼로 32,126.5764093,33.51340138,http://place.map.kakao.com/32631763
202,21815383,열린새마을작은도서관,도서관,제주특별자치도 제주시 동화로1길 10,126.5743314,33.51836023,http://place.map.kakao.com/21815383
203,27516960,한라마을도서관,도서관,제주특별자치도 제주시 일주동로 293-1,126.5766601,33.52202506,http://place.map.kakao.com/27516960
204,1320526667,화북1단지새마을작은도서관,도서관,제주특별자치도 제주시 동화로1길 11,126.5750584,33.52025607,http://place.map.kakao.com/1320526667
205,1790903639,용강새마을작은도서관,도서관,제주특별자치도 제주시 아봉로 549,126.5858687,33.47709184,http://place.map.kakao.com/1790903639
206,8083789,제주점자도서관,도서관,제주특별자치도 제주시 아봉로 433,126.5812199,33.47104272,http://place.map.kakao.com/8083789
207,2135276515,도련LH새마을작은도서관,도서관,제주특별자치도 제주시 도련2길 14,126.5893824,33.50766224,http://place.map.kakao.com/2135276515
208,94430742,도련1동새마을작은도서관,도서관,제주특별자치도 제주시 도련안길 44,126.5845922,33.50920603,http://place.map.kakao.com/94430742
209,32639839,삼화LH3새마을작은도서관,도서관,제주특별자치도 제주시 화삼로 110,126.5854623,33.51428942,http://place.map.kakao.com/32639839
210,600557929,도련2동새마을문고,도서관,제주특별자치도 제주시 매촌서2길 21-3,126.5900045,33.5145092,http://place.map.kakao.com/600557929
211,139470250,꿈꾸는새마을작은도서관,도서관,제주특별자치도 제주시 화삼북로 87,126.5827265,33.51849698,http://place.map.kakao.com/139470250
212,709523647,봉아름작은도서관,도서관,제주특별자치도 제주시 번영로 503,126.5957272,33.49023723,http://place.map.kakao.com/709523647
213,21815384,원당작은도서관,도서관,제주특별자치도 제주시 선사로4길 42,126.5900627,33.52588208,http://place.map.kakao.com/21815384
214,24042254,보목꿈터작은도서관,도서관,제주특별자치도 서귀포시 칠십리로 483-1,126.60242,33.24173404,http://place.map.kakao.com/24042254
215,7937993,서귀포시 동부도서관,도서관,제주특별자치도 서귀포시 일주동로 8232,126.6083396,33.26168971,http://place.map.kakao.com/7937993
216,21815444,하례2리새마을작은도서관,도서관,제주특별자치도 서귀포시 남원읍 하례돈야로 83,126.6088584,33.2972254,http://place.map.kakao.com/21815444
217,21815441,하효새마을작은도서관,도서관,제주특별자치도 서귀포시 하효중앙로 132,126.6189245,33.26200751,http://place.map.kakao.com/21815441
218,1620262098,신촌리새마을작은도서관,도서관,제주특별자치도 제주시 조천읍 신촌서5길 63,126.614628,33.53459459,http://place.map.kakao.com/1620262098
219,21815443,하례1리새마을작은도서관,도서관,제주특별자치도 서귀포시 남원읍 하례중앙로 95,126.6253462,33.26916794,http://place.map.kakao.com/21815443
220,21815427,예촌작은도서관,도서관,제주특별자치도 서귀포시 남원읍 신례중앙로 37,126.6270042,33.28817205,http://place.map.kakao.com/21815427
221,311671118,신촌리새마을작은도서관,도서관,제주특별자치도 제주시 조천읍 신북로 54,126.6201589,33.5332665,http://place.map.kakao.com/311671118
222,27549281,푸른열매작은도서관,도서관,제주특별자치도 제주시 조천읍 조천2길 6,126.6318406,33.53456401,http://place.map.kakao.com/27549281
223,51481832,조천리새마을작은도서관,도서관,제주특별자치도 제주시 조천읍 남조로 3128,126.6398925,33.53789833,http://place.map.kakao.com/51481832
224,7127054,신례2리새마을작은도서관,도서관,제주특별자치도 서귀포시 남원읍 공천포로 69-1,126.6407769,33.2650768,http://place.map.kakao.com/7127054
225,21851380,위미1리새마을작은도서관,도서관,제주특별자치도 서귀포시 남원읍 위미해안로 4-4,126.6570589,33.27398761,http://place.map.kakao.com/21851380
226,1989165065,신흥리새마을작은도서관,도서관,제주특별자치도 제주시 조천읍 신흥로 40,126.6523189,33.54704713,http://place.map.kakao.com/1989165065
227,21851377,위미2리새마을작은도서관,도서관,제주특별자치도 서귀포시 남원읍 태위로 197,126.6686075,33.27537499,http://place.map.kakao.com/21851377
228,12501957,조천읍도서관,도서관,제주특별자치도 제주시 조천읍 일주동로 1189,126.6676229,33.53768735,http://place.map.kakao.com/12501957
229,968200497,함덕리새마을작은도서관,도서관,제주특별자치도 제주시 조천읍 신북로 516,126.6647392,33.54172593,http://place.map.kakao.com/968200497
230,21815366,교래리새마을작은도서관,도서관,제주특별자치도 제주시 조천읍 교래3길 98,126.6745997,33.43172811,http://place.map.kakao.com/21815366
231,21815363,대흘2리마을문고,도서관,제주특별자치도 제주시 조천읍 곱은달길 19,126.6712907,33.51414388,http://place.map.kakao.com/21815363
232,21815442,위미3리새마을문고,도서관,제주특별자치도 서귀포시 남원읍 태위로 381-5,126.6879835,33.27563791,http://place.map.kakao.com/21815442
233,21851363,와산작은도서관,도서관,제주특별자치도 제주시 조천읍 중산간동로 955,126.6822239,33.49240782,http://place.map.kakao.com/21851363
234,32225885,한남리새마을작은도서관,도서관,제주특별자치도 서귀포시 남원읍 남한로 431,126.6951653,33.31185074,http://place.map.kakao.com/32225885
235,2079349500,북촌리새마을작은도서관,도서관,제주특별자치도 제주시 조천읍 일주동로 1514,126.6958538,33.54795693,http://place.map.kakao.com/2079349500
236,10805548,제남도서관,도서관,제주특별자치도 서귀포시 남원읍 남원체육관로 183,126.7049514,33.279578,http://place.map.kakao.com/10805548
237,408573175,남원119새마을문고,도서관,제주특별자치도 서귀포시 남원읍 남원체육관로221번길 23,126.7084402,33.28149408,http://place.map.kakao.com/408573175
238,1212699125,남원JC새마을작은도서관,도서관,제주특별자치도 서귀포시 남원읍 남위남성로 22,126.7068911,33.28376615,http://place.map.kakao.com/1212699125
239,1428339846,동백동산새마을작은도서관,도서관,제주특별자치도 제주시 조천읍 중산간동로 1280,126.7051056,33.51137273,http://place.map.kakao.com/1428339846
240,21815420,의귀리새마을작은도서관,도서관,제주특별자치도 서귀포시 남원읍 한신로 207,126.7133267,33.3103612,http://place.map.kakao.com/21815420
241,2026986456,남원LH새마을작은도서관,도서관,제주특별자치도 서귀포시 남원읍 남원체육관로 342,126.7222884,33.28133645,http://place.map.kakao.com/2026986456
242,21815446,태흥1리새마을작은도서관,도서관,제주특별자치도 서귀포시 남원읍 태위로 817,126.7331455,33.28343939,http://place.map.kakao.com/21815446
243,21815417,태흥2리새마을작은도서관,도서관,제주특별자치도 서귀포시 남원읍 태신로 14,126.7451648,33.2877131,http://place.map.kakao.com/21815417
244,1005289251,김녕리새마을작은도서관,도서관,제주특별자치도 제주시 구좌읍 김녕로 83,126.7468955,33.55448933,http://place.map.kakao.com/1005289251
245,230883341,태흥3리새마을 작은도서관,도서관,제주특별자치도 서귀포시 남원읍 삼덕로 3,126.7587355,33.29357915,http://place.map.kakao.com/230883341
246,2001026666,웃토산작은도서관,도서관,제주특별자치도 서귀포시 표선면 중산간동로5570번길 2,126.7657078,33.32645146,http://place.map.kakao.com/2001026666
247,21815424,가시새마을작은도서관,도서관,제주특별자치도 서귀포시 표선면 가시로565번길 20,126.7715838,33.35316132,http://place.map.kakao.com/21815424
248,1232786250,오시리가름작은도서관,도서관,제주특별자치도 서귀포시 표선면 중산간동로 5261,126.7740148,33.35036713,http://place.map.kakao.com/1232786250
249,21815425,성읍2리새마을작은도서관,도서관,제주특별자치도 서귀포시 표선면 성읍이리로58번길 8,126.7719343,33.4131737,http://place.map.kakao.com/21815425
250,934542057,당오름작은도서관,도서관,제주특별자치도 제주시 구좌읍 중산간동로 2210,126.7790664,33.47133054,http://place.map.kakao.com/934542057
251,1604092353,세화1리새마을작은도서관,도서관,제주특별자치도 서귀포시 표선면 세성로 302,126.7979874,33.33210274,http://place.map.kakao.com/1604092353
252,1824333633,갯머리작은도서관,도서관,제주특별자치도 서귀포시 표선면 일주동로 6276,126.8012333,33.30703098,http://place.map.kakao.com/1824333633
253,8123230,표선도서관,도서관,제주특별자치도 서귀포시 표선면 표선백사로110번길 17-10,126.8385463,33.32389505,http://place.map.kakao.com/8123230
254,21815411,삼달리작은도서관,도서관,제주특별자치도 서귀포시 성산읍 삼달로 209,126.8472286,33.37427081,http://place.map.kakao.com/21815411
255,7842372,동녘도서관,도서관,제주특별자치도 제주시 구좌읍 일주동로 3148,126.8546083,33.52041277,http://place.map.kakao.com/7842372
256,1869854262,롯데홈쇼핑작은도서관 50호점,도서관,제주특별자치도 제주시 구좌읍 평대13길 46,126.8542127,33.52650712,http://place.map.kakao.com/1869854262
257,1843854529,수산초새마을문고,도서관,제주특별자치도 서귀포시 성산읍 수시로 9,126.8852813,33.44738604,http://place.map.kakao.com/1843854529
258,1626408382,온평열운이작은도서관,도서관,제주특별자치도 서귀포시 성산읍 온평애향로23번길 6,126.9001511,33.40813901,http://place.map.kakao.com/1626408382
259,1350104158,아름인도서관,도서관,제주특별자치도 서귀포시 성산읍 일출로 14-11,126.9129787,33.44660072,http://place.map.kakao.com/1350104158
260,9133464,성산일출도서관,도서관,제주특별자치도 서귀포시 성산읍 고성오조로 133,126.9122989,33.45527375,http://place.map.kakao.com/9133464
261,1709914636,아쿠아플라넷제주 마린라이브러리,도서관,제주특별자치도 서귀포시 성산읍 섭지코지로 95,126.9278663,33.43311133,http://place.map.kakao.com/1709914636
262,66412607,우도작은도서관,도서관,제주특별자치도 제주시 우도면 영일진사길 15-5,126.9558521,33.5071375,http://place.map.kakao.com/66412607
